name,alt_name,region,country,latitude,longitude
Abee,,Alberta,CA,54.238,-113.025
Acadia Valley,,Alberta,CA,51.1585,-110.209
Acme,,Alberta,CA,51.4972,-113.509
Aetna,,Alberta,CA,49.1339,-113.24
Airdrie,,Alberta,CA,51.2814,-114.004
Alberta Beach,,Alberta,CA,53.6756,-114.353
Alder Flats,,Alberta,CA,52.9331,-114.957
Aldersyde,,Alberta,CA,50.6761,-113.879
Alexander,,Alberta,CA,53.8033,-113.919
Alexis,,Alberta,CA,53.7324,-114.491
Alhambra,,Alberta,CA,52.3431,-114.672
Alix,,Alberta,CA,52.3981,-113.189
Alliance,,Alberta,CA,52.4344,-111.785
Altario,,Alberta,CA,51.9186,-110.162
Amesbury,,Alberta,CA,55.0811,-112.497
Amisk,,Alberta,CA,52.5656,-111.057
Andrew,,Alberta,CA,53.8783,-112.335
Anzac,,Alberta,CA,56.4478,-111.046
Arcadia,,Alberta,CA,55.4026,-116.131
Ardenode,,Alberta,CA,51.1444,-113.424
Ardley,,Alberta,CA,52.2611,-113.232
Ardmore,,Alberta,CA,54.3314,-110.477
Ardrossan,,Alberta,CA,53.5522,-113.144
Argentia Beach,,Alberta,CA,53.0536,-114.016
Armada,,Alberta,CA,50.4139,-112.754
Armena,,Alberta,CA,53.1225,-112.949
Arrowwood,,Alberta,CA,50.7392,-113.15
Artists View Park West,,Alberta,CA,51.0788,-114.272
Ashmont,,Alberta,CA,54.1292,-111.568
Assumption,,Alberta,CA,58.6994,-118.687
Athabasca,,Alberta,CA,54.7151,-113.284
Atikameg,,Alberta,CA,55.9169,-115.651
Atmore,,Alberta,CA,54.8192,-112.55
Balmoral,,Alberta,CA,52.2754,-113.7
Banff,,Alberta,CA,51.179,-115.569
Barnwell,,Alberta,CA,49.7606,-112.263
Barons,,Alberta,CA,49.9975,-113.081
Barrhead,,Alberta,CA,54.1217,-114.404
Bashaw,,Alberta,CA,52.5831,-112.97
Bassano,,Alberta,CA,50.7875,-112.468
Bawlf,,Alberta,CA,52.9194,-112.466
Bay Tree,,Alberta,CA,55.825,-119.906
Beaumont,,Alberta,CA,53.3525,-113.415
Beauvallon,,Alberta,CA,53.6592,-111.362
Beaver,,Alberta,CA,58.4708,-116.584
Beaver Lake,,Alberta,CA,54.753,-111.927
Beaver Lake,,Alberta,CA,54.6687,-111.907
Beaver Mines,,Alberta,CA,49.4567,-114.197
Beaverlodge,,Alberta,CA,55.2118,-119.422
Beiseker,,Alberta,CA,51.385,-113.536
Bellevue,,Alberta,CA,49.5808,-114.366
Bellis,,Alberta,CA,54.1428,-112.15
Benalto,,Alberta,CA,52.3078,-114.278
Benchlands,,Alberta,CA,51.2834,-114.801
Bentley,,Alberta,CA,52.4664,-114.051
Bergen,,Alberta,CA,51.7081,-114.632
Berwyn,,Alberta,CA,56.1488,-117.724
Betula Beach,,Alberta,CA,53.5362,-114.677
Bezanson,,Alberta,CA,55.2286,-118.361
Big Valley,,Alberta,CA,52.0328,-112.752
Bigstone,,Alberta,CA,55.9436,-113.769
Bindloss,,Alberta,CA,50.88,-110.274
Birch Cove,,Alberta,CA,53.9538,-114.372
Bircham,,Alberta,CA,51.4589,-113.431
Birchcliff,,Alberta,CA,52.3619,-114.118
Bittern Lake,,Alberta,CA,53.0081,-113.057
Black Diamond,,Alberta,CA,50.6881,-114.234
Blackfalds,,Alberta,CA,52.3783,-113.796
Blackfoot,,Alberta,CA,53.2892,-110.173
Blackie,,Alberta,CA,50.6044,-113.623
Blairmore,,Alberta,CA,49.6081,-114.443
Blue Ridge,,Alberta,CA,54.125,-115.378
Blueberry Mountain,,Alberta,CA,55.9267,-119.15
Bluesky,,Alberta,CA,56.0735,-118.239
Bluffton,,Alberta,CA,52.7494,-114.292
Bodo,,Alberta,CA,52.1533,-110.079
Bon Accord,,Alberta,CA,53.8369,-113.412
Bonanza,,Alberta,CA,55.9128,-119.827
Bondiss,,Alberta,CA,54.5981,-112.695
Bonnyville,,Alberta,CA,54.2672,-110.739
Botha,,Alberta,CA,52.3081,-112.524
Bow Island,,Alberta,CA,49.8672,-111.379
Bowden,,Alberta,CA,51.9332,-114.032
Boyle,,Alberta,CA,54.5897,-112.807
Bragg Creek,,Alberta,CA,50.9503,-114.57
Brant,,Alberta,CA,50.5169,-113.512
Breton,,Alberta,CA,53.1101,-114.471
Breynat,,Alberta,CA,55.1414,-112.491
Bristol Oakes,,Alberta,CA,53.6824,-113.564
Brocket,,Alberta,CA,49.5467,-113.75
Brooks,,Alberta,CA,50.5672,-111.895
Brownfield,,Alberta,CA,52.3172,-111.433
Brownvale,,Alberta,CA,56.1282,-117.896
Bruce,,Alberta,CA,53.1739,-112.039
Bruderheim,,Alberta,CA,53.7997,-112.928
Brule,,Alberta,CA,53.284,-117.874
Buck Creek,,Alberta,CA,53.1039,-114.896
Buck Lake,,Alberta,CA,52.9486,-114.777
Buffalo Head Prairie,,Alberta,CA,58.0508,-116.349
Buffalo Lake Metis Settlement,,Alberta,CA,54.5791,-112.448
Buford,,Alberta,CA,53.2471,-113.927
Bulwark,,Alberta,CA,52.2417,-111.587
Burdett,,Alberta,CA,49.835,-111.523
Burmis,,Alberta,CA,49.5572,-114.288
Burnstick Lake,,Alberta,CA,51.9894,-114.892
Busby,,Alberta,CA,53.9481,-113.891
Byemoor,,Alberta,CA,51.9797,-112.287
Cadogan,,Alberta,CA,52.3192,-110.449
Cadomin,,Alberta,CA,53.0282,-117.331
Cadotte Lake,,Alberta,CA,56.4705,-116.382
Calahoo,,Alberta,CA,53.7145,-113.958
Calgary,,Alberta,CA,51.0458,-114.057
Calling Lake,,Alberta,CA,55.2103,-113.19
Calling Lake,,Alberta,CA,55.2463,-113.198
Calmar,,Alberta,CA,53.2664,-113.809
Cambria,,Alberta,CA,51.3939,-112.59
Campsie,,Alberta,CA,54.1278,-114.647
Camrose,,Alberta,CA,53.0181,-112.839
Canmore,,Alberta,CA,51.0928,-115.361
Canyon Creek,,Alberta,CA,55.3666,-115.097
Canyon Heights,,Alberta,CA,52.2907,-113.704
Carbon,,Alberta,CA,51.4858,-113.151
Carbondale,,Alberta,CA,53.7464,-113.527
Cardiff,,Alberta,CA,53.7728,-113.6
Cardston,,Alberta,CA,49.1962,-113.307
Carmangay,,Alberta,CA,50.1294,-113.111
Caroline,,Alberta,CA,52.0948,-114.738
Carseland,,Alberta,CA,50.8544,-113.471
Carstairs,,Alberta,CA,51.5656,-114.099
Caslan,,Alberta,CA,54.6311,-112.512
Cassils,,Alberta,CA,50.5769,-112.046
Castor,,Alberta,CA,52.2192,-111.904
Cayley,,Alberta,CA,50.4481,-113.847
Central Park,,Alberta,CA,52.3309,-113.823
Cereal,,Alberta,CA,51.4183,-110.8
Cessford,,Alberta,CA,51.0064,-111.557
Champion,,Alberta,CA,50.2397,-113.148
Chancellor,,Alberta,CA,51.0885,-112.835
Chauvin,,Alberta,CA,52.6936,-110.141
Cheadle,,Alberta,CA,51.0144,-113.541
Cherhill,,Alberta,CA,53.8192,-114.677
Cherry Grove,,Alberta,CA,54.3561,-110.075
Chestermere,,Alberta,CA,51.0373,-113.828
Chin,,Alberta,CA,49.7635,-112.445
Chinook,,Alberta,CA,51.4494,-110.925
Chipewyan Lake,,Alberta,CA,56.9403,-113.473
Chipewyan Prairie,,Alberta,CA,55.9358,-110.717
Chipman,,Alberta,CA,53.6983,-112.638
Chisholm,,Alberta,CA,54.9094,-114.169
Chokio,,Alberta,CA,49.5819,-113.66
Clairmont,,Alberta,CA,55.2614,-118.794
Clandonald,,Alberta,CA,53.5719,-110.714
Claresholm,,Alberta,CA,50.0197,-113.583
Cleardale,,Alberta,CA,56.3558,-119.478
Clearwater Estates,,Alberta,CA,53.5694,-114.081
Clive,,Alberta,CA,52.4774,-113.445
Cluny,,Alberta,CA,50.8411,-112.869
Clyde,,Alberta,CA,54.1502,-113.636
Coaldale,,Alberta,CA,49.7278,-112.619
Coalhurst,,Alberta,CA,49.7467,-112.931
Cochrane,,Alberta,CA,51.1897,-114.484
Cochrane Lake,,Alberta,CA,51.2434,-114.482
Cold Lake,,Alberta,CA,54.4664,-110.188
Coleman,,Alberta,CA,49.6353,-114.503
Colinton,,Alberta,CA,54.6206,-113.253
College Heights,,Alberta,CA,52.4892,-113.733
Collingwood Cove,,Alberta,CA,53.4469,-113.005
Compeer,,Alberta,CA,51.8594,-110.013
Condor,,Alberta,CA,52.3264,-114.555
Conklin,,Alberta,CA,55.6308,-111.09
Connemara,,Alberta,CA,50.4001,-113.829
Conrich,,Alberta,CA,51.0933,-113.863
Consort,,Alberta,CA,52.0123,-110.771
Cooking Lake,,Alberta,CA,53.4114,-113.122
Coronado,,Alberta,CA,53.8878,-113.295
Coronation,,Alberta,CA,52.0947,-111.448
Coutts,,Alberta,CA,49.0028,-111.959
Cowley,,Alberta,CA,49.568,-114.074
Craigmyle,,Alberta,CA,51.6697,-112.243
Cremona,,Alberta,CA,51.5453,-114.485
Crossfield,,Alberta,CA,51.4306,-114.031
Crystal Meadows,,Alberta,CA,53.5634,-114.168
Crystal Springs,,Alberta,CA,52.9733,-114.041
Czar,,Alberta,CA,52.4547,-110.828
Dalemead,,Alberta,CA,50.8747,-113.637
Dalroy,,Alberta,CA,51.1286,-113.669
Dapp,,Alberta,CA,54.345,-113.916
Dawn Valley,,Alberta,CA,53.6214,-114.02
Daysland,,Alberta,CA,52.8673,-112.264
De Winton,,Alberta,CA,50.8231,-114.019
Deadwood,,Alberta,CA,56.7411,-117.458
DeBolt,,Alberta,CA,55.2217,-118.02
Del Bonita,,Alberta,CA,49.0294,-112.791
Delburne,,Alberta,CA,52.1981,-113.235
Delia,,Alberta,CA,51.6306,-112.374
Dene Tha',,Alberta,CA,58.5149,-117.065
Denwood,,Alberta,CA,52.8176,-110.891
Derwent,,Alberta,CA,53.6545,-110.967
Devon,,Alberta,CA,53.3613,-113.725
Devonshire Meadows,,Alberta,CA,53.3888,-113.83
Dewberry,,Alberta,CA,53.5881,-110.525
Diamond City,,Alberta,CA,49.7956,-112.839
Dickson,,Alberta,CA,52.0581,-114.308
Didsbury,,Alberta,CA,51.6594,-114.137
Dixonville,,Alberta,CA,56.5374,-117.672
Dogpound,,Alberta,CA,51.4567,-114.397
Donalda,,Alberta,CA,52.5836,-112.574
Donnelly,,Alberta,CA,55.7289,-117.105
Dorothy,,Alberta,CA,51.2792,-112.325
Drayton Valley,,Alberta,CA,53.2215,-114.974
Driftpile,,Alberta,CA,55.3428,-115.788
Drumheller,,Alberta,CA,51.4644,-112.719
Duchess,,Alberta,CA,50.7311,-111.906
Duffield,,Alberta,CA,53.5281,-114.344
Duhamel,,Alberta,CA,52.9156,-112.963
Duncan's,,Alberta,CA,56.1208,-117.861
Dunmore,,Alberta,CA,49.9703,-110.584
Durward,,Alberta,CA,50.2956,-113.713
Duvernay,,Alberta,CA,53.7861,-111.692
Eaglesham,,Alberta,CA,55.7825,-117.883
East Coulee,,Alberta,CA,51.3436,-112.498
East Prairie Metis Settlement,,Alberta,CA,55.1891,-116.27
Eastview Acres,,Alberta,CA,49.7895,-113.016
Eckville,,Alberta,CA,52.36,-114.367
Edberg,,Alberta,CA,52.7847,-112.789
Edgerton,,Alberta,CA,52.7586,-110.458
Edmonton,,Alberta,CA,53.5358,-113.494
Edson,,Alberta,CA,53.5866,-116.436
Egremont,,Alberta,CA,54.0383,-113.126
Eldoes Trailer Park,,Alberta,CA,55.1696,-118.744
Elizabeth Metis Settlement,,Alberta,CA,54.217,-110.092
Elk Point,,Alberta,CA,53.9011,-110.901
Elkwater,,Alberta,CA,49.6608,-110.282
Ellscott,,Alberta,CA,54.5031,-112.901
Elmworth,,Alberta,CA,55.0539,-119.616
Elnora,,Alberta,CA,51.9936,-113.201
Empress,,Alberta,CA,50.9543,-110.008
Enchant,,Alberta,CA,50.17,-112.422
Endiang,,Alberta,CA,51.9539,-112.158
Enilda,,Alberta,CA,55.4169,-116.311
Enoch,,Alberta,CA,53.4997,-113.761
Ensign,,Alberta,CA,50.475,-113.432
Entrance,,Alberta,CA,53.3748,-117.684
Entwistle,,Alberta,CA,53.5944,-114.996
Ermineskin,,Alberta,CA,52.836,-113.454
Erskine,,Alberta,CA,52.3211,-112.88
Etzikom,,Alberta,CA,49.4769,-111.107
Evansburg,,Alberta,CA,53.6004,-115.017
Exshaw,,Alberta,CA,51.0635,-115.159
Fabyan,,Alberta,CA,52.8819,-110.994
Fairview,,Alberta,CA,56.0672,-118.384
Falher,,Alberta,CA,55.7372,-117.201
Fallis,,Alberta,CA,53.5853,-114.641
Faust,,Alberta,CA,55.3158,-115.628
Fawcett,,Alberta,CA,54.5394,-114.096
Federal,,Alberta,CA,52.1117,-111.572
Ferintosh,,Alberta,CA,52.7658,-112.972
Ferrier Acres,,Alberta,CA,52.3649,-115.061
Fincastle,,Alberta,CA,49.8083,-112.002
Fitzgerald,,Alberta,CA,59.8617,-111.606
Flatbush,,Alberta,CA,54.6892,-114.156
Fleet,,Alberta,CA,52.1533,-111.73
Fleming Park,,Alberta,CA,53.4432,-113.72
Flyingshot Lake,,Alberta,CA,55.1421,-118.863
Foremost,,Alberta,CA,49.4764,-111.447
Forestburg,,Alberta,CA,52.5839,-112.064
Forshee,,Alberta,CA,52.558,-114.145
Fort Assiniboine,,Alberta,CA,54.3342,-114.775
Fort Chipewyan,,Alberta,CA,58.7144,-111.158
Fort Kent,,Alberta,CA,54.3108,-110.604
Fort MacKay,,Alberta,CA,57.1869,-111.636
Fort Macleod,,Alberta,CA,49.7231,-113.404
Fort McMurray,,Alberta,CA,56.7275,-111.387
Fort Saskatchewan,,Alberta,CA,53.7002,-113.225
Fort Vermilion,,Alberta,CA,58.3893,-116.007
Fox Creek,,Alberta,CA,54.4043,-116.81
Fox Lake,,Alberta,CA,58.4705,-114.533
Frank,,Alberta,CA,49.6027,-114.406
Frog Lake,,Alberta,CA,53.8721,-110.391
Gadsby,,Alberta,CA,52.2968,-112.356
Gainford,,Alberta,CA,53.5847,-114.785
Galahad,,Alberta,CA,52.5142,-111.931
Garden Creek,,Alberta,CA,58.7047,-113.886
Garden Grove Estates,,Alberta,CA,53.4836,-113.947
Gem,,Alberta,CA,50.9506,-112.189
Ghost Lake,,Alberta,CA,51.2066,-114.764
Gibbons,,Alberta,CA,53.8297,-113.328
Gift Lake,,Alberta,CA,55.8825,-115.813
Girouxville,,Alberta,CA,55.7536,-117.339
Gleichen,,Alberta,CA,50.8661,-113.055
Glen Leslie,,Alberta,CA,55.1994,-118.487
Glendon,,Alberta,CA,54.2525,-111.16
Glenevis,,Alberta,CA,53.7897,-114.517
Glenwood,,Alberta,CA,49.3659,-113.515
Glory Hills,,Alberta,CA,53.6828,-113.971
Golden Days,,Alberta,CA,53.0514,-114.053
Goodfish Lake,,Alberta,CA,54.2975,-111.806
Gordondale,,Alberta,CA,55.84,-119.54
Grande Cache,,Alberta,CA,53.8881,-119.119
Grande Prairie,,Alberta,CA,55.1708,-118.796
Grandview,,Alberta,CA,52.9879,-114.066
Grantham,,Alberta,CA,50.0687,-112.009
Granum,,Alberta,CA,49.8711,-113.508
Grassland,,Alberta,CA,54.82,-112.687
Grassy Lake,,Alberta,CA,49.8253,-111.698
Green Acre Estates,,Alberta,CA,53.4979,-113.941
Green Court,,Alberta,CA,54.0078,-115.239
Gregoire Lake Estates,,Alberta,CA,56.4669,-111.194
Grimshaw,,Alberta,CA,56.1886,-117.606
Grouard,,Alberta,CA,55.5203,-116.161
Grouard Mission,,Alberta,CA,55.5422,-116.154
Grovedale,,Alberta,CA,55.0278,-118.859
Gull Lake,,Alberta,CA,52.4622,-113.941
Gunn,,Alberta,CA,53.7305,-114.348
Guy,,Alberta,CA,55.5489,-117.12
Gwynne,,Alberta,CA,52.9867,-113.199
Hairy Hill,,Alberta,CA,53.7633,-111.979
Half Moon Bay,,Alberta,CA,52.345,-114.172
Half Moon Estates,,Alberta,CA,53.4615,-113.084
Halkirk,,Alberta,CA,52.2825,-112.154
Hanna,,Alberta,CA,51.6458,-111.925
Hardisty,,Alberta,CA,52.675,-111.304
Hartleyville,,Alberta,CA,49.3644,-113.609
Harvie Heights,,Alberta,CA,51.13,-115.376
Hawk Hills,,Alberta,CA,57.2555,-117.413
Hay Lakes,,Alberta,CA,53.1967,-113.057
Hayfield,,Alberta,CA,55.1708,-119.615
Haynes,,Alberta,CA,52.3175,-113.392
Hays,,Alberta,CA,50.0981,-111.794
Hayter,,Alberta,CA,52.3564,-110.108
Hazell,,Alberta,CA,49.63,-114.664
Heart Lake,,Alberta,CA,54.9832,-111.56
Heinsburg,,Alberta,CA,53.7675,-110.522
Heisler,,Alberta,CA,52.6711,-112.224
Heritage Woods,,Alberta,CA,51.0555,-114.241
Herronton,,Alberta,CA,50.6247,-113.439
Hesketh,,Alberta,CA,51.4703,-112.975
Hewitt Estates,,Alberta,CA,53.8073,-113.397
High Level,,Alberta,CA,58.516,-117.138
High Point Estates,,Alberta,CA,51.0309,-113.781
High Prairie,,Alberta,CA,55.4347,-116.488
High River,,Alberta,CA,50.5797,-113.874
Hilda,,Alberta,CA,50.4797,-110.033
Hill Spring,,Alberta,CA,49.2931,-113.622
Hillcrest Mines,,Alberta,CA,49.5689,-114.377
Hilliard,,Alberta,CA,53.64,-112.482
Hines Creek,,Alberta,CA,56.2486,-118.603
Hinton,,Alberta,CA,53.4,-117.572
Hobbema,,Alberta,CA,52.8194,-113.461
Holden,,Alberta,CA,53.2333,-112.234
Hondo,,Alberta,CA,55.0716,-114.039
Horse Lake,,Alberta,CA,54.8229,-119.352
Horseshoe Bay,,Alberta,CA,54.1262,-111.364
Hu Haven,,Alberta,CA,53.7709,-113.205
Hubbles Lake,,Alberta,CA,53.5593,-114.088
Hughenden,,Alberta,CA,52.5106,-110.967
Hussar,,Alberta,CA,51.0414,-112.682
Huxley,,Alberta,CA,51.9243,-113.23
Hylo,,Alberta,CA,54.6775,-112.211
Hythe,,Alberta,CA,55.33,-119.55
Iddesleigh,,Alberta,CA,50.7356,-111.303
Imperial Mills,,Alberta,CA,55.0001,-111.731
Indian Cabins,,Alberta,CA,59.8675,-117.035
Indus,,Alberta,CA,50.9158,-113.78
Innisfail,,Alberta,CA,52.0242,-113.953
Innisfree,,Alberta,CA,53.3825,-111.531
Irma,,Alberta,CA,52.9119,-111.228
Iron Springs,,Alberta,CA,49.93,-112.688
Irricana,,Alberta,CA,51.3236,-113.608
Irvine,,Alberta,CA,49.9553,-110.277
Island Lake,,Alberta,CA,54.8415,-113.558
Islay,,Alberta,CA,53.3939,-110.539
Itaska Beach,,Alberta,CA,53.0722,-114.08
Jarrow,,Alberta,CA,52.9408,-111.395
Jarvie,,Alberta,CA,54.4547,-113.987
Jarvis Bay,,Alberta,CA,52.3352,-114.08
Jasper,,Alberta,CA,52.8711,-118.093
Jean Côté,,Alberta,CA,55.8981,-117.311
Jenner,,Alberta,CA,50.7467,-111.184
Joffre,,Alberta,CA,52.3371,-113.537
John D'Or Prairie,,Alberta,CA,58.4938,-115.144
Johnson's Addition,,Alberta,CA,49.7827,-112.177
Josephburg,,Alberta,CA,53.7133,-113.07
Joussard,,Alberta,CA,55.3952,-115.951
Judson,,Alberta,CA,49.5222,-112.346
Kapasiwin,,Alberta,CA,53.5442,-114.445
Kapawe'no,,Alberta,CA,55.5475,-116.152
Kathyrn,,Alberta,CA,51.2183,-113.708
Kavanagh,,Alberta,CA,53.1822,-113.517
Keg River,,Alberta,CA,57.746,-117.61
Kehewin,,Alberta,CA,54.1104,-110.882
Kelsey,,Alberta,CA,52.8458,-112.549
Keoma,,Alberta,CA,51.2169,-113.649
Kew,,Alberta,CA,50.7329,-114.417
Kikino,,Alberta,CA,54.4442,-112.094
Killam,,Alberta,CA,52.7897,-111.855
Kingman,,Alberta,CA,53.2133,-112.749
Kinsella,,Alberta,CA,53.0016,-111.524
Kinuso,,Alberta,CA,55.3319,-115.435
Kirkcaldy,,Alberta,CA,50.335,-113.238
Kitscoty,,Alberta,CA,53.3419,-110.333
La Crete,,Alberta,CA,58.1878,-116.417
La Glace,,Alberta,CA,55.4028,-119.154
Lac des Arcs,,Alberta,CA,51.0501,-115.157
Lac La Biche,,Alberta,CA,54.7686,-111.978
Lacombe,,Alberta,CA,52.4644,-113.734
Lake Louise,,Alberta,CA,51.4253,-116.181
Lakeview,,Alberta,CA,53.5597,-114.457
Lamont,,Alberta,CA,53.7625,-112.778
Lancaster Park,,Alberta,CA,53.6728,-113.491
Langdon,,Alberta,CA,50.9737,-113.67
Larkspur,,Alberta,CA,54.4387,-113.768
Lavoy,,Alberta,CA,53.4587,-111.863
Lawsonburg,,Alberta,CA,51.4836,-112.159
Leahurst,,Alberta,CA,52.3763,-112.644
Leavitt,,Alberta,CA,49.1709,-113.453
Leduc,,Alberta,CA,53.2667,-113.546
Leedale,,Alberta,CA,52.5819,-114.47
Legal,,Alberta,CA,53.9495,-113.595
Legend,,Alberta,CA,49.4844,-111.61
Les Trailer Park,,Alberta,CA,52.2786,-113.867
Leslieville,,Alberta,CA,52.3833,-114.605
Lethbridge,,Alberta,CA,49.6928,-112.835
Lindbergh,,Alberta,CA,53.8875,-110.673
Linden,,Alberta,CA,51.5906,-113.488
Linn Valley,,Alberta,CA,52.3214,-113.873
Little Buffalo,,Alberta,CA,56.4375,-116.108
Lloydminster,,Alberta,CA,53.279,-110.019
Lodgepole,,Alberta,CA,53.1006,-115.314
Lomond,,Alberta,CA,50.3494,-112.641
Lone Pine,,Alberta,CA,54.3058,-115.115
Long Lake,,Alberta,CA,54.4517,-112.775
Longview,,Alberta,CA,50.5308,-114.231
Loon Lake,,Alberta,CA,56.5389,-115.394
Lougheed,,Alberta,CA,52.7444,-111.543
Louis Bull,,Alberta,CA,52.8887,-113.541
Lousana,,Alberta,CA,52.1128,-113.19
Loyalist,,Alberta,CA,51.9858,-110.954
Lundbreck,,Alberta,CA,49.5845,-114.164
Lyalta,,Alberta,CA,51.1145,-113.602
Ma-Me-O Beach,,Alberta,CA,52.9735,-113.96
Magrath,,Alberta,CA,49.417,-112.865
Makepeace,,Alberta,CA,50.9394,-112.616
Mallaig,,Alberta,CA,54.2103,-111.361
Manning,,Alberta,CA,56.92,-117.629
Mannville,,Alberta,CA,53.3403,-111.178
Manyberries,,Alberta,CA,49.4006,-110.695
Markerville,,Alberta,CA,52.1236,-114.171
Marlboro,,Alberta,CA,53.5556,-116.796
Martins Trailer Court,,Alberta,CA,52.3597,-115.028
Marwayne,,Alberta,CA,53.5175,-110.33
Mayerthorpe,,Alberta,CA,53.9547,-115.138
McDermott,,Alberta,CA,49.7309,-112.948
McLaughlin,,Alberta,CA,52.9897,-110.165
McLennan,,Alberta,CA,55.7062,-116.906
McLeod Valley,,Alberta,CA,53.7206,-115.971
McNab,,Alberta,CA,49.3494,-112.29
Meander River,,Alberta,CA,59.0434,-117.714
Meanook,,Alberta,CA,54.5766,-113.319
Medicine Hat,,Alberta,CA,50.0408,-110.677
Medley,,Alberta,CA,54.4191,-110.268
Meeting Creek,,Alberta,CA,52.6819,-112.732
Meso West,,Alberta,CA,53.5915,-114.308
Metiskow,,Alberta,CA,52.4086,-110.633
Mewatha Beach,,Alberta,CA,54.6065,-112.741
Michichi,,Alberta,CA,51.5853,-112.534
Mikisew,,Alberta,CA,58.7678,-111.046
Milk River,,Alberta,CA,49.1554,-112.083
Millarville,,Alberta,CA,50.7564,-114.325
Millet,,Alberta,CA,53.0923,-113.473
Millicent,,Alberta,CA,50.7103,-111.779
Milo,,Alberta,CA,50.57,-112.882
Minburn,,Alberta,CA,53.3156,-111.364
Mirror,,Alberta,CA,52.4656,-113.11
Monarch,,Alberta,CA,49.8044,-113.108
Monitor,,Alberta,CA,51.9783,-110.569
Montana,,Alberta,CA,52.7271,-113.424
Moon River Estates,,Alberta,CA,49.7286,-113.149
Moose Portage,,Alberta,CA,55.2292,-113.883
Morinville,,Alberta,CA,53.8028,-113.644
Morley,,Alberta,CA,51.1672,-114.852
Morningside,,Alberta,CA,52.5778,-113.634
Morrin,,Alberta,CA,51.6603,-112.767
Mossleigh,,Alberta,CA,50.7203,-113.324
Mountain View,,Alberta,CA,49.1344,-113.596
Mulhurst,,Alberta,CA,53.0493,-113.981
Mundare,,Alberta,CA,53.5939,-112.342
Munson,,Alberta,CA,51.5633,-112.738
Musidora,,Alberta,CA,53.6897,-111.584
Myrnam,,Alberta,CA,53.6617,-111.23
Nacmine,,Alberta,CA,51.47,-112.784
Nakamun Park,,Alberta,CA,53.8776,-114.214
Namaka,,Alberta,CA,50.9583,-113.287
Namao,,Alberta,CA,53.7671,-113.474
Nampa,,Alberta,CA,56.0381,-117.13
Nanton,,Alberta,CA,50.346,-113.777
Neerlandia,,Alberta,CA,54.3192,-114.377
Nevis,,Alberta,CA,52.3303,-113.031
New Brigden,,Alberta,CA,51.7006,-110.49
New Dayton,,Alberta,CA,49.4256,-112.381
New Norway,,Alberta,CA,52.8689,-112.951
New Sarepta,,Alberta,CA,53.2742,-113.146
Newbrook,,Alberta,CA,54.326,-112.949
Nightingale,,Alberta,CA,51.1603,-113.333
Niton Junction,,Alberta,CA,53.6219,-115.77
Nobleford,,Alberta,CA,49.8803,-113.054
Norglenwold,,Alberta,CA,52.3245,-114.132
Norris Beach,,Alberta,CA,52.9666,-114.023
North Star,,Alberta,CA,56.8564,-117.615
Notikewin,,Alberta,CA,56.9747,-117.625
O'Chiese,,Alberta,CA,52.6839,-115.256
Obed,,Alberta,CA,53.5583,-117.215
Ohaton,,Alberta,CA,52.97,-112.661
Okotoks,,Alberta,CA,50.7261,-113.977
Olds,,Alberta,CA,51.7919,-114.107
Onoway,,Alberta,CA,53.7025,-114.192
Orton,,Alberta,CA,49.732,-113.264
Osborne Acres,,Alberta,CA,53.558,-113.8
Oyen,,Alberta,CA,51.3528,-110.483
Paddle Prairie,,Alberta,CA,57.9511,-117.472
Panorama Heights,,Alberta,CA,53.6318,-113.942
Paradise Valley,,Alberta,CA,53.0328,-110.296
Parkland,,Alberta,CA,50.2561,-113.659
Parkland Beach,,Alberta,CA,52.6072,-114.065
Patricia,,Alberta,CA,50.6994,-111.677
Peace River,,Alberta,CA,56.2389,-117.292
Peavine Metis Settlement,,Alberta,CA,55.7845,-116.297
Peerless Lake,,Alberta,CA,56.6804,-114.581
Peers,,Alberta,CA,53.6658,-115.993
Pelican Narrows,,Alberta,CA,54.2629,-110.89
Pemukan,,Alberta,CA,51.9719,-110.444
Penhold,,Alberta,CA,52.1369,-113.873
Perryvale,,Alberta,CA,54.4678,-113.387
Peterburn Estates,,Alberta,CA,53.4952,-113.966
Pibroch,,Alberta,CA,54.2544,-113.875
Pickardville,,Alberta,CA,54.0519,-113.881
Picture Butte,,Alberta,CA,49.8769,-112.78
Pincher,,Alberta,CA,49.5248,-113.947
Pincher Creek,,Alberta,CA,49.4853,-113.947
Pine Lake,,Alberta,CA,52.1103,-113.482
Pine Shadows,,Alberta,CA,53.6031,-116.305
Pipestone,,Alberta,CA,53.0536,-113.795
Plamondon,,Alberta,CA,54.8497,-112.342
Point Alison,,Alberta,CA,53.5503,-114.486
Pollockville,,Alberta,CA,51.1061,-111.59
Ponoka,,Alberta,CA,52.675,-113.58
Poplar Bay,,Alberta,CA,53.0078,-114.121
Poplar Ridge,,Alberta,CA,52.2994,-113.937
Prairie Lodge Trailer Court,,Alberta,CA,53.5145,-112.052
Priddis,,Alberta,CA,50.8861,-114.329
Provost,,Alberta,CA,52.3533,-110.265
Purple Springs,,Alberta,CA,49.8156,-111.892
Queenstown,,Alberta,CA,50.6394,-112.939
Radway,,Alberta,CA,54.06,-112.945
Rainbow Lake,,Alberta,CA,58.5044,-119.4
Rainier,,Alberta,CA,50.3683,-112.092
Ralston,,Alberta,CA,50.2458,-111.169
Ranfurly,,Alberta,CA,53.4072,-111.68
Raymond,,Alberta,CA,49.465,-112.661
Red Deer,,Alberta,CA,52.2686,-113.81
Red Earth Creek,,Alberta,CA,56.5363,-115.298
Red Willow,,Alberta,CA,52.4504,-112.573
Redcliff,,Alberta,CA,50.0775,-110.786
Redland,,Alberta,CA,51.2897,-113.008
Redwater,,Alberta,CA,53.9508,-113.107
Reno,,Alberta,CA,55.9943,-117.0
Rich Lake,,Alberta,CA,54.5078,-111.619
Rich Valley,,Alberta,CA,53.8483,-114.35
Richdale,,Alberta,CA,51.6103,-111.604
Rimbey,,Alberta,CA,52.6392,-114.237
Riverview,,Alberta,CA,53.8619,-110.642
Riverview Pines,,Alberta,CA,55.0875,-118.946
Robb,,Alberta,CA,53.2333,-116.979
Rochester,,Alberta,CA,54.3725,-113.461
Rochfort Bridge,,Alberta,CA,53.9136,-115.036
Rochon Sands,,Alberta,CA,52.454,-112.882
Rocky Lane,,Alberta,CA,58.4588,-116.259
Rocky Mountain House,,Alberta,CA,52.3793,-114.919
Rocky Rapids,,Alberta,CA,53.2797,-114.952
Rockyford,,Alberta,CA,51.2342,-113.142
Rolling Heights,,Alberta,CA,53.6383,-113.992
Rolling Hills,,Alberta,CA,50.2256,-111.774
Rolling Meadows,,Alberta,CA,53.5826,-113.854
Rolly View,,Alberta,CA,53.2528,-113.317
Rosalind,,Alberta,CA,52.7897,-112.444
Rose Lynn,,Alberta,CA,51.4178,-111.677
Rosebud,,Alberta,CA,51.2997,-112.951
Rosedale,,Alberta,CA,51.4167,-112.633
Rosemary,,Alberta,CA,50.7575,-112.09
Ross Haven,,Alberta,CA,53.7342,-114.408
Rossian,,Alberta,CA,54.9545,-112.371
Round Hill,,Alberta,CA,53.1653,-112.631
Rowley,,Alberta,CA,51.7622,-112.788
Rumsey,,Alberta,CA,51.8419,-112.842
Rycroft,,Alberta,CA,55.7558,-118.709
Ryley,,Alberta,CA,53.2908,-112.43
Saddle Lake,,Alberta,CA,53.9559,-111.701
Samson Peak,,Alberta,CA,52.6806,-117.5273
Sandy Beach,,Alberta,CA,53.8084,-114.039
Sandy Lake,,Alberta,CA,55.8144,-113.416
Sangudo,,Alberta,CA,53.8879,-114.895
Saprae Creek,,Alberta,CA,56.6592,-111.143
Saskatchewan River Crossing,,Alberta,CA,51.9758,-116.743
Sawridge,,Alberta,CA,55.3117,-114.868
Sawridge,,Alberta,CA,55.2901,-114.75
Scandia,,Alberta,CA,50.2781,-112.047
Schuler,,Alberta,CA,50.3407,-110.089
Scollard,,Alberta,CA,51.9375,-112.834
Seba Beach,,Alberta,CA,53.5593,-114.734
Sedalia,,Alberta,CA,51.675,-110.665
Sedgewick,,Alberta,CA,52.7747,-111.693
Seven Persons,,Alberta,CA,49.8761,-110.908
Sexsmith,,Alberta,CA,55.3503,-118.782
Shaughnessy,,Alberta,CA,49.8528,-112.842
Shepard,,Alberta,CA,50.953,-113.908
Sherwood Park,,Alberta,CA,53.5339,-113.29
Shouldice,,Alberta,CA,50.7167,-112.974
Sibbald,,Alberta,CA,51.3883,-110.15
Siksika,,Alberta,CA,50.7924,-112.855
Silver Beach,,Alberta,CA,53.0368,-113.994
Silver Sands,,Alberta,CA,53.6369,-114.657
Skiff,,Alberta,CA,49.5025,-111.791
Slave Lake,,Alberta,CA,55.2822,-114.77
Smith,,Alberta,CA,55.162,-114.041
Smoky Lake,,Alberta,CA,54.1167,-112.467
South Baptiste,,Alberta,CA,54.7219,-113.573
South View,,Alberta,CA,53.6468,-114.663
Spedden,,Alberta,CA,54.1386,-111.726
Spirit River,,Alberta,CA,55.7786,-118.837
Spring Coulee,,Alberta,CA,49.3331,-113.053
Spring Lake,,Alberta,CA,53.5186,-114.133
Springbrook,,Alberta,CA,52.1767,-113.872
Spruce Grove,,Alberta,CA,53.5539,-113.902
Spruce Lane Acres,,Alberta,CA,52.3503,-113.813
Spruce View,,Alberta,CA,52.0856,-114.31
Sputinow,,Alberta,CA,53.9219,-110.268
St. Albert,,Alberta,CA,53.6369,-113.62
St. Isidore,,Alberta,CA,56.204,-117.107
St. Lina,,Alberta,CA,54.2961,-111.454
St. Michael,,Alberta,CA,53.8303,-112.636
St. Paul,St-Paul-de-Métis,Alberta,CA,53.9913,-111.3269
St. Paul,,Alberta,CA,53.9928,-111.296
Stand Off,,Alberta,CA,49.4569,-113.303
Standard,,Alberta,CA,51.1097,-112.984
Stavely,,Alberta,CA,50.1611,-113.642
Steen River,,Alberta,CA,59.6275,-117.167
Stettler,,Alberta,CA,52.3239,-112.704
Stirling,,Alberta,CA,49.5032,-112.527
Stonelaw,,Alberta,CA,51.8686,-112.481
Stony Plain,,Alberta,CA,53.5264,-114.007
Strathmore,,Alberta,CA,51.0456,-113.393
Strome,,Alberta,CA,52.8108,-112.067
Sturgeon Lake,,Alberta,CA,55.1286,-117.476
Sturgeon Lake,,Alberta,CA,55.0695,-117.489
Suffield,,Alberta,CA,50.2183,-111.161
Sunbreaker Cove,,Alberta,CA,52.3875,-114.187
Sunchild,,Alberta,CA,52.6935,-115.33
Sundance Beach,,Alberta,CA,53.0809,-114.121
Sundre,,Alberta,CA,51.7983,-114.64
Sunnybrook,,Alberta,CA,53.193,-114.2
Sunnyslope,,Alberta,CA,51.649,-113.558
Sunrise Beach,,Alberta,CA,53.7838,-114.055
Sunset Beach,,Alberta,CA,54.7415,-113.541
Sunset House,,Alberta,CA,55.112,-116.899
Sunset Point,,Alberta,CA,53.6888,-114.353
Sunset View Acres,,Alberta,CA,53.4502,-113.744
Swalwell,,Alberta,CA,51.5572,-113.318
Swan City Trailer Court,,Alberta,CA,55.1694,-118.754
Swan Hills,,Alberta,CA,54.7167,-115.402
Swan River,,Alberta,CA,55.3402,-115.451
Sylvan Lake,,Alberta,CA,52.3047,-114.1145
Sylvan Lake,,Alberta,CA,52.3057,-114.096
T & E Trailer Park,,Alberta,CA,55.1766,-118.751
Taber,,Alberta,CA,49.7848,-112.151
Tallcree,,Alberta,CA,57.9119,-115.356
Tawatinaw,,Alberta,CA,54.2979,-113.477
Tees,,Alberta,CA,52.4675,-113.321
Therien,,Alberta,CA,54.2389,-111.255
Thorhild,,Alberta,CA,54.1589,-113.125
Thorsby,,Alberta,CA,53.2269,-114.048
Three Hills,,Alberta,CA,51.7031,-113.269
Throne,,Alberta,CA,52.0534,-111.288
Tilley,,Alberta,CA,50.4522,-111.653
Tofield,,Alberta,CA,53.3708,-112.666
Tomahawk,,Alberta,CA,53.3979,-114.763
Torrington,,Alberta,CA,51.7914,-113.606
Travers,,Alberta,CA,50.2481,-112.555
Triple-L-Trailer Court,,Alberta,CA,55.1687,-118.65
Trochu,,Alberta,CA,51.8286,-113.228
Trout Lake,,Alberta,CA,56.4958,-114.558
Tsuu T'ina,,Alberta,CA,50.9515,-114.166
Tulliby Lake,,Alberta,CA,53.7139,-110.177
Turin,,Alberta,CA,49.9641,-112.528
Turner Valley,,Alberta,CA,50.6753,-114.28
Tuttle,,Alberta,CA,52.2012,-113.843
Twining,,Alberta,CA,51.6328,-113.297
Two Hills,,Alberta,CA,53.7111,-111.745
Upper and Lower Viscount Estates,,Alberta,CA,53.6748,-113.561
Upper Manor Estates,,Alberta,CA,53.6874,-113.575
Val Quentin,,Alberta,CA,53.664,-114.385
Valhalla Centre,,Alberta,CA,55.4036,-119.382
Valleyview,,Alberta,CA,55.0659,-117.282
Vauxhall,,Alberta,CA,50.0683,-112.107
Vegreville,,Alberta,CA,53.4977,-112.1015
Vegreville,,Alberta,CA,53.4956,-112.052
Venice,,Alberta,CA,54.6978,-112.148
Vermilion,,Alberta,CA,53.3547,-110.853
Veteran,,Alberta,CA,52.0011,-111.119
Viking,,Alberta,CA,53.0947,-111.776
Villeneuve,,Alberta,CA,53.66,-113.811
Vilna,,Alberta,CA,54.1167,-111.921
Vimy,,Alberta,CA,54.0621,-113.647
Violet Grove,,Alberta,CA,53.1597,-115.037
Vulcan,,Alberta,CA,50.4042,-113.261
Wabamun,,Alberta,CA,53.5609,-114.472
Wabasca-Desmarais,,Alberta,CA,55.9792,-113.843
Wainwright,,Alberta,CA,52.8382,-110.853
Waiparous,,Alberta,CA,51.2828,-114.835
Walsh,,Alberta,CA,49.9472,-110.042
Wandering River,,Alberta,CA,55.1956,-112.475
Wanham,,Alberta,CA,55.7375,-118.385
Warburg,,Alberta,CA,53.1817,-114.32
Warden,,Alberta,CA,52.2592,-112.742
Wardlow,,Alberta,CA,50.9053,-111.546
Warner,,Alberta,CA,49.2828,-112.208
Warspite,,Alberta,CA,54.0911,-112.614
Warwick,,Alberta,CA,53.6272,-112.052
Waskatenau,,Alberta,CA,54.0939,-112.784
Water Valley,,Alberta,CA,51.5061,-114.611
Waterton Park,,Alberta,CA,49.0517,-113.914
Watino,,Alberta,CA,55.7126,-117.624
Wayne,,Alberta,CA,51.3815,-112.658
Webster,,Alberta,CA,55.4419,-118.688
Welling,,Alberta,CA,49.4811,-112.786
Wembley,,Alberta,CA,55.1556,-119.146
West Baptiste,,Alberta,CA,54.7622,-113.574
West Cove,,Alberta,CA,53.6983,-114.504
Westbrooke Crescents,,Alberta,CA,53.5926,-113.971
Westlake Estates,,Alberta,CA,53.5283,-114.079
Westlock,,Alberta,CA,54.1553,-113.857
Wetaskiwin,,Alberta,CA,52.9692,-113.377
Whispering Hills,,Alberta,CA,54.7584,-113.552
Whitburn,,Alberta,CA,55.8689,-119.202
White Sands,,Alberta,CA,52.4667,-112.817
Whitecourt,,Alberta,CA,54.1411,-115.684
Whitefish Lake,,Alberta,CA,55.9331,-115.369
Whitelaw,,Alberta,CA,56.1089,-118.076
Whitla,,Alberta,CA,49.8822,-111.057
Widewater,,Alberta,CA,55.3604,-115.037
Wildwood,,Alberta,CA,53.6105,-115.247
Willingdon,,Alberta,CA,53.8286,-112.118
Wimborne,,Alberta,CA,51.8664,-113.593
Winfield,,Alberta,CA,52.9653,-114.423
Winnifred,,Alberta,CA,49.9067,-111.21
Woking,,Alberta,CA,55.5925,-118.775
Woodbend Crescent,,Alberta,CA,53.4287,-113.731
Woodland,,Alberta,CA,56.4863,-116.058
Woodland Hills,,Alberta,CA,52.227,-113.831
Woodland Park,,Alberta,CA,53.4323,-113.795
Worsley,,Alberta,CA,56.5067,-119.134
Wrentham,,Alberta,CA,49.5144,-112.173
Yellowstone,,Alberta,CA,53.7296,-114.382
Youngstown,,Alberta,CA,51.5278,-111.2
Zama City,,Alberta,CA,59.1537,-118.687
