id,name,alt_name,region,country,latitude,longitude,tags
BC1,Panorama Mountain Resort,,British Columbia,CA,50.4583,-116.237,ardac
BC2,Cranberry Junction,,British Columbia,CA,55.5999,-128.5395,ardac
BC3,Deep Creek,,British Columbia,CA,50.6094,-119.213,ardac
BC4,Donald,,British Columbia,CA,51.4958,-117.174,ardac
BC5,Dome Creek,,British Columbia,CA,53.7425,-121.026,ardac
BC6,Eagle Bay,,British Columbia,CA,50.9333,-119.217,ardac
BC7,Old Massett,G̱aw,British Columbia,CA,54.0418,-132.184,ardac
BC8,Progress,,British Columbia,CA,55.7817,-120.716,ardac
BC9,Topley Landing,,British Columbia,CA,54.8084,-126.1387,ardac
BC10,Kobes,,British Columbia,CA,56.6389,-121.65,ardac
BC11,Shelter Bay Ferry Terminal,,British Columbia,CA,50.6358,-117.929,ardac
BC12,Sunnyside,,British Columbia,CA,54.6538,-124.732,ardac
BC13,McDonalds Landing,,British Columbia,CA,54.0,-126.033,ardac
BC14,West Moberly,,British Columbia,CA,55.8272,-121.852,ardac
BC15,Summit Lake Provincial Park,,British Columbia,CA,50.1523,-117.661,ardac
BC16,Kelly Lake,,British Columbia,CA,51.0124,-121.7658,ardac
BC17,Kingfisher,,British Columbia,CA,50.6167,-118.733,ardac
BC18,Cooper Creek,,British Columbia,CA,50.2023,-116.963,ardac
BC19,Wilson Creek,,British Columbia,CA,49.4409,-123.713,ardac
BC20,Mica Creek,,British Columbia,CA,52.0059,-118.562,ardac
BC21,Hall,,British Columbia,CA,49.374,-117.243,ardac
BC22,Hyde Creek,,British Columbia,CA,50.5805,-127.0,ardac
BC23,Bear Creek,,British Columbia,CA,49.529,-121.761,ardac
BC24,Pine Valley,,British Columbia,CA,52.1753,-122.09,ardac
BC25,Niagara,,British Columbia,CA,49.1071,-118.466,ardac
BC26,Birch Island,,British Columbia,CA,51.5971,-119.91,ardac
BC27,Hills,,British Columbia,CA,50.1089,-117.493,ardac
BC28,Meadows,,British Columbia,CA,49.1859,-117.396,ardac
BC29,93 Mile,,British Columbia,CA,51.5748,-121.341,ardac
BC30,Pineview,,British Columbia,CA,53.8367,-122.658,ardac
BC31,Old Fort St. John,,British Columbia,CA,56.2022,-120.823,ardac
BC32,Eagle Creek,,British Columbia,CA,51.8597,-120.866,ardac
BC33,Roe Lake,,British Columbia,CA,51.5208,-120.831,ardac
BC34,Coal Harbour,,British Columbia,CA,50.6,-127.583,ardac
BC35,Apex Mountain Resort,,British Columbia,CA,49.3942,-119.907,ardac
BC36,Wiley,,British Columbia,CA,54.515,-126.334,ardac
BC37,Gilpin,,British Columbia,CA,49.0063,-118.329,ardac
BC39,Balmoral,,British Columbia,CA,50.8531,-119.355,ardac
BC40,Stillwater,,British Columbia,CA,49.7667,-124.3,ardac
BC41,Gateway,,British Columbia,CA,51.6808,-121.211,ardac
BC42,Chinook Cove,,British Columbia,CA,51.2333,-120.167,ardac
BC43,Oliver's Landing,,British Columbia,CA,49.5833,-123.221,ardac
BC45,Rock Bay,,British Columbia,CA,50.3323,-125.486,ardac
BC46,Stump Lake,,British Columbia,CA,50.3883,-120.328,ardac
BC47,Cultus Lake,,British Columbia,CA,49.0714,-121.966,ardac
BC49,Cheslatta,,British Columbia,CA,53.8167,-125.8,ardac
BC50,White Lake,,British Columbia,CA,50.8798,-119.302,ardac
BC51,Mud Bay,,British Columbia,CA,49.4667,-124.8,ardac
BC52,Lee Creek,,British Columbia,CA,50.9078,-119.534,ardac
BC53,Six Mile Point,,British Columbia,CA,50.773,-120.7419,ardac
BC54,Lower Kootenay,,British Columbia,CA,49.0663,-116.512,ardac
BC55,Westview,,British Columbia,CA,49.8364,-124.525,ardac
BC56,Beecher Bay,,British Columbia,CA,48.3367,-123.609,ardac
BC57,Malibu,,British Columbia,CA,50.1671,-123.851,ardac
BC58,Liard River Suspension Bridge,,British Columbia,CA,59.4127,-126.0959,"ardac,ncr"
BC59,Bridge River,,British Columbia,CA,50.7808,-121.975,ardac
BC60,Kettle Valley,,British Columbia,CA,49.0536,-118.945,ardac
BC61,Davis Bay,,British Columbia,CA,49.4453,-123.726,ardac
BC62,Arbutus Ridge,,British Columbia,CA,48.6933,-123.54,ardac
BC63,Wet'suwet'en Village,,British Columbia,CA,54.3359,-125.89,ardac
BC64,Upper Nicola,,British Columbia,CA,50.137,-120.278,ardac
BC65,Dog Creek,,British Columbia,CA,52.0944,-122.114,ardac
BC66,Nootka,,British Columbia,CA,49.6248,-126.627,ardac
BC67,Kwakiutl,,British Columbia,CA,50.6931,-127.411,ardac
BC68,Aberdeen,,British Columbia,CA,49.0503,-122.411,ardac
BC69,Fernwood,,British Columbia,CA,48.9089,-123.528,ardac
BC70,Adams Lake,,British Columbia,CA,50.7366,-119.321,ardac
BC71,Bonaparte,,British Columbia,CA,50.8383,-121.378,ardac
BC72,Saik'uz,,British Columbia,CA,53.945,-124.109,ardac
BC73,Lighthouse Point,,British Columbia,CA,48.8687,-123.284,ardac
BC74,Lemoray,,British Columbia,CA,55.5389,-122.483,ardac
BC75,Squamish,,British Columbia,CA,49.3221,-123.13,ardac
BC76,Bull River,,British Columbia,CA,49.4701,-115.448,ardac
BC77,Cowichan Station,,British Columbia,CA,48.7294,-123.666,ardac
BC78,Fort Babine,,British Columbia,CA,55.3223,-126.626,ardac
BC79,Prophet River,,British Columbia,CA,58.0943,-122.71,ardac
BC80,Cowichan,,British Columbia,CA,48.7688,-123.68,ardac
BC81,Scotch Creek,,British Columbia,CA,50.9014,-119.451,ardac
BC82,Tsartlip,,British Columbia,CA,48.5856,-123.456,ardac
BC83,Nimpkish,,British Columbia,CA,50.3333,-126.917,ardac
BC84,Farrell Creek,,British Columbia,CA,56.1228,-121.738,ardac
BC85,Jersey,,British Columbia,CA,49.1,-117.233,ardac
BC86,Baker Creek,,British Columbia,CA,52.9274,-123.017,ardac
BC87,Klahoose,,British Columbia,CA,50.1281,-124.925,ardac
BC88,Glenmerry,,British Columbia,CA,49.1,-117.667,ardac
BC89,Franklin Camp,,British Columbia,CA,48.9722,-124.742,ardac
BC90,Simpcw,,British Columbia,CA,51.2654,-120.151,ardac
BC91,Pink Mountain,,British Columbia,CA,57.0357,-122.507,ardac
BC92,Xeni Gwet'in,,British Columbia,CA,51.4243,-124.089,ardac
BC93,Huscroft,,British Columbia,CA,49.0167,-116.467,ardac
BC94,Louis Creek,,British Columbia,CA,51.1401,-120.122,ardac
BC95,Commodore Heights,,British Columbia,CA,52.1667,-122.133,ardac
BC96,Porcher Island,,British Columbia,CA,54.0867,-130.392,ardac
BC97,Slesse Park,,British Columbia,CA,49.0805,-121.821,ardac
BC98,Matsqui,,British Columbia,CA,49.006,-122.476,ardac
BC100,Garibaldi,,British Columbia,CA,49.9667,-123.15,ardac
BC101,Doig River,,British Columbia,CA,56.5711,-120.494,ardac
BC102,Malahat,,British Columbia,CA,48.6128,-123.523,ardac
BC103,Coal River,,British Columbia,CA,59.65,-126.933,"ardac,ncr"
BC104,Pemberton Meadows,,British Columbia,CA,50.4417,-122.917,ardac
BC105,Meachen,,British Columbia,CA,49.6207,-116.267,ardac
BC106,Spallumcheen,,British Columbia,CA,50.5314,-119.147,ardac
BC107,Tatla Lake,,British Columbia,CA,51.9,-124.6,ardac
BC108,Lheidli T'enneh,,British Columbia,CA,54.0101,-122.616,ardac
BC109,Qualicum,,British Columbia,CA,49.4,-124.617,ardac
BC110,St. Mary's,,British Columbia,CA,49.6203,-115.696,ardac
BC111,Uchucklesaht,,British Columbia,CA,49.0274,-125.045,ardac
BC112,Blueberry Creek,,British Columbia,CA,49.246,-117.659,ardac
BC113,Criss Creek,,British Columbia,CA,51.05,-120.733,ardac
BC114,Tl'etinqox,,British Columbia,CA,52.0119,-123.1719,ardac
BC116,Toquaht,,British Columbia,CA,48.9959,-125.379,ardac
BC117,Burrard,,British Columbia,CA,49.3099,-122.978,ardac
BC118,Eagle Heights,,British Columbia,CA,48.7563,-123.703,ardac
BC120,Mount Robson,,British Columbia,CA,53.0309,-119.228,ardac
BC121,Seton Lake,,British Columbia,CA,50.7047,-122.281,ardac
BC122,Huu-ay-aht,,British Columbia,CA,48.8012,-125.122,ardac
BC123,Quatsino,,British Columbia,CA,50.6151,-127.574,ardac
BC124,Cahilty,,British Columbia,CA,50.95,-120.017,ardac
BC125,Wabi Hill,,British Columbia,CA,55.6707,-121.532,ardac
BC126,Buckinghorse River,,British Columbia,CA,57.3901,-122.842,ardac
BC127,Blueberry River,,British Columbia,CA,56.7035,-121.114,ardac
BC128,Hesquiat,,British Columbia,CA,49.3959,-126.471,ardac
BC129,Oregon Jack Creek,,British Columbia,CA,50.6667,-121.267,ardac
BC130,Sproat Lake,,British Columbia,CA,49.2766,-124.924,ardac
BC131,T'it'q'et,,British Columbia,CA,50.5833,-121.85,ardac
BC132,Hupacasath,,British Columbia,CA,49.2657,-124.826,ardac
BC133,Fintry,,British Columbia,CA,50.1316,-119.506,ardac
BC134,Cape Mudge,,British Columbia,CA,50.0214,-125.293,ardac
BC135,Lac la Hache,,British Columbia,CA,51.8145,-121.465,ardac
BC136,Kootenay Crossing,,British Columbia,CA,50.8833,-116.05,ardac
BC137,Sanca,,British Columbia,CA,49.3917,-116.735,ardac
BC138,Gambier Harbour,,British Columbia,CA,49.3728,-123.414,ardac
BC139,Tatton,,British Columbia,CA,51.7057,-121.385,ardac
BC140,Muncho Lake,,British Columbia,CA,58.9333,-125.767,"ardac,ncr"
BC141,Nazko,,British Columbia,CA,52.9435,-123.581,ardac
BC142,Deka Lake,,British Columbia,CA,51.6083,-120.85,ardac
BC143,Squeah,,British Columbia,CA,49.5042,-121.42,ardac
BC144,Telachick,,British Columbia,CA,53.8621,-123.182,ardac
BC145,Kitselas,,British Columbia,CA,54.6167,-128.417,ardac
BC146,Hardwicke Island,,British Columbia,CA,50.4167,-125.917,ardac
BC147,Miocene,,British Columbia,CA,52.2503,-121.771,ardac
BC148,Sarita,,British Columbia,CA,48.8833,-125.033,ardac
BC149,Chezacut,,British Columbia,CA,52.3993,-124.028,ardac
BC150,Quesnel Forks,,British Columbia,CA,52.6564,-121.663,ardac
BC151,Port Alice,,British Columbia,CA,50.3833,-127.45,ardac
BC152,Tatalrose,,British Columbia,CA,53.9833,-125.983,ardac
BC153,Coquitlam,,British Columbia,CA,49.2539,-122.849,ardac
BC154,Hanceville,,British Columbia,CA,51.9417,-123.099,ardac
BC155,Sullivan Bay,,British Columbia,CA,50.8833,-126.817,ardac
BC156,Big Bar Creek,,British Columbia,CA,51.1829,-122.117,ardac
BC157,Lumberton,,British Columbia,CA,49.4238,-115.877,ardac
BC158,Kwaw-kwaw-Apilt,,British Columbia,CA,49.1641,-121.98,ardac
BC159,Mahatta River,,British Columbia,CA,50.4586,-127.798,ardac
BC160,Osborn,,British Columbia,CA,56.6042,-120.378,ardac
BC161,Englishman River North,,British Columbia,CA,49.3233,-124.281,ardac
BC162,Scowlitz,,British Columbia,CA,49.2425,-122.002,ardac
BC163,Mount Currie,,British Columbia,CA,50.3249,-122.656,ardac
BC164,Galena Bay,,British Columbia,CA,50.6667,-117.85,ardac
BC165,Firvale,,British Columbia,CA,52.4385,-126.292,ardac
BC166,Thompson Sound,,British Columbia,CA,50.8037,-126.008,ardac
BC167,Nimpo Lake,,British Columbia,CA,52.3364,-125.14,ardac
BC168,T'Sou-Ke,,British Columbia,CA,48.3861,-123.698,ardac
BC169,Rosswood,,British Columbia,CA,54.8,-128.767,ardac
BC170,Abbotsford,,British Columbia,CA,49.0477,-122.27,ardac
BC171,Federal Ranch,,British Columbia,CA,56.4,-122.383,ardac
BC172,Mahood Falls,,British Columbia,CA,51.8426,-120.639,ardac
BC173,Powell River,,British Columbia,CA,49.872,-124.546,ardac
BC174,Snuneymuxw,,British Columbia,CA,49.1499,-123.929,ardac
BC175,Sewell Inlet,,British Columbia,CA,52.8749,-131.987,ardac
BC176,Chasm,,British Columbia,CA,51.2167,-121.483,ardac
BC177,Hagensborg,,British Columbia,CA,52.3864,-126.557,ardac
BC178,Nooaitch,,British Columbia,CA,50.1545,-121.041,ardac
BC179,North Saanich,,British Columbia,CA,48.6217,-123.421,ardac
BC180,Rhone,,British Columbia,CA,49.219,-119.018,ardac
BC181,Mayook,,British Columbia,CA,49.4869,-115.577,ardac
BC182,Solsqua,,British Columbia,CA,50.8707,-118.94,ardac
BC183,South Surrey,,British Columbia,CA,49.0543,-122.833,ardac
BC184,Songhees,,British Columbia,CA,48.4461,-123.422,ardac
BC185,Argenta,,British Columbia,CA,50.1667,-116.917,ardac
BC186,Tatlayoko Lake,,British Columbia,CA,51.7167,-124.433,ardac
BC187,Highlands,,British Columbia,CA,48.5144,-123.516,ardac
BC188,Black Pines,,British Columbia,CA,50.9339,-120.258,ardac
BC189,Summit Lake,,British Columbia,CA,54.25,-122.633,ardac
BC190,Central Saanich,,British Columbia,CA,48.5669,-123.397,ardac
BC191,Tipella,,British Columbia,CA,49.7446,-122.154,ardac
BC192,Grasmere,,British Columbia,CA,49.1,-115.083,ardac
BC193,Saturna,,British Columbia,CA,48.7945,-123.195,ardac
BC194,Lister,,British Columbia,CA,49.0474,-116.463,ardac
BC195,Kildala Arm,,British Columbia,CA,53.8333,-128.483,ardac
BC196,Canim Lake,,British Columbia,CA,51.7726,-120.986,ardac
BC197,Phillips Arm,,British Columbia,CA,50.5459,-125.356,ardac
BC198,Saanich,,British Columbia,CA,48.4878,-123.388,ardac
BC199,Bridge Lake,,British Columbia,CA,51.4786,-120.726,ardac
BC200,Halalt,,British Columbia,CA,48.8769,-123.692,ardac
BC201,Surge Narrows,,British Columbia,CA,50.2306,-125.109,ardac
BC203,Toad River,,British Columbia,CA,58.85,-125.233,"ardac,ncr"
BC204,Punchaw,,British Columbia,CA,53.4306,-123.182,ardac
BC205,Little Shuswap Lake,,British Columbia,CA,50.8758,-119.612,ardac
BC206,Salmon Valley,,British Columbia,CA,54.0833,-122.7,ardac
BC207,Read Island,,British Columbia,CA,50.1812,-125.086,ardac
BC208,Loon Lake,,British Columbia,CA,51.0833,-121.3,ardac
BC209,Myrtle Point,,British Columbia,CA,49.8012,-124.481,ardac
BC210,Barlow Creek,,British Columbia,CA,53.023,-122.445,ardac
BC211,Charlie Lake,,British Columbia,CA,56.2974,-120.985,ardac
BC212,Reid Lake,,British Columbia,CA,53.9667,-123.1,ardac
BC213,Silver Star,,British Columbia,CA,50.3572,-119.059,ardac
BC214,Popkum,,British Columbia,CA,49.2002,-121.736,ardac
BC215,Port Moody,,British Columbia,CA,49.2786,-122.868,ardac
BC216,Mission,,British Columbia,CA,49.1376,-122.304,ardac
BC217,Boothroyd,,British Columbia,CA,49.9638,-121.485,ardac
BC218,Xaxli'p,,British Columbia,CA,50.7372,-121.862,ardac
BC219,Tulsequah,,British Columbia,CA,58.6577,-133.544,"ardac,ncr"
BC220,Seabird Island,,British Columbia,CA,49.2542,-121.731,ardac
BC221,Ootsa Lake,,British Columbia,CA,53.8068,-126.042,ardac
BC222,East Sooke,,British Columbia,CA,48.3645,-123.686,ardac
BC223,Saanichton,,British Columbia,CA,48.6,-123.417,ardac
BC224,Yreka,,British Columbia,CA,50.4638,-127.558,ardac
BC225,Roosville,,British Columbia,CA,49.0236,-115.047,ardac
BC226,Pacheedaht,,British Columbia,CA,48.581,-124.405,ardac
BC227,Mud River,,British Columbia,CA,53.7612,-123.012,ardac
BC228,Big Lake Ranch,,British Columbia,CA,52.4049,-121.876,ardac
BC229,Ruby Creek,,British Columbia,CA,49.3468,-121.597,ardac
BC230,Cherry Point,,British Columbia,CA,48.7277,-123.584,ardac
BC231,Neskonlith,,British Columbia,CA,50.7739,-119.716,ardac
BC232,Kimsquit,,British Columbia,CA,52.8296,-126.964,ardac
BC233,Whisky Creek,,British Columbia,CA,49.3082,-124.508,ardac
BC234,Lindell Beach,,British Columbia,CA,49.0333,-122.017,ardac
BC235,Nelway,,British Columbia,CA,49.0147,-117.273,ardac
BC236,Tchesinkut Lake,,British Columbia,CA,54.0823,-125.738,ardac
BC237,Surrey,,British Columbia,CA,49.1745,-122.828,ardac
BC238,Nulki,,British Columbia,CA,53.9185,-124.197,ardac
BC239,Brouse,,British Columbia,CA,50.2167,-117.75,ardac
BC240,Monte Lake,,British Columbia,CA,50.5254,-119.832,ardac
BC241,Miworth,,British Columbia,CA,53.9399,-122.949,ardac
BC242,Hornby Island,,British Columbia,CA,49.5227,-124.642,ardac
BC244,Powder King,,British Columbia,CA,55.3505,-122.615,ardac
BC245,Clearwater,,British Columbia,CA,51.65,-120.033,ardac
BC246,Bouchie Lake,,British Columbia,CA,53.0262,-122.597,ardac
BC247,Cayoose Creek,,British Columbia,CA,50.6721,-121.932,ardac
BC248,Marilla,,British Columbia,CA,53.7,-125.85,ardac
BC249,Pinchi Lake,,British Columbia,CA,54.6272,-124.404,ardac
BC250,Stewardson Inlet,,British Columbia,CA,49.4217,-126.316,ardac
BC251,East Pine,,British Columbia,CA,55.7167,-121.217,ardac
BC252,Sinkut River,,British Columbia,CA,53.9538,-123.857,ardac
BC253,Woodcock,,British Columbia,CA,55.0667,-128.233,ardac
BC254,Rose Prairie,,British Columbia,CA,56.5087,-120.783,ardac
BC255,Qualicum Bay,,British Columbia,CA,49.4045,-124.633,ardac
BC256,Notch Hill,,British Columbia,CA,50.8528,-119.435,ardac
BC257,Chilliwack,,British Columbia,CA,49.175,-121.942,ardac
BC258,Braeloch,,British Columbia,CA,49.7833,-119.517,ardac
BC259,Prince George,,British Columbia,CA,53.9116,-122.776,ardac
BC260,Ehatisaht,,British Columbia,CA,49.8833,-126.85,ardac
BC261,Nukko Lake,,British Columbia,CA,54.0833,-122.983,ardac
BC262,Premier Lake,,British Columbia,CA,49.9517,-115.659,ardac
BC263,Westwold,,British Columbia,CA,50.4679,-119.747,ardac
BC264,Brookswood,,British Columbia,CA,49.0718,-122.666,ardac
BC265,Birken,,British Columbia,CA,50.4833,-122.617,ardac
BC266,Silver Creek,,British Columbia,CA,50.5961,-119.365,ardac
BC267,Sun Peaks,,British Columbia,CA,50.878,-119.908,ardac
BC268,Ditidaht,,British Columbia,CA,48.8091,-124.67,ardac
BC269,Smithers Landing,,British Columbia,CA,55.054,-126.526,ardac
BC270,Rivers Inlet,,British Columbia,CA,51.6842,-127.259,ardac
BC271,Grassy Plains,,British Columbia,CA,53.967,-125.888,ardac
BC272,Englishman River South,,British Columbia,CA,49.2779,-124.275,ardac
BC273,Yaku,,British Columbia,CA,54.1923,-133.003,ardac
BC274,Tower Lake,,British Columbia,CA,56.0155,-120.561,ardac
BC275,Albert Head,,British Columbia,CA,48.3911,-123.503,ardac
BC276,Tlell,,British Columbia,CA,53.5667,-131.933,ardac
BC277,North Delta,,British Columbia,CA,49.1547,-122.911,ardac
BC278,Boat Basin,,British Columbia,CA,49.4792,-126.425,ardac
BC279,Kluskus,,British Columbia,CA,53.0904,-124.493,ardac
BC280,Richmond,,British Columbia,CA,49.1539,-123.158,ardac
BC281,Tsawwassen,,British Columbia,CA,49.0357,-123.094,ardac
BC282,Tahsis,,British Columbia,CA,49.9303,-126.655,ardac
BC283,Sunset Prairie,,British Columbia,CA,55.8397,-120.764,ardac
BC284,Vancouver,,British Columbia,CA,49.2448,-123.115,ardac
BC285,Port Neville,,British Columbia,CA,50.4993,-126.081,ardac
BC286,Penelakut,,British Columbia,CA,48.9749,-123.641,ardac
BC287,Moberly Lake,,British Columbia,CA,55.8333,-121.758,ardac
BC288,Holmwood,,British Columbia,CA,50.6189,-119.954,ardac
BC289,Peachland,,British Columbia,CA,49.7786,-119.736,ardac
BC291,Halfmoon Bay,,British Columbia,CA,49.5146,-123.909,ardac
BC292,Garibaldi Highlands,,British Columbia,CA,49.7417,-123.135,ardac
BC293,Williams Beach,,British Columbia,CA,49.834,-125.061,ardac
BC294,Crowsnest,,British Columbia,CA,49.6368,-114.695,ardac
BC295,Fosthall,,British Columbia,CA,50.3488,-117.935,ardac
BC296,Nemaiah Valley,,British Columbia,CA,51.4776,-123.887,ardac
BC297,Barrett Lake,,British Columbia,CA,54.45,-126.75,ardac
BC298,Wistaria,,British Columbia,CA,53.8474,-126.28,ardac
BC299,Blue River,,British Columbia,CA,52.1061,-119.306,ardac
BC300,Aldergrove,,British Columbia,CA,49.0576,-122.471,ardac
BC301,Penticton,,British Columbia,CA,49.4822,-119.585,ardac
BC302,Upper Fraser,,British Columbia,CA,54.1082,-121.931,ardac
BC303,Foreman,,British Columbia,CA,53.95,-122.683,ardac
BC304,Kersley,,British Columbia,CA,52.8358,-122.418,ardac
BC305,Upper Halfway,,British Columbia,CA,56.5176,-122.226,ardac
BC306,Shackan,,British Columbia,CA,50.284,-121.178,ardac
BC307,Health Bay,,British Columbia,CA,50.6939,-126.597,ardac
BC308,Denman Island,,British Columbia,CA,49.5358,-124.813,ardac
BC309,Port Coquitlam,,British Columbia,CA,49.2567,-122.762,ardac
BC310,Elkford,,British Columbia,CA,50.0123,-114.93,ardac
BC311,Valleyview,,British Columbia,CA,50.6738,-120.25,ardac
BC312,McLure,,British Columbia,CA,51.0539,-120.225,ardac
BC313,Riske Creek,,British Columbia,CA,51.9596,-122.518,ardac
BC314,Cedar,,British Columbia,CA,49.1043,-123.854,ardac
BC315,Rogers Pass,,British Columbia,CA,51.3009,-117.521,ardac
BC316,Shawl Bay,,British Columbia,CA,50.8433,-126.56,ardac
BC317,Cloverdale,,British Columbia,CA,49.1117,-122.725,ardac
BC318,Dugan Lake,,British Columbia,CA,52.1667,-121.925,ardac
BC319,Cobble Hill,,British Columbia,CA,48.6915,-123.585,ardac
BC321,Saseenos,,British Columbia,CA,48.3908,-123.669,ardac
BC322,Pritchard,,British Columbia,CA,50.6851,-119.812,ardac
BC323,Oweekeno,,British Columbia,CA,51.6853,-127.207,ardac
BC324,Old Fort,,British Columbia,CA,55.0376,-126.318,ardac
BC325,Gang Ranch,,British Columbia,CA,51.5538,-122.351,ardac
BC326,Williams Lake,,British Columbia,CA,52.1415,-122.143,ardac
BC327,View Royal,,British Columbia,CA,48.4583,-123.45,ardac
BC328,Hot Springs Cove,,British Columbia,CA,49.352,-126.26,ardac
BC329,Shalalth,,British Columbia,CA,50.7294,-122.215,ardac
BC330,Winfield,,British Columbia,CA,50.0333,-119.402,ardac
BC331,Tatogga,,British Columbia,CA,57.7163,-129.987,"ardac,ncr"
BC332,Ucluelet,,British Columbia,CA,48.9399,-125.528,ardac
BC333,Fanny Bay,,British Columbia,CA,49.4901,-124.813,ardac
BC334,South Wellington,,British Columbia,CA,49.0941,-123.887,ardac
BC335,Yahk,,British Columbia,CA,49.085,-116.082,ardac
BC336,Musqueam,,British Columbia,CA,49.2298,-123.2,ardac
BC337,Oona River,,British Columbia,CA,53.9469,-130.256,ardac
BC338,Walnut Grove,,British Columbia,CA,49.1806,-122.648,ardac
BC339,Okanagan Mission,,British Columbia,CA,49.8167,-119.483,ardac
BC340,Bob Quinn Lake,,British Columbia,CA,56.9722,-130.247,ardac
BC341,Fort Rupert,,British Columbia,CA,50.6889,-127.42,ardac
BC342,Boswell,,British Columbia,CA,49.4503,-116.764,ardac
BC343,Lakelse Lake,,British Columbia,CA,54.3804,-128.546,ardac
BC344,Blowhole,,British Columbia,CA,49.8292,-126.676,ardac
BC345,Burnaby,,British Columbia,CA,49.2521,-122.962,ardac
BC346,Mackenzie,,British Columbia,CA,55.3353,-123.096,ardac
BC347,Ogden,,British Columbia,CA,50.7819,-122.822,ardac
BC348,Parksville,,British Columbia,CA,49.3227,-124.327,ardac
BC349,Port Renfrew,,British Columbia,CA,48.5574,-124.405,ardac
BC350,Chetwynd,,British Columbia,CA,55.6949,-121.619,ardac
BC351,Wasa,,British Columbia,CA,49.7833,-115.733,ardac
BC352,Alice Arm,,British Columbia,CA,55.4728,-129.478,ardac
BC353,New Westminster,,British Columbia,CA,49.2167,-122.917,ardac
BC354,Blaeberry,,British Columbia,CA,51.4333,-117.067,ardac
BC355,Shutty Bench,,British Columbia,CA,49.9629,-116.907,ardac
BC356,Pope Landing,,British Columbia,CA,49.6145,-124.048,ardac
BC358,Fair Harbour,,British Columbia,CA,50.0565,-127.101,ardac
BC359,Butedale,,British Columbia,CA,53.15,-128.7,ardac
BC360,Lang Bay,,British Columbia,CA,49.7792,-124.346,ardac
BC361,Yarksis,,British Columbia,CA,49.1654,-125.971,ardac
BC362,Gray Creek,,British Columbia,CA,49.6333,-116.783,ardac
BC363,Vedder Crossing,,British Columbia,CA,49.1062,-121.971,ardac
BC364,Vidette,,British Columbia,CA,51.1667,-120.9,ardac
BC365,Takysie Lake,,British Columbia,CA,53.8833,-125.867,ardac
BC366,Kedleston,,British Columbia,CA,50.3167,-119.183,ardac
BC367,Buckley Bay,,British Columbia,CA,49.5333,-124.857,ardac
BC368,Isle Pierre,,British Columbia,CA,53.95,-123.25,ardac
BC369,Seton Portage,,British Columbia,CA,50.7069,-122.289,ardac
BC370,Aleza Lake,,British Columbia,CA,54.1143,-122.034,ardac
BC371,Blind Bay,,British Columbia,CA,50.8833,-119.383,ardac
BC372,Cherry Creek,,British Columbia,CA,49.2827,-124.787,ardac
BC373,Pauquachin,,British Columbia,CA,48.6204,-123.453,ardac
BC374,Donald Landing,,British Columbia,CA,54.4833,-125.65,ardac
BC375,Headquarters,,British Columbia,CA,49.7646,-125.115,ardac
BC376,Belcarra,,British Columbia,CA,49.3182,-122.928,ardac
BC377,Ceepeecee,,British Columbia,CA,49.8732,-126.711,ardac
BC378,Seymour Arm,,British Columbia,CA,51.2484,-118.94,ardac
BC379,Cheam,,British Columbia,CA,49.1942,-121.776,ardac
BC380,Sandspit,,British Columbia,CA,53.2479,-131.814,ardac
BC381,Kelowna,,British Columbia,CA,49.8833,-119.483,ardac
BC382,Valemount,,British Columbia,CA,52.8305,-119.265,ardac
BC383,Secret Cove,,British Columbia,CA,49.5363,-123.952,ardac
BC384,Winlaw,,British Columbia,CA,49.6144,-117.55,ardac
BC385,Fort Ware,,British Columbia,CA,57.4252,-125.633,"ardac,ncr"
BC386,Dashwood,,British Columbia,CA,49.3621,-124.506,ardac
BC387,Estevan Point,,British Columbia,CA,49.3782,-126.534,ardac
BC388,Grand Forks,,British Columbia,CA,49.029,-118.453,ardac
BC389,Williamsons Landing,,British Columbia,CA,49.4497,-123.469,ardac
BC390,Cinnabar Valley,,British Columbia,CA,49.1033,-123.926,ardac
BC391,Bull Harbour,,British Columbia,CA,50.9177,-127.931,ardac
BC392,Naramata,,British Columbia,CA,49.5942,-119.587,ardac
BC393,Brem River,,British Columbia,CA,50.4392,-124.671,ardac
BC394,Granite Bay,,British Columbia,CA,50.2333,-125.3,ardac
BC395,Princeton,,British Columbia,CA,49.4524,-120.514,ardac
BC396,Yankee Flats,,British Columbia,CA,50.5164,-119.375,ardac
BC397,Gravelle Ferry,,British Columbia,CA,52.85,-122.233,ardac
BC398,Colwood,,British Columbia,CA,48.4321,-123.497,ardac
BC399,Glenrosa,,British Columbia,CA,49.8472,-119.667,ardac
BC400,Westside,,British Columbia,CA,49.8822,-119.535,ardac
BC401,Alkali Lake,,British Columbia,CA,51.788,-122.227,ardac
BC402,Mansons Landing,,British Columbia,CA,50.0581,-124.98,ardac
BC403,Moha,,British Columbia,CA,50.8641,-122.17,ardac
BC404,Owen Bay,,British Columbia,CA,50.3169,-125.214,ardac
BC405,Springhouse,,British Columbia,CA,51.9667,-122.133,ardac
BC406,McKearney Ranch,,British Columbia,CA,56.6333,-122.467,ardac
BC407,Kanaka Bar,,British Columbia,CA,50.1127,-121.561,ardac
BC408,Midway,,British Columbia,CA,49.0071,-118.773,ardac
BC409,108 Mile Ranch,,British Columbia,CA,51.7281,-121.351,ardac
BC410,Bloedel,,British Columbia,CA,50.1167,-125.383,ardac
BC411,Round Lake,,British Columbia,CA,54.6648,-126.923,ardac
BC412,Langford,,British Columbia,CA,48.4566,-123.497,ardac
BC413,Beaverley,,British Columbia,CA,53.8172,-122.881,ardac
BC414,Arras,,British Columbia,CA,55.7535,-120.526,ardac
BC415,Sion,,British Columbia,CA,49.0207,-118.484,ardac
BC416,Trail,,British Columbia,CA,49.1,-117.7,ardac
BC417,Shuswap Falls,,British Columbia,CA,50.294,-118.805,ardac
BC418,Cedarside,,British Columbia,CA,52.7823,-119.25,ardac
BC419,Port Alberni,,British Columbia,CA,49.2417,-124.8,ardac
BC420,Brew Bay,,British Columbia,CA,49.7758,-124.371,ardac
BC421,Port Hardy,,British Columbia,CA,50.7189,-127.507,ardac
BC422,Goose Bay,,British Columbia,CA,51.38,-127.657,ardac
BC423,Mooyah Bay,,British Columbia,CA,49.6295,-126.458,ardac
BC424,Iskut,,British Columbia,CA,57.8466,-129.983,"ardac,ncr"
BC425,Kootenay Bay,,British Columbia,CA,49.6849,-116.866,ardac
BC426,Fireside,,British Columbia,CA,59.6705,-127.136,"ardac,ncr"
BC427,Christian Valley,,British Columbia,CA,49.5513,-118.802,ardac
BC428,Vermilion Crossing,,British Columbia,CA,51.0333,-115.983,ardac
BC429,Deer Park,,British Columbia,CA,49.4167,-118.05,ardac
BC430,Chilanko Forks,,British Columbia,CA,52.1199,-124.061,ardac
BC431,Heydon Bay,,British Columbia,CA,50.5781,-125.576,ardac
BC432,North Vancouver,,British Columbia,CA,49.3142,-123.067,ardac
BC433,Crescent Spur,,British Columbia,CA,53.5717,-120.695,ardac
BC434,Minstrel Island,,British Columbia,CA,50.6154,-126.308,ardac
BC435,Eddontenajon,,British Columbia,CA,57.8221,-129.958,"ardac,ncr"
BC436,Pinchi,,British Columbia,CA,54.5706,-124.493,ardac
BC437,Attachie,,British Columbia,CA,56.2205,-121.423,ardac
BC438,Black Point,,British Columbia,CA,49.774,-124.394,ardac
BC439,Salmon Arm,,British Columbia,CA,50.7,-119.267,ardac
BC440,Anglemont,,British Columbia,CA,50.9667,-119.167,ardac
BC441,Decker Lake,,British Columbia,CA,54.3,-125.833,ardac
BC442,New Aiyansh,,British Columbia,CA,55.2003,-129.072,ardac
BC443,Atlin,,British Columbia,CA,59.5679,-133.697,"ardac,ncr"
BC444,Fort Fraser,,British Columbia,CA,54.06,-124.55,ardac
BC445,Nak'azdli,,British Columbia,CA,54.4309,-124.248,ardac
BC446,Balfour,,British Columbia,CA,49.6283,-116.972,ardac
BC447,Kitseguecla,,British Columbia,CA,55.0857,-127.818,ardac
BC448,Sandon,,British Columbia,CA,49.9833,-117.233,ardac
BC449,Hope,,British Columbia,CA,49.3802,-121.43,ardac
BC450,Ferguson,,British Columbia,CA,50.6833,-117.483,ardac
BC451,Holberg,,British Columbia,CA,50.6623,-128.011,ardac
BC452,Sechelt,,British Columbia,CA,49.4794,-123.762,ardac
BC453,Skidegate,,British Columbia,CA,53.2715,-131.988,ardac
BC454,Lake Errock,,British Columbia,CA,49.2291,-122.012,ardac
BC455,Namgis,,British Columbia,CA,50.5919,-126.944,ardac
BC456,Barriere,,British Columbia,CA,51.1819,-120.133,ardac
BC457,Tumbler Ridge,,British Columbia,CA,55.1333,-121.0,ardac
BC458,Cranbrook,,British Columbia,CA,49.5155,-115.759,ardac
BC459,Hudson's Hope,,British Columbia,CA,56.0319,-121.907,ardac
BC460,Horseshoe Bay,,British Columbia,CA,49.3674,-123.273,ardac
BC461,Saltair,,British Columbia,CA,48.9571,-123.774,ardac
BC462,Shulus,,British Columbia,CA,50.1373,-120.853,ardac
BC463,Boring Ranch,,British Columbia,CA,56.95,-122.7,ardac
BC464,Gillies Bay,,British Columbia,CA,49.6833,-124.483,ardac
BC465,Renata,,British Columbia,CA,49.4268,-118.107,ardac
BC466,Colleymount,,British Columbia,CA,54.0333,-126.15,ardac
BC467,Dawsons Landing,,British Columbia,CA,51.5805,-127.586,ardac
BC468,Hilliers,,British Columbia,CA,49.3068,-124.483,ardac
BC469,Clairmont,,British Columbia,CA,56.2559,-120.9,ardac
BC470,Summerland,,British Columbia,CA,49.6054,-119.673,ardac
BC471,Tintagel,,British Columbia,CA,54.2029,-125.593,ardac
BC472,Heriot Bay,,British Columbia,CA,50.1002,-125.213,ardac
BC473,Mitchell Bay,,British Columbia,CA,50.6333,-126.85,ardac
BC474,Smithers,,British Columbia,CA,54.7825,-127.166,ardac
BC475,Genelle,,British Columbia,CA,49.2139,-117.691,ardac
BC476,Twidwell Bend,,British Columbia,CA,55.6155,-121.571,ardac
BC477,Oak Bay,,British Columbia,CA,48.4301,-123.309,ardac
BC478,Middle River,,British Columbia,CA,54.8761,-125.13,ardac
BC479,Lone Butte,,British Columbia,CA,51.5579,-121.216,ardac
BC480,Yekooche,,British Columbia,CA,54.5992,-125.072,ardac
BC481,Prince Rupert,,British Columbia,CA,54.315,-130.315,ardac
BC482,Baldy Hughes,,British Columbia,CA,53.6246,-122.933,ardac
BC483,Nanoose Bay,,British Columbia,CA,49.2667,-124.2,ardac
BC484,Quathiaski Cove,,British Columbia,CA,50.0454,-125.21,ardac
BC485,Whistler,,British Columbia,CA,50.1215,-122.962,ardac
BC486,Bulkley House,,British Columbia,CA,55.703,-126.228,ardac
BC487,Madeira Park,,British Columbia,CA,49.6157,-124.02,ardac
BC488,Campbell River,,British Columbia,CA,50.0167,-125.242,ardac
BC489,Woss,,British Columbia,CA,50.2167,-126.6,ardac
BC490,Invermere,,British Columbia,CA,50.5007,-116.038,ardac
BC491,Darfield,,British Columbia,CA,51.3,-120.183,ardac
BC492,Deroche,,British Columbia,CA,49.1914,-122.081,ardac
BC493,Fort St. John,,British Columbia,CA,56.2461,-120.845,ardac
BC494,Cecil Lake,,British Columbia,CA,56.306,-120.577,ardac
BC495,Quesnel,,British Columbia,CA,52.9806,-122.504,ardac
BC496,Osland,,British Columbia,CA,54.1333,-130.167,ardac
BC497,Manson Creek,,British Columbia,CA,55.6667,-124.483,ardac
BC498,Pemberton,,British Columbia,CA,50.3167,-122.8,ardac
BC499,Penny,,British Columbia,CA,53.8474,-121.284,ardac
BC500,Canal Flats,,British Columbia,CA,50.1576,-115.817,ardac
BC501,Carmi,,British Columbia,CA,49.5009,-119.122,ardac
BC502,Kemano,,British Columbia,CA,53.5573,-127.933,ardac
BC503,Erie,,British Columbia,CA,49.1912,-117.337,ardac
BC504,Cowichan Bay,,British Columbia,CA,48.7371,-123.62,ardac
BC505,Broman Lake,,British Columbia,CA,54.4203,-126.135,ardac
BC506,Murrayville,,British Columbia,CA,49.0904,-122.616,ardac
BC507,Coldwater,,British Columbia,CA,50.0358,-120.859,ardac
BC508,Terrace,,British Columbia,CA,54.5234,-128.598,ardac
BC509,Mill Bay,,British Columbia,CA,48.6449,-123.556,ardac
BC510,Whaletown,,British Columbia,CA,50.1012,-125.047,ardac
BC511,Taylor,,British Columbia,CA,56.1544,-120.68,ardac
BC512,Weewanie,,British Columbia,CA,53.6917,-128.79,ardac
BC513,Castlegar,,British Columbia,CA,49.3218,-117.66,ardac
BC514,Kleena Kleene,,British Columbia,CA,51.9504,-124.847,ardac
BC515,Woodsdale,,British Columbia,CA,50.0495,-119.39,ardac
BC516,Manning Park,,British Columbia,CA,49.0668,-120.782,ardac
BC517,Fern Ridge,,British Columbia,CA,49.0483,-122.656,ardac
BC518,Kamloops,,British Columbia,CA,50.6783,-120.348,ardac
BC519,Wilson Landing,,British Columbia,CA,49.9821,-119.497,ardac
BC520,Caycuse,,British Columbia,CA,48.8943,-124.366,ardac
BC521,McLeese Lake,,British Columbia,CA,52.4137,-122.296,ardac
BC522,Grantham,,British Columbia,CA,49.7628,-125.021,ardac
BC523,Beatton Ranch,,British Columbia,CA,56.7333,-122.583,ardac
BC524,Fauquier,,British Columbia,CA,49.8667,-118.067,ardac
BC525,Oyster River,,British Columbia,CA,49.8738,-125.129,ardac
BC526,Kuskonook,,British Columbia,CA,49.3,-116.65,ardac
BC527,Nicholson,,British Columbia,CA,51.2481,-116.901,ardac
BC528,Sunningdale,,British Columbia,CA,49.1167,-117.717,ardac
BC529,Nelson,,British Columbia,CA,49.4975,-117.282,ardac
BC530,Chamiss Bay,,British Columbia,CA,50.0694,-127.287,ardac
BC531,Ladner,,British Columbia,CA,49.0917,-123.078,ardac
BC532,Tseshaht,,British Columbia,CA,49.268,-124.858,ardac
BC533,Metchosin,,British Columbia,CA,48.3756,-123.529,ardac
BC534,Saratoga Beach,,British Columbia,CA,49.8595,-125.116,ardac
BC535,Boston Bar,,British Columbia,CA,49.8624,-121.443,ardac
BC536,Skuppah,,British Columbia,CA,50.1885,-121.578,ardac
BC537,Bamfield,,British Columbia,CA,48.8312,-125.133,ardac
BC538,Anmore,,British Columbia,CA,49.3115,-122.849,ardac
BC539,Snug Cove,,British Columbia,CA,49.3829,-123.336,ardac
BC540,Wadhams,,British Columbia,CA,51.5171,-127.519,ardac
BC541,Brisco,,British Columbia,CA,50.8333,-116.267,ardac
BC542,Buick,,British Columbia,CA,56.7625,-121.27,ardac
BC543,Hartley Bay,,British Columbia,CA,53.4203,-129.256,ardac
BC544,Ranchero,,British Columbia,CA,50.657,-119.198,ardac
BC545,Coldstream,,British Columbia,CA,50.2292,-119.227,ardac
BC546,Clo-oose,,British Columbia,CA,48.6629,-124.822,ardac
BC547,Loos,,British Columbia,CA,53.6021,-120.719,ardac
BC548,Swartz Bay,,British Columbia,CA,48.6827,-123.413,ardac
BC549,Cedarvale,,British Columbia,CA,55.0194,-128.329,ardac
BC550,Homalco,,British Columbia,CA,49.9526,-125.243,ardac
BC551,Brentwood Bay,,British Columbia,CA,48.5683,-123.456,ardac
BC552,Tzeachten,,British Columbia,CA,49.115,-121.939,ardac
BC553,Victoria,,British Columbia,CA,48.4334,-123.362,ardac
BC554,Moresby Camp,,British Columbia,CA,53.0475,-132.029,ardac
BC555,Roberts Creek,,British Columbia,CA,49.426,-123.646,ardac
BC556,Lantzville,,British Columbia,CA,49.2532,-124.082,ardac
BC557,Greenwood,,British Columbia,CA,49.0949,-118.676,ardac
BC558,Stewart,,British Columbia,CA,55.9418,-129.984,"ardac,ncr"
BC559,Takla Landing,,British Columbia,CA,55.483,-125.974,ardac
BC560,70 Mile House,,British Columbia,CA,51.3084,-121.396,ardac
BC561,Windermere,,British Columbia,CA,50.4667,-115.983,ardac
BC562,Perow,,British Columbia,CA,54.5202,-126.44,ardac
BC563,Yuquot,,British Columbia,CA,49.5957,-126.624,ardac
BC564,Sinclair Mills,,British Columbia,CA,54.0167,-121.683,ardac
BC565,Retallack,,British Columbia,CA,50.0414,-117.14,ardac
BC566,Cumberland,,British Columbia,CA,49.622,-125.026,ardac
BC567,Dolphin Beach,,British Columbia,CA,49.2884,-124.147,ardac
BC568,Creston,,British Columbia,CA,49.1006,-116.507,ardac
BC569,Baynes Lake,,British Columbia,CA,49.2333,-115.217,ardac
BC570,Lower Post,,British Columbia,CA,59.9249,-128.486,"ardac,ncr"
BC571,Skookumchuck,,British Columbia,CA,49.943,-122.408,ardac
BC572,Harrison Mills,,British Columbia,CA,49.2559,-121.949,ardac
BC573,Langley,,British Columbia,CA,49.1038,-122.659,ardac
BC574,Gold Bridge,,British Columbia,CA,50.85,-122.833,ardac
BC575,Monte Creek,,British Columbia,CA,50.6487,-119.958,ardac
BC576,Marktosis,,British Columbia,CA,49.2786,-126.058,ardac
BC577,Masset,,British Columbia,CA,54.0174,-132.147,ardac
BC578,Sturdies Bay,,British Columbia,CA,48.8792,-123.319,ardac
BC579,Telegraph Creek,,British Columbia,CA,57.9018,-131.166,"ardac,ncr"
BC580,Shelter Point,,British Columbia,CA,49.9403,-125.191,ardac
BC581,Westmount,,British Columbia,CA,49.3439,-123.209,ardac
BC582,McLeod Lake,,British Columbia,CA,54.985,-123.047,ardac
BC583,Nass Camp,,British Columbia,CA,55.2884,-129.006,ardac
BC584,Alert Bay,,British Columbia,CA,50.5789,-126.92,ardac
BC585,Ganges,,British Columbia,CA,48.8599,-123.507,ardac
BC586,Hullcar,,British Columbia,CA,50.503,-119.27,ardac
BC587,Van Anda,,British Columbia,CA,49.7583,-124.55,ardac
BC588,Sumas,,British Columbia,CA,49.0531,-122.193,ardac
BC589,McDame,,British Columbia,CA,59.1856,-129.225,"ardac,ncr"
BC590,West Popkum,,British Columbia,CA,49.1822,-121.773,ardac
BC591,Simpson Ranch,,British Columbia,CA,56.6,-122.433,ardac
BC592,Shelley,,British Columbia,CA,54.0,-122.617,ardac
BC593,River Jordan,,British Columbia,CA,48.4221,-124.05,ardac
BC594,D'Arcy,,British Columbia,CA,50.55,-122.483,ardac
BC595,Lax Kw'alaams,,British Columbia,CA,54.55,-130.433,ardac
BC596,Fernie,,British Columbia,CA,49.5068,-115.069,ardac
BC597,Sayward,,British Columbia,CA,50.377,-125.952,ardac
BC598,Harrop,,British Columbia,CA,49.6016,-117.053,ardac
BC599,Field,,British Columbia,CA,51.3945,-116.482,ardac
BC600,Tuwanek,,British Columbia,CA,49.5442,-123.757,ardac
BC601,Blackwater,,British Columbia,CA,53.2875,-123.151,ardac
BC602,Lower Nicola,,British Columbia,CA,50.1597,-120.878,ardac
BC603,Big Bay,,British Columbia,CA,50.3972,-125.135,ardac
BC604,Elk Bay,,British Columbia,CA,50.2856,-125.436,ardac
BC605,Lac Le Jeune,,British Columbia,CA,50.4817,-120.493,ardac
BC606,Fairmont Hot Springs,,British Columbia,CA,50.3349,-115.856,ardac
BC607,Douglas,,British Columbia,CA,49.0028,-122.736,ardac
BC608,Zeballos,,British Columbia,CA,49.987,-126.847,ardac
BC609,Juskatla,,British Columbia,CA,53.6102,-132.311,ardac
BC610,Little River,,British Columbia,CA,49.7377,-124.914,ardac
BC611,Port McNeill,,British Columbia,CA,50.586,-127.079,ardac
BC612,Fort St. James,,British Columbia,CA,54.4487,-124.256,ardac
BC613,McBride,,British Columbia,CA,53.3,-120.167,ardac
BC614,Bennett,,British Columbia,CA,59.8451,-134.987,"ardac,ncr"
BC615,Mirror Lake,,British Columbia,CA,49.8829,-116.902,ardac
BC616,Enderby,,British Columbia,CA,50.5549,-119.141,ardac
BC617,Pitt Meadows,,British Columbia,CA,49.2172,-122.686,ardac
BC618,Farmington,,British Columbia,CA,55.9,-120.5,ardac
BC619,Sliammon,,British Columbia,CA,49.8962,-124.601,ardac
BC620,Klemtu,,British Columbia,CA,52.5904,-128.527,ardac
BC621,Chemainus,,British Columbia,CA,48.9266,-123.721,ardac
BC622,Earls Cove,,British Columbia,CA,49.75,-124.0,ardac
BC623,Granisle,,British Columbia,CA,54.8844,-126.213,ardac
BC624,Delkatla,,British Columbia,CA,54.0086,-132.129,ardac
BC625,Edgewood,,British Columbia,CA,49.7833,-118.15,ardac
BC626,Kaslo,,British Columbia,CA,49.9086,-116.911,ardac
BC627,Metlakatla,,British Columbia,CA,54.3375,-130.443,ardac
BC628,Allison Lake,,British Columbia,CA,49.6889,-120.601,ardac
BC629,Port Washington,,British Columbia,CA,48.8166,-123.321,ardac
BC630,Black Creek,,British Columbia,CA,49.8369,-125.132,ardac
BC631,Usk,,British Columbia,CA,54.6333,-128.417,ardac
BC632,Duck Range,,British Columbia,CA,50.6192,-119.83,ardac
BC633,Namu,,British Columbia,CA,51.8613,-127.86,ardac
BC634,Hasler Flat,,British Columbia,CA,55.6111,-121.967,ardac
BC635,Cranberry,,British Columbia,CA,49.8702,-124.523,ardac
BC636,Snake River,,British Columbia,CA,59.0364,-122.439,ardac
BC637,Cherryville,,British Columbia,CA,50.2407,-118.621,ardac
BC638,Remo,,British Columbia,CA,54.5007,-128.719,ardac
BC639,Kingcome,,British Columbia,CA,50.9742,-126.175,ardac
BC640,Giscome,,British Columbia,CA,54.0667,-122.367,ardac
BC641,Two Mile,,British Columbia,CA,55.2687,-127.627,ardac
BC642,Hunts Inlet,,British Columbia,CA,54.0668,-130.443,ardac
BC643,Robson,,British Columbia,CA,49.3375,-117.691,ardac
BC644,Willow River,,British Columbia,CA,54.0787,-122.474,ardac
BC645,Blind Channel,,British Columbia,CA,50.4167,-125.5,ardac
BC646,Sparwood,,British Columbia,CA,49.7326,-114.892,ardac
BC647,Toosey,,British Columbia,CA,51.9323,-122.506,ardac
BC648,Paterson,,British Columbia,CA,49.0067,-117.831,ardac
BC649,Duncan,,British Columbia,CA,48.7789,-123.702,ardac
BC650,Hixon,,British Columbia,CA,53.4204,-122.586,ardac
BC651,Wardner,,British Columbia,CA,49.417,-115.429,ardac
BC652,Pinantan Lake,,British Columbia,CA,50.7264,-120.036,ardac
BC653,Garden Bay,,British Columbia,CA,49.6366,-124.034,ardac
BC654,Musgrave Landing,,British Columbia,CA,48.7511,-123.546,ardac
BC655,Rumble Beach,,British Columbia,CA,50.4265,-127.482,ardac
BC656,Elko,,British Columbia,CA,49.3012,-115.111,ardac
BC657,Canyon Hot Springs,,British Columbia,CA,51.1369,-117.852,ardac
BC658,Deep Cove,,British Columbia,CA,49.3232,-122.948,ardac
BC659,North Bend,,British Columbia,CA,49.8833,-121.45,ardac
BC660,Armstrong,,British Columbia,CA,50.4461,-119.199,ardac
BC661,Esquimalt,,British Columbia,CA,48.4289,-123.408,ardac
BC662,Endako,,British Columbia,CA,54.0875,-125.017,ardac
BC663,Radium Hot Springs,,British Columbia,CA,50.623,-116.08,ardac
BC664,100 Mile House,,British Columbia,CA,51.6391,-121.294,ardac
BC665,Mapes,,British Columbia,CA,53.8833,-123.867,ardac
BC666,Pleasantside,,British Columbia,CA,49.2934,-122.847,ardac
BC667,Procter,,British Columbia,CA,49.6156,-116.956,ardac
BC668,Seaford,,British Columbia,CA,50.0833,-124.9,ardac
BC669,Malakwa,,British Columbia,CA,50.94,-118.789,ardac
BC670,Alexis Creek,,British Columbia,CA,52.0833,-123.283,ardac
BC671,Canyon,,British Columbia,CA,49.0813,-116.443,ardac
BC672,Fort Steele,,British Columbia,CA,49.6169,-115.626,ardac
BC673,Gwa'Sala- Nakwaxda'xw,,British Columbia,CA,50.7333,-127.5,ardac
BC674,Saltery Bay,,British Columbia,CA,49.7833,-124.183,ardac
BC675,Dunster,,British Columbia,CA,53.127,-119.839,ardac
BC676,Bridesville,,British Columbia,CA,49.0358,-119.142,ardac
BC677,40 Mile Flats,,British Columbia,CA,57.9363,-130.05,"ardac,ncr"
BC678,Hedley,,British Columbia,CA,49.3604,-120.072,ardac
BC679,Ootischenia,,British Columbia,CA,49.2833,-117.633,ardac
BC680,Hagwilget,,British Columbia,CA,55.2546,-127.596,ardac
BC681,Gibsons,,British Columbia,CA,49.4018,-123.514,ardac
BC682,Welcome Beach,,British Columbia,CA,49.48,-123.894,ardac
BC683,Soowahlie,,British Columbia,CA,49.0814,-121.963,ardac
BC684,Vavenby,,British Columbia,CA,51.5858,-119.726,ardac
BC685,Bold Point,,British Columbia,CA,50.1732,-125.156,ardac
BC686,Likely,,British Columbia,CA,52.6187,-121.565,ardac
BC687,Dundarave,,British Columbia,CA,49.338,-123.181,ardac
BC688,Kitkatla,,British Columbia,CA,53.7922,-130.433,ardac
BC689,South Hazelton,,British Columbia,CA,55.2375,-127.659,ardac
BC690,Fort Langley,,British Columbia,CA,49.1667,-122.583,ardac
BC691,Dry Gulch,,British Columbia,CA,50.5842,-116.041,ardac
BC692,Departure Bay,,British Columbia,CA,49.2054,-123.975,ardac
BC693,Lillooet,,British Columbia,CA,50.6941,-121.939,ardac
BC694,Mesachie Lake,,British Columbia,CA,48.8124,-124.125,ardac
BC695,Jaffray,,British Columbia,CA,49.3744,-115.3,ardac
BC696,Kitsault,,British Columbia,CA,55.4558,-129.471,ardac
BC697,Golden,,British Columbia,CA,51.2949,-116.964,ardac
BC698,Vanderhoof,,British Columbia,CA,54.0175,-124.002,ardac
BC699,Red Bluff,,British Columbia,CA,52.9654,-122.461,ardac
BC700,Port Edward,,British Columbia,CA,54.2224,-130.288,ardac
BC701,Ocean Falls,,British Columbia,CA,52.3472,-127.689,ardac
BC702,Promontory,,British Columbia,CA,49.1006,-121.937,ardac
BC703,Yarrow,,British Columbia,CA,49.0833,-122.05,ardac
BC704,Sardis,,British Columbia,CA,49.1367,-121.959,ardac
BC705,Lardeau,,British Columbia,CA,50.143,-116.956,ardac
BC706,Vernon,,British Columbia,CA,50.2642,-119.269,ardac
BC707,Campbell Creek,,British Columbia,CA,50.654,-120.085,ardac
BC708,Beaton,,British Columbia,CA,50.7333,-117.733,ardac
BC709,Logan Lake,,British Columbia,CA,50.4913,-120.813,ardac
BC710,Okanagan Falls,,British Columbia,CA,49.3428,-119.571,ardac
BC711,Moricetown,,British Columbia,CA,55.0183,-127.331,ardac
BC712,Revelstoke,,British Columbia,CA,51.0012,-118.196,ardac
BC713,Siska,,British Columbia,CA,50.1386,-121.571,ardac
BC714,Kitimat,,British Columbia,CA,54.051,-128.651,ardac
BC715,Haig,,British Columbia,CA,49.3967,-121.453,ardac
BC716,Whistler Creek,,British Columbia,CA,50.0935,-122.993,ardac
BC717,Pavilion,,British Columbia,CA,50.8833,-121.833,ardac
BC718,Warfield,,British Columbia,CA,49.0945,-117.749,ardac
BC719,Fruitvale,,British Columbia,CA,49.1139,-117.548,ardac
BC720,Mara,,British Columbia,CA,50.6853,-119.067,ardac
BC721,Taghum,,British Columbia,CA,49.4934,-117.399,ardac
BC722,Lawnhill,,British Columbia,CA,53.4036,-131.922,ardac
BC723,Gold River,,British Columbia,CA,49.7807,-126.052,ardac
BC724,Lax̱g̱altsʼap,,British Columbia,CA,55.0306,-129.575,ardac
BC725,Ardmore,,British Columbia,CA,48.6389,-123.467,ardac
BC726,Kakawis,,British Columbia,CA,49.189,-125.911,ardac
BC727,Hazelton,,British Columbia,CA,55.2546,-127.676,ardac
BC728,Cawston,,British Columbia,CA,49.1802,-119.764,ardac
BC729,Chase,,British Columbia,CA,50.8221,-119.688,ardac
BC730,Bear Flat,,British Columbia,CA,56.274,-121.231,ardac
BC731,Echo Bay,,British Columbia,CA,50.7485,-126.494,ardac
BC732,Ladysmith,,British Columbia,CA,48.9926,-123.82,ardac
BC733,Kitsumkalum,,British Columbia,CA,54.5245,-128.672,ardac
BC734,Kitchener,,British Columbia,CA,49.1567,-116.339,ardac
BC735,Parson,,British Columbia,CA,51.0708,-116.632,ardac
BC736,Sunshine Valley,,British Columbia,CA,49.2727,-121.239,ardac
BC737,Skidegate Landing,,British Columbia,CA,53.2472,-132.008,ardac
BC738,Southbank,,British Columbia,CA,54.0212,-125.771,ardac
BC739,Burns Lake,,British Columbia,CA,54.2314,-125.76,ardac
BC740,Dunsmuir,,British Columbia,CA,49.3881,-124.609,ardac
BC741,Delbrook,,British Columbia,CA,49.343,-123.085,ardac
BC742,Dallas,,British Columbia,CA,50.6667,-120.167,ardac
BC743,Lake Cowichan,,British Columbia,CA,48.8261,-124.052,ardac
BC744,Houston,,British Columbia,CA,54.397,-126.652,ardac
BC745,Savona,,British Columbia,CA,50.7511,-120.841,ardac
BC746,Bella Coola,,British Columbia,CA,52.3706,-126.752,ardac
BC747,Bowser,,British Columbia,CA,49.4387,-124.685,ardac
BC748,Kispiox,,British Columbia,CA,55.3503,-127.691,ardac
BC749,Esperanza,,British Columbia,CA,49.8713,-126.738,ardac
BC750,Shady Valley,,British Columbia,CA,53.9793,-122.727,ardac
BC751,Blackpool,,British Columbia,CA,51.5969,-120.12,ardac
BC752,Westbank,,British Columbia,CA,49.8286,-119.631,ardac
BC753,Wilmer,,British Columbia,CA,50.5426,-116.063,ardac
BC754,Laidlaw,,British Columbia,CA,49.3223,-121.618,ardac
BC755,Tseycum,,British Columbia,CA,48.6645,-123.448,ardac
BC756,Youbou,,British Columbia,CA,48.8726,-124.199,ardac
BC757,Pendleton Bay,,British Columbia,CA,54.5167,-125.717,ardac
BC758,Ashton Creek,,British Columbia,CA,50.556,-119.013,ardac
BC759,Fraser Lake,,British Columbia,CA,54.0583,-124.847,ardac
BC760,Danskin,,British Columbia,CA,53.9889,-125.792,ardac
BC761,Willow Valley,,British Columbia,CA,55.8563,-120.872,ardac
BC762,Meadow Creek,,British Columbia,CA,50.2392,-116.973,ardac
BC763,Seymour Heights,,British Columbia,CA,49.3192,-123.002,ardac
BC764,Sikanni Chief,,British Columbia,CA,57.2346,-122.695,ardac
BC765,Caesars,,British Columbia,CA,50.0667,-119.5,ardac
BC766,Crofton,,British Columbia,CA,48.8632,-123.643,ardac
BC767,Good Hope Lake,,British Columbia,CA,59.2936,-129.289,"ardac,ncr"
BC768,Whyac,,British Columbia,CA,48.6691,-124.846,ardac
BC769,Refuge Cove,,British Columbia,CA,50.1238,-124.836,ardac
BC770,Marysville,,British Columbia,CA,49.6373,-115.956,ardac
BC771,Tofino,,British Columbia,CA,49.1505,-125.906,ardac
BC772,Maple Ridge,,British Columbia,CA,49.2174,-122.598,ardac
BC773,Traders Cove,,British Columbia,CA,49.9361,-119.504,ardac
BC774,Tsay Keh Dene,,British Columbia,CA,56.8918,-124.963,"ardac,ncr"
BC775,Clinton,,British Columbia,CA,51.0942,-121.587,ardac
BC776,Port Clements,,British Columbia,CA,53.6852,-132.179,ardac
BC777,Osoyoos,,British Columbia,CA,49.0311,-119.465,ardac
BC778,Bliss Landing,,British Columbia,CA,50.0366,-124.816,ardac
BC779,Kyuquot,,British Columbia,CA,50.0281,-127.377,ardac
BC780,Beaverdell,,British Columbia,CA,49.4368,-119.089,ardac
BC781,New Denver,,British Columbia,CA,49.9917,-117.374,ardac
BC782,150 Mile House,,British Columbia,CA,52.1147,-121.935,ardac
BC783,Sicamous,,British Columbia,CA,50.835,-118.98,ardac
BC784,Telegraph Cove,,British Columbia,CA,50.5457,-126.828,ardac
BC785,Towdystan,,British Columbia,CA,52.2634,-125.087,ardac
BC786,Cinema,,British Columbia,CA,53.2333,-122.45,ardac
BC787,Nakusp,,British Columbia,CA,50.2418,-117.799,ardac
BC788,Kingcome Inlet,,British Columbia,CA,50.95,-126.2,ardac
BC789,Sooke,,British Columbia,CA,48.3823,-123.728,ardac
BC790,Courtenay,,British Columbia,CA,49.6889,-124.999,ardac
BC791,Boston Flats,,British Columbia,CA,50.7699,-121.304,ardac
BC792,Jade City,,British Columbia,CA,59.2469,-129.655,"ardac,ncr"
BC793,Spillimacheen,,British Columbia,CA,50.9072,-116.364,ardac
BC794,Ashcroft,,British Columbia,CA,50.721,-121.28,ardac
BC795,Hollyburn,,British Columbia,CA,49.3324,-123.163,ardac
BC796,Honeymoon Bay,,British Columbia,CA,48.815,-124.173,ardac
BC797,Ocean Grove,,British Columbia,CA,49.9524,-125.202,ardac
BC798,Tranquille,,British Columbia,CA,50.72,-120.521,ardac
BC799,Huntingdon,,British Columbia,CA,49.0051,-122.266,ardac
BC800,Brookmere,,British Columbia,CA,49.8181,-120.875,ardac
BC801,Opitsat,,British Columbia,CA,49.1751,-125.912,ardac
BC802,Dogwood Valley,,British Columbia,CA,49.4845,-121.425,ardac
BC803,Anzac,,British Columbia,CA,54.7667,-122.5,ardac
BC804,Salmo,,British Columbia,CA,49.1916,-117.277,ardac
BC805,Walhachin,,British Columbia,CA,50.7515,-120.991,ardac
BC806,Kimberley,,British Columbia,CA,49.6871,-115.983,ardac
BC807,Oyama,,British Columbia,CA,50.1111,-119.368,ardac
BC808,Nanaimo,,British Columbia,CA,49.1659,-123.939,ardac
BC809,Oliver,,British Columbia,CA,49.1826,-119.553,ardac
BC810,Caulfeild,,British Columbia,CA,49.3416,-123.26,ardac
BC811,Wycliffe,,British Columbia,CA,49.6013,-115.861,ardac
BC812,White Rock,,British Columbia,CA,49.0252,-122.796,ardac
BC813,Sorrento,,British Columbia,CA,50.8782,-119.467,ardac
BC814,Alpine Meadows,,British Columbia,CA,50.15,-122.967,ardac
BC815,Eastgate,,British Columbia,CA,49.1375,-120.612,ardac
BC816,Britannia Beach,,British Columbia,CA,49.628,-123.204,ardac
BC817,Celista,,British Columbia,CA,50.9444,-119.349,ardac
BC818,Ta Ta Creek,,British Columbia,CA,49.7833,-115.783,ardac
BC819,Redstone,,British Columbia,CA,52.1333,-123.7,ardac
BC820,Spuzzum,,British Columbia,CA,49.6886,-121.417,ardac
BC821,Stellako,,British Columbia,CA,54.0622,-124.903,ardac
BC822,Glenemma,,British Columbia,CA,50.4694,-119.352,ardac
BC823,Lavington,,British Columbia,CA,50.2313,-119.107,ardac
BC824,Mayne,,British Columbia,CA,48.8501,-123.297,ardac
BC825,Kaleden,,British Columbia,CA,49.3928,-119.596,ardac
BC826,Trout Lake,,British Columbia,CA,50.6472,-117.539,ardac
BC827,Gitwinksihlkw,,British Columbia,CA,55.1937,-129.219,ardac
BC828,Crawford Bay,,British Columbia,CA,49.6766,-116.822,ardac
BC829,Coalmont,,British Columbia,CA,49.5089,-120.695,ardac
BC830,Semiahmoo,,British Columbia,CA,49.0126,-122.766,ardac
BC831,Soda Creek,,British Columbia,CA,52.3275,-122.275,ardac
BC832,Rolla,,British Columbia,CA,55.8986,-120.143,ardac
BC833,Kingsgate,,British Columbia,CA,49.0024,-116.178,ardac
BC834,Ellison,,British Columbia,CA,49.9363,-119.358,ardac
BC835,Dorreen,,British Columbia,CA,54.8389,-128.346,ardac
BC836,Westbridge,,British Columbia,CA,49.1715,-118.975,ardac
BC837,Prespatou,,British Columbia,CA,56.9223,-121.063,ardac
BC838,Cokato,,British Columbia,CA,49.4667,-115.067,ardac
BC839,Lasqueti,,British Columbia,CA,49.4918,-124.347,ardac
BC840,Langdale,,British Columbia,CA,49.4341,-123.477,ardac
BC841,Glen Vowell,,British Columbia,CA,55.3135,-127.677,ardac
BC842,Christina Lake,,British Columbia,CA,49.0392,-118.216,ardac
BC843,Fort Nelson,,British Columbia,CA,58.8056,-122.697,ardac
BC844,Rosedale,,British Columbia,CA,49.182,-121.804,ardac
BC845,Magna Bay,,British Columbia,CA,50.9618,-119.284,ardac
BC846,Howser,,British Columbia,CA,50.3,-116.95,ardac
BC847,Ainsworth Hot Springs,,British Columbia,CA,49.7343,-116.913,ardac
BC848,Germansen Landing,,British Columbia,CA,55.7833,-124.7,ardac
BC849,Rutland,,British Columbia,CA,49.8883,-119.391,ardac
BC850,Tappen,,British Columbia,CA,50.784,-119.331,ardac
BC851,Sewall,,British Columbia,CA,53.7625,-132.298,ardac
BC852,Hosmer,,British Columbia,CA,49.5897,-114.964,ardac
BC853,Grindrod,,British Columbia,CA,50.6276,-119.123,ardac
BC854,Bonnet Hill,,British Columbia,CA,53.9,-122.617,ardac
BC855,Dease Lake,,British Columbia,CA,58.4394,-129.996,"ardac,ncr"
BC856,Rayleigh,,British Columbia,CA,50.7974,-120.32,ardac
BC857,New Hazelton,,British Columbia,CA,55.2466,-127.586,ardac
BC858,Rock Creek,,British Columbia,CA,49.0596,-118.999,ardac
BC859,Annis,,British Columbia,CA,50.7907,-119.082,ardac
BC860,Rose Harbour,,British Columbia,CA,52.1477,-131.085,ardac
BC861,Bella Bella,,British Columbia,CA,52.1639,-128.144,ardac
BC862,Buckhorn,,British Columbia,CA,53.7942,-122.655,ardac
BC863,Heffley Creek,,British Columbia,CA,50.8583,-120.271,ardac
BC864,Shearwater,,British Columbia,CA,52.1466,-128.092,ardac
BC865,Forest Grove,,British Columbia,CA,51.7667,-121.1,ardac
BC866,Cache Creek,,British Columbia,CA,50.8119,-121.323,ardac
BC867,Wildwood,,British Columbia,CA,49.891,-124.557,ardac
BC868,Keremeos,,British Columbia,CA,49.2064,-119.826,ardac
BC869,Albreda,,British Columbia,CA,52.6375,-119.162,ardac
BC870,Yale,,British Columbia,CA,49.5632,-121.43,ardac
BC871,Durieu,,British Columbia,CA,49.2175,-122.235,ardac
BC872,Lund,,British Columbia,CA,49.9818,-124.757,ardac
BC873,Avola,,British Columbia,CA,51.7812,-119.323,ardac
BC874,Kitamaat Village,,British Columbia,CA,53.9737,-128.647,ardac
BC875,Stoner,,British Columbia,CA,53.6291,-122.662,ardac
BC876,Tachie,,British Columbia,CA,54.6548,-124.758,ardac
BC877,Qualicum Beach,,British Columbia,CA,49.3475,-124.442,ardac
BC878,Lynn Valley,,British Columbia,CA,49.3416,-123.033,ardac
BC879,Chehalis,,British Columbia,CA,49.2918,-121.911,ardac
BC880,Harrison Hot Springs,,British Columbia,CA,49.3,-121.783,ardac
BC881,Dodge Cove,,British Columbia,CA,54.2878,-130.387,ardac
BC882,Dawson Creek,,British Columbia,CA,55.7595,-120.235,ardac
BC883,Krestova,,British Columbia,CA,49.4447,-117.582,ardac
BC884,Silver River,,British Columbia,CA,49.5756,-121.818,ardac
BC885,French Creek,,British Columbia,CA,49.3471,-124.36,ardac
BC886,Montrose,,British Columbia,CA,49.0788,-117.591,ardac
BC887,Slocan,,British Columbia,CA,49.7667,-117.467,ardac
BC888,Sidney,,British Columbia,CA,48.65,-123.4,ardac
BC889,Raspberry,,British Columbia,CA,49.3358,-117.657,ardac
BC890,Rossland,,British Columbia,CA,49.0775,-117.801,ardac
BC891,McCulloch,,British Columbia,CA,49.7948,-119.19,ardac
BC892,Bell II,,British Columbia,CA,56.7444,-129.794,ardac
BC893,Glade,,British Columbia,CA,49.3964,-117.535,ardac
BC894,Wonowon,,British Columbia,CA,56.7288,-121.814,ardac
BC895,Comox,,British Columbia,CA,49.6739,-124.928,ardac
BC896,Burton,,British Columbia,CA,49.9856,-117.88,ardac
BC897,Maple Bay,,British Columbia,CA,48.8158,-123.613,ardac
BC898,Tsawout,,British Columbia,CA,48.588,-123.387,ardac
BC899,Coombs,,British Columbia,CA,49.3044,-124.418,ardac
BC900,South Shalalth,,British Columbia,CA,50.7288,-122.244,ardac
BC901,Lazo,,British Columbia,CA,49.7139,-124.909,ardac
BC902,Bonnington Falls,,British Columbia,CA,49.4667,-117.483,ardac
BC903,Bell Acres,,British Columbia,CA,49.078,-121.866,ardac
BC904,Zamora,,British Columbia,CA,49.15,-118.983,ardac
BC905,Brilliant,,British Columbia,CA,49.3217,-117.643,ardac
BC906,Cascade,,British Columbia,CA,49.0187,-118.207,ardac
BC907,Donnely Landing,,British Columbia,CA,49.625,-124.043,ardac
BC908,Steamboat,,British Columbia,CA,58.6756,-123.712,ardac
BC909,Merritt,,British Columbia,CA,50.1114,-120.79,ardac
BC910,Gingolx,,British Columbia,CA,54.9944,-129.954,ardac
BC911,Canoe,,British Columbia,CA,50.7515,-119.227,ardac
BC912,Groundbirch,,British Columbia,CA,55.78,-120.923,ardac
BC913,Moyie,,British Columbia,CA,49.2888,-115.832,ardac
BC914,Lytton,,British Columbia,CA,50.2316,-121.583,ardac
BC915,Royston,,British Columbia,CA,49.6454,-124.945,ardac
BC916,Westsyde,,British Columbia,CA,50.7637,-120.348,ardac
BC917,Ksan,,British Columbia,CA,55.2497,-127.678,ardac
BC918,Tulameen,,British Columbia,CA,49.5458,-120.758,ardac
BC919,Deep Bay,,British Columbia,CA,49.4642,-124.725,ardac
BC920,Barnhartvale,,British Columbia,CA,50.6505,-120.17,ardac
BC921,Fulford Harbour,,British Columbia,CA,48.7706,-123.45,ardac
BC922,Ymir,,British Columbia,CA,49.2833,-117.217,ardac
BC923,Rosebery,,British Columbia,CA,50.0333,-117.411,ardac
BC924,Altona,,British Columbia,CA,56.8775,-120.954,ardac
BC925,Meziadin Junction,,British Columbia,CA,56.0997,-129.305,ardac
BC926,Nahun,,British Columbia,CA,50.0833,-119.5,ardac
BC927,Edgewater,,British Columbia,CA,50.7,-116.133,ardac
BC928,Shirley,,British Columbia,CA,48.3898,-123.904,ardac
BC929,Sunnybrae,,British Columbia,CA,50.7732,-119.27,ardac
BC930,Lumby,,British Columbia,CA,50.25,-118.967,ardac
BC931,Merville,,British Columbia,CA,49.7848,-125.057,ardac
BC932,Wells,,British Columbia,CA,53.1041,-121.571,ardac
BC933,Telkwa,,British Columbia,CA,54.6972,-127.05,ardac
BC934,Topley,,British Columbia,CA,54.5068,-126.301,ardac
BC935,Anahim Lake,,British Columbia,CA,52.4614,-125.303,ardac
BC936,Thornhill,,British Columbia,CA,54.5125,-128.54,ardac
BC937,Hatzic Island,,British Columbia,CA,49.1624,-122.236,ardac
BC938,Rich Bar,,British Columbia,CA,52.9149,-122.456,ardac
BC939,Yaculta,,British Columbia,CA,50.0217,-125.195,ardac
BC940,Old Town,,British Columbia,CA,49.55,-115.967,ardac
BC941,Shoreacres,,British Columbia,CA,49.4307,-117.527,ardac
BC942,Bear Lake,,British Columbia,CA,54.4959,-122.679,ardac
BC943,Clayhurst,,British Columbia,CA,56.1868,-120.03,ardac
BC944,Fraser,,British Columbia,CA,59.7159,-135.049,"ardac,ncr"
BC945,Hydraulic,,British Columbia,CA,52.6148,-121.707,ardac
BC946,Union Bay,,British Columbia,CA,49.5802,-124.885,ardac
BC947,Weneez,,British Columbia,CA,53.9677,-123.98,ardac
BC948,Riondel,,British Columbia,CA,49.7618,-116.856,ardac
BC949,Marshall School Junction,,British Columbia,CA,49.7111,-124.509,ardac
BC950,Shawnigan Lake,,British Columbia,CA,48.6535,-123.622,ardac
BC951,Kilkerran,,British Columbia,CA,55.8395,-120.272,ardac
BC952,Seven Mile Corner,,British Columbia,CA,55.8976,-120.324,ardac
BC953,Red Rock,,British Columbia,CA,53.6886,-122.671,ardac
BC954,Errington,,British Columbia,CA,49.2889,-124.37,ardac
BC955,Egmont,,British Columbia,CA,49.75,-123.933,ardac
BC956,Kinnaird,,British Columbia,CA,49.2834,-117.651,ardac
BC957,Olalla,,British Columbia,CA,49.2634,-119.829,ardac
BC958,Little Fort,,British Columbia,CA,51.4249,-120.207,ardac
BC959,Lions Bay,,British Columbia,CA,49.4591,-123.236,ardac
BC960,Cassidy,,British Columbia,CA,49.05,-123.883,ardac
BC961,Kitwanga,,British Columbia,CA,55.1,-128.067,ardac
BC962,Silverton,,British Columbia,CA,49.9528,-117.358,ardac
BC963,Pleasant Camp,,British Columbia,CA,59.4546,-136.365,"ardac,ncr"
BC964,Westholme,,British Columbia,CA,48.8667,-123.7,ardac
BC965,Montney,,British Columbia,CA,56.4503,-120.926,ardac
BC966,Wynndel,,British Columbia,CA,49.18,-116.552,ardac
BC967,Extension,,British Columbia,CA,49.1005,-123.958,ardac
BC968,Cottonwood,,British Columbia,CA,53.0522,-122.156,ardac
BC969,Spences Bridge,,British Columbia,CA,50.4234,-121.344,ardac
BC970,Bessborough,,British Columbia,CA,55.8109,-120.506,ardac
BC971,Hemlock Valley,,British Columbia,CA,49.3769,-121.935,ardac
BC972,Falkland,,British Columbia,CA,50.5009,-119.557,ardac
BC973,Agassiz,,British Columbia,CA,49.2333,-121.767,ardac
BC974,Clearbrook,,British Columbia,CA,49.05,-122.333,ardac
BC975,Winter Harbour,,British Columbia,CA,50.5167,-128.033,ardac
BC976,Sointula,,British Columbia,CA,50.6333,-127.017,ardac
BC977,Horsefly,,British Columbia,CA,52.3333,-121.417,ardac
BC978,Noralee,,British Columbia,CA,53.9833,-126.433,ardac
BC979,Esler,,British Columbia,CA,52.1042,-122.184,ardac
BC980,Goodlow,,British Columbia,CA,56.3336,-120.136,ardac
BC981,Brackendale,,British Columbia,CA,49.7667,-123.15,ardac
BC982,103 Mile,,British Columbia,CA,51.689,-121.314,ardac
BC983,105 Mile House,,British Columbia,CA,51.7069,-121.331,ardac
BC984,122 Mile House,,British Columbia,CA,51.8483,-121.599,ardac
BC985,141 Mile House,,British Columbia,CA,51.994,-121.846,ardac
BC986,Ahousat,,British Columbia,CA,49.2842,-126.074,ardac
BC987,Akisqnuk,,British Columbia,CA,50.4512,-115.96,ardac
BC988,Baker Trails,,British Columbia,CA,49.0854,-121.927,ardac
BC989,Bankeir,,British Columbia,CA,49.7107,-120.225,ardac
BC990,Barney's Bar,,British Columbia,CA,49.7845,-124.444,ardac
BC991,Bear Camp,,British Columbia,CA,59.9167,-136.8,"ardac,ncr"
BC992,Big White,,British Columbia,CA,49.7214,-118.94,ardac
BC993,Birchdale,,British Columbia,CA,50.0344,-116.874,ardac
BC994,Blue Springs,,British Columbia,CA,50.25,-118.85,ardac
BC995,Brady Ranch,,British Columbia,CA,56.8333,-122.633,ardac
BC996,Carrolls Landing,,British Columbia,CA,50.0333,-117.9,ardac
BC997,Cheslatta Carrier,,British Columbia,CA,54.0014,-125.708,ardac
BC998,Clemretta,,British Columbia,CA,54.0038,-126.285,ardac
BC999,Cook's Ferry,,British Columbia,CA,50.4223,-121.32,ardac
BC1000,Deerholme,,British Columbia,CA,48.7528,-123.758,ardac
BC1001,Dokie Siding,,British Columbia,CA,55.6625,-121.734,ardac
BC1002,Duncanby Landing,,British Columbia,CA,51.4065,-127.644,ardac
BC1003,East Wellington,,British Columbia,CA,49.1838,-124.018,ardac
BC1004,François Lake,,British Columbia,CA,54.0517,-125.7419,ardac
BC1005,Georgetown Mills,,British Columbia,CA,54.4716,-130.398,ardac
BC1006,Gitanyow,,British Columbia,CA,55.2676,-128.072,ardac
BC1007,Grand Haven,,British Columbia,CA,56.2402,-120.899,ardac
BC1008,Harrogate,,British Columbia,CA,50.9833,-116.45,ardac
BC1009,Imperial Ranchettes,,British Columbia,CA,51.613,-121.183,ardac
BC1010,Johnsons Landing,,British Columbia,CA,50.0833,-116.883,ardac
BC1011,Kendrick Camp,,British Columbia,CA,49.7244,-126.651,ardac
BC1012,Killiney Beach,,British Columbia,CA,50.1899,-119.506,ardac
BC1013,Martin Prairie,,British Columbia,CA,50.6624,-119.812,ardac
BC1014,Matilpi,,British Columbia,CA,50.5494,-126.184,ardac
BC1015,Mile 62 1/2,,British Columbia,CA,56.4084,-121.157,ardac
BC1016,Mount Baldy,,British Columbia,CA,49.1522,-119.237,ardac
BC1017,Nadleh Whuten,,British Columbia,CA,54.0885,-124.598,ardac
BC1018,Nee-Tahi-Buhn,,British Columbia,CA,54.0074,-125.956,ardac
BC1019,New Brighton,,British Columbia,CA,49.45,-123.433,ardac
BC1020,Nuchatlaht,,British Columbia,CA,49.9901,-126.94,ardac
BC1021,Park Siding,,British Columbia,CA,49.1725,-117.493,ardac
BC1022,Peejay,,British Columbia,CA,56.8833,-120.617,ardac
BC1023,Queens Cove,,British Columbia,CA,49.8833,-126.983,ardac
BC1024,Samahquam,,British Columbia,CA,50.0513,-122.539,ardac
BC1025,Saulteau,,British Columbia,CA,55.835,-121.656,ardac
BC1026,Selma Park,,British Columbia,CA,49.4585,-123.733,ardac
BC1027,Shoreholme,,British Columbia,CA,50.3,-117.85,ardac
BC1028,Six Mile,,British Columbia,CA,49.5785,-117.225,ardac
BC1029,Skin Tyee,,British Columbia,CA,53.9486,-125.652,ardac
BC1030,South Bentinck,,British Columbia,CA,52.0444,-126.667,ardac
BC1031,South Lakeside,,British Columbia,CA,52.1083,-122.097,ardac
BC1032,South Taylor,,British Columbia,CA,56.1068,-120.634,ardac
BC1033,St. Joseph Mission,,British Columbia,CA,52.0667,-121.95,ardac
BC1034,Sugarcane,,British Columbia,CA,52.1088,-121.995,ardac
BC1035,Tête Jaune Cache,,British Columbia,CA,52.9667,-119.429,ardac
BC1036,University Hill,,British Columbia,CA,49.2669,-123.242,ardac
BC1037,Village of Queen Charlotte,,British Columbia,CA,53.2565,-132.094,ardac
BC1038,Whispering Pines/Clinton,,British Columbia,CA,50.9848,-120.245,ardac
