id,name,alt_name,region,country,latitude,longitude,tags,km_distance_to_ocean,is_coastal,ocean_lat1,ocean_lon1
NO1,Åseral,,Agder,NO,58.6173,7.4112,ardac,50.8,True,58.238,6.9536
NO2,Audnedal,,Agder,NO,58.2838,7.3549,ardac,23.8,True,58.073,7.4768
NO3,Farsund,,Agder,NO,58.0954,6.804,ardac,0.5,True,58.0414,6.9153
NO4,Flekkefjord,,Agder,NO,58.2979,6.6635,ardac,0.7,True,58.2366,6.4802
NO5,Hægebostad,,Agder,NO,58.3757,7.2197,ardac,24.8,True,58.1521,6.7531
NO6,Justvik,,Agder,NO,58.1969,8.0311,ardac,0.8,True,58.1418,8.1408
NO7,Kristiansand,,Agder,NO,58.1464,7.9969,ardac,0.7,True,58.0914,8.1065
NO8,Kvinesdal,,Agder,NO,58.2389,6.7145,ardac,1.9,True,58.1849,6.8264
NO9,Liknes,,Agder,NO,58.3122,6.9618,ardac,8.2,True,58.095,6.7918
NO10,Lindesnes,,Agder,NO,58.0844,7.3016,ardac,4.2,True,58.0299,7.4121
NO11,Lyngdal,,Agder,NO,58.1383,7.0684,ardac,4.7,True,58.0775,6.8852
NO12,Mandal,,Agder,NO,58.0263,7.4501,ardac,3.7,True,57.9717,7.5602
NO13,Marnardal,,Agder,NO,58.198,7.528,ardac,16.6,True,58.1482,7.9333
NO14,Nodeland,,Agder,NO,58.1552,7.8358,ardac,7.7,True,58.1003,7.9457
NO15,Sirdal,,Agder,NO,58.6651,6.7159,ardac,34.3,True,58.2914,6.5608
NO16,Skålevik,,Agder,NO,58.0796,8.016,ardac,3.8,True,58.0246,8.1254
NO17,Songdalen,,Agder,NO,58.1527,7.8368,ardac,7.5,True,58.0978,7.9467
NO18,Søgne,,Agder,NO,58.0966,7.8149,ardac,4.6,True,58.0417,7.9247
NO19,Strai,,Agder,NO,58.1893,7.9283,ardac,5.7,True,58.1343,8.0382
NO20,Tonstad,,Agder,NO,58.6626,6.7169,ardac,34.5,True,58.2889,6.5618
NO21,Tveit,,Agder,NO,58.2337,8.122,ardac,5.5,True,58.1786,8.2317
NO22,Vanse,,Agder,NO,58.0981,6.6918,ardac,1.8,True,58.0441,6.8033
NO23,Vennesla,,Agder,NO,58.3427,7.976,ardac,13.4,True,58.1313,8.0945
NO24,Vestbygd,,Agder,NO,58.0999,6.587,ardac,2.7,True,58.046,6.6986
NO25,Vigeland,,Agder,NO,58.0844,7.305,ardac,4.4,True,58.0299,7.4155
NO26,Alvdal,,Innlandet,NO,62.1085,10.6348,ardac,124.5,False,63.1478,9.0643
NO27,Åmot,,Innlandet,NO,61.132,11.3733,ardac,140.7,False,59.5152,10.4996
NO28,Åsnes,,Innlandet,NO,60.6136,12.012,ardac,106.5,False,59.4742,10.5247
NO29,Bagn,,Innlandet,NO,60.8225,9.5521,ardac,110.5,False,59.5137,10.2932
NO30,Brumunddal,,Innlandet,NO,60.881,10.9395,ardac,108.6,False,59.4178,10.3987
NO31,Dokka,,Innlandet,NO,60.835,10.0736,ardac,108.1,False,59.525,10.4884
NO32,Dombås,,Innlandet,NO,62.0755,9.1279,ardac,71.3,True,62.6226,7.2091
NO33,Dovre,,Innlandet,NO,61.9858,9.2495,ardac,83.0,True,63.0151,7.9799
NO34,Eidskog,,Innlandet,NO,59.9856,12.125,ardac,77.7,True,59.3155,10.9746
NO35,Elverum,,Innlandet,NO,60.8816,11.5631,ardac,118.1,False,59.4238,10.3843
NO36,Engerdal,,Innlandet,NO,61.7577,11.9597,ardac,189.3,False,63.1222,9.0851
NO37,Etnedal,,Innlandet,NO,60.8887,9.6403,ardac,112.0,False,59.4229,10.3778
NO38,Fagernes,,Innlandet,NO,60.9858,9.2324,ardac,87.5,True,59.5218,10.2961
NO39,Folldal,,Innlandet,NO,62.1333,9.9971,ardac,95.2,True,63.1714,9.0905
NO40,Fossbergom,,Innlandet,NO,61.8377,8.5684,ardac,65.9,True,62.5413,6.9738
NO41,Gausdal,,Innlandet,NO,61.2269,10.2215,ardac,136.2,False,59.4477,10.3207
NO42,Gjøvik,,Innlandet,NO,60.7947,10.6929,ardac,98.1,True,59.4865,10.471
NO43,Gran,,Innlandet,NO,60.3929,10.5605,ardac,53.9,True,59.3977,10.3493
NO44,Grua,,Innlandet,NO,60.257,10.6622,ardac,38.4,True,59.4185,10.451
NO45,Grue,,Innlandet,NO,60.4513,12.0549,ardac,95.7,True,59.3109,10.878
NO46,Hamar,,Innlandet,NO,60.7945,11.068,ardac,100.3,False,59.4883,10.5255
NO47,Hov,,Innlandet,NO,60.6987,10.3519,ardac,89.4,True,59.3893,10.449
NO48,Hundorp,,Innlandet,NO,61.5552,9.9407,ardac,125.7,False,62.5664,7.0285
NO49,Innbygda,,Innlandet,NO,61.3148,12.2637,ardac,178.2,False,59.3962,10.4142
NO50,Jevnaker,,Innlandet,NO,60.2406,10.3859,ardac,40.3,True,59.401,10.4871
NO51,Kirkenær,,Innlandet,NO,60.4579,12.0586,ardac,96.3,True,59.3175,10.8814
NO52,Kongsvinger,,Innlandet,NO,60.1912,11.9992,ardac,77.3,True,59.3613,11.1457
NO53,Koppang,,Innlandet,NO,61.5722,11.0466,ardac,178.0,False,63.2413,9.163
NO54,Lena,,Innlandet,NO,60.6739,10.8132,ardac,85.0,True,59.5234,10.2836
NO55,Lesja,,Innlandet,NO,62.1179,8.8626,ardac,62.1,True,62.9922,7.9282
NO56,Lillehammer,,Innlandet,NO,61.1146,10.4674,ardac,134.2,False,59.3354,10.5536
NO57,Lom,,Innlandet,NO,61.8364,8.5681,ardac,65.8,True,62.54,6.9735
NO58,Løten,,Innlandet,NO,60.8177,11.3437,ardac,107.0,False,59.514,10.4838
NO59,Lunner,,Innlandet,NO,60.2946,10.6086,ardac,42.8,True,59.456,10.3985
NO60,Moelv,,Innlandet,NO,60.9333,10.7,ardac,113.5,False,59.4685,10.4747
NO61,Nord-Aurdal,,Innlandet,NO,60.9853,9.2366,ardac,87.8,True,59.5212,10.3001
NO62,Nord-Fron,,Innlandet,NO,61.5956,9.7483,ardac,116.8,False,62.6096,7.1629
NO63,Nord-Odal,,Innlandet,NO,60.392,11.5415,ardac,71.0,True,59.4039,10.3854
NO64,Nordre Land,,Innlandet,NO,60.8347,10.0754,ardac,108.0,False,59.5247,10.4901
NO65,Os,,Innlandet,NO,62.4954,11.2281,ardac,99.0,True,63.5411,9.6578
NO66,Otta,,Innlandet,NO,61.7712,9.5353,ardac,109.3,False,63.1226,8.9524
NO67,Østre Toten,,Innlandet,NO,60.6766,10.82,ardac,85.3,True,59.5261,10.2901
NO68,Øyer,,Innlandet,NO,61.265,10.413,ardac,146.5,False,59.4857,10.5024
NO69,Øystre Slidre,,Innlandet,NO,61.1338,9.0787,ardac,75.5,True,62.6199,7.1309
NO70,Raufoss,,Innlandet,NO,60.726,10.6133,ardac,90.6,True,59.4177,10.3949
NO71,Reinsvoll,,Innlandet,NO,60.6798,10.6218,ardac,85.4,True,59.528,10.4052
NO72,Rena,,Innlandet,NO,61.1322,11.3716,ardac,140.7,False,59.5154,10.4979
NO73,Rendalen,,Innlandet,NO,61.89,11.0769,ardac,157.1,False,63.2461,9.1835
NO74,Ringebu,,Innlandet,NO,61.5298,10.1418,ardac,135.4,False,62.545,7.2384
NO75,Ringsaker,,Innlandet,NO,60.8822,10.9503,ardac,108.8,False,59.419,10.409
NO76,Sand,,Innlandet,NO,60.3922,11.5403,ardac,70.9,True,59.4041,10.3842
NO77,Sel,,Innlandet,NO,61.7728,9.5342,ardac,109.2,False,63.1241,8.9512
NO78,Skarnes,,Innlandet,NO,60.2539,11.6849,ardac,66.0,True,59.4236,10.5317
NO79,Skjåk,,Innlandet,NO,61.8835,8.2649,ardac,57.6,True,62.5909,6.9976
NO80,Skotterud,,Innlandet,NO,59.9828,12.1283,ardac,77.8,True,59.3127,10.978
NO81,Skreia,,Innlandet,NO,60.6526,10.9356,ardac,83.4,True,59.5025,10.4022
NO82,Søndre Land,,Innlandet,NO,60.6994,10.3509,ardac,89.5,True,59.39,10.4481
NO83,Sør-Aurdal,,Innlandet,NO,60.8224,9.5484,ardac,110.3,False,59.5137,10.2897
NO84,Sør-Fron,,Innlandet,NO,61.5565,9.9395,ardac,125.7,False,62.5677,7.0271
NO85,Sør-Odal,,Innlandet,NO,60.2546,11.6825,ardac,65.9,True,59.4242,10.5294
NO86,Spetalen,,Innlandet,NO,60.1833,11.9,ardac,72.0,True,59.3528,11.0491
NO87,Stange,,Innlandet,NO,60.7158,11.1907,ardac,93.5,True,59.4113,10.3391
NO88,Stor-Elvdal,,Innlandet,NO,61.572,11.0476,ardac,178.0,False,63.2412,9.1641
NO89,Tolga,,Innlandet,NO,62.4098,10.9977,ardac,102.4,False,63.1377,9.0867
NO90,Tretten,,Innlandet,NO,61.3142,10.3007,ardac,140.6,False,63.1359,9.0702
NO91,Trysil,,Innlandet,NO,61.3155,12.2642,ardac,178.2,False,59.3969,10.4147
NO92,Tynset,,Innlandet,NO,62.2739,10.7763,ardac,113.4,False,63.1579,9.2062
NO93,Vågå,,Innlandet,NO,61.8757,9.0957,ardac,91.3,True,62.5791,7.1744
NO94,Vågåmo,,Innlandet,NO,61.8751,9.0967,ardac,91.4,True,62.5785,7.1755
NO95,Våler,,Innlandet,NO,60.6785,11.8331,ardac,106.0,False,59.3807,10.3474
NO96,Vang,,Innlandet,NO,61.1256,8.5717,ardac,48.8,True,62.612,6.937
NO97,Vestre Slidre,,Innlandet,NO,61.0884,8.982,ardac,71.3,True,62.5732,7.0325
NO98,Vestre Toten,,Innlandet,NO,60.7259,10.6076,ardac,90.6,True,59.4176,10.3894
NO99,Vinstra,,Innlandet,NO,61.595,9.7513,ardac,117.0,False,62.6091,7.1661
NO100,Ålesund,,Møre og Romsdal,NO,62.4723,6.1549,ardac,3.8,True,62.4187,6.2831
NO101,Åndalsnes,,Møre og Romsdal,NO,62.5675,7.6871,ardac,3.6,True,62.5014,7.1411
NO102,Aukra,,Møre og Romsdal,NO,62.805,6.8872,ardac,0.1,True,62.7508,7.0155
NO103,Aure,,Møre og Romsdal,NO,63.2675,8.5278,ardac,1.3,True,63.3687,8.6479
NO104,Averøy,,Møre og Romsdal,NO,63.0534,7.6327,ardac,0.4,True,62.9985,7.7607
NO105,Batnfjordsøra,,Møre og Romsdal,NO,62.8946,7.6725,ardac,2.2,True,62.9964,7.7883
NO106,Brattvåg,,Møre og Romsdal,NO,62.5999,6.4443,ardac,5.1,True,62.7026,6.5549
NO107,Eide,,Møre og Romsdal,NO,62.9157,7.445,ardac,0.3,True,63.0177,7.5601
NO108,Eidsvåg,,Møre og Romsdal,NO,62.7766,8.0655,ardac,0.5,True,63.0349,8.1726
NO109,Elnesvågen,,Møre og Romsdal,NO,62.8543,7.1377,ardac,0.6,True,62.7934,6.9267
NO110,Fræna,,Møre og Romsdal,NO,62.8538,7.1538,ardac,1.2,True,62.7929,6.9428
NO111,Giske,,Møre og Romsdal,NO,62.5007,6.1347,ardac,6.5,True,62.4471,6.2631
NO112,Gjemnes,,Møre og Romsdal,NO,62.8938,7.6771,ardac,2.2,True,62.9956,7.7929
NO113,Halsa,,Møre og Romsdal,NO,63.1186,8.3154,ardac,0.9,True,63.0593,8.1002
NO114,Haram,,Møre og Romsdal,NO,62.599,6.4448,ardac,5.1,True,62.7017,6.5554
NO115,Hareid,,Møre og Romsdal,NO,62.3674,6.0211,ardac,0.7,True,62.3139,6.1491
NO116,Herøy,,Møre og Romsdal,NO,62.3333,5.636,ardac,1.0,True,62.2704,5.4315
NO117,Hjelset,,Møre og Romsdal,NO,62.7805,7.4928,ardac,1.8,True,63.0392,7.595
NO118,Hopen,,Møre og Romsdal,NO,63.4654,8.0144,ardac,1.0,True,63.4102,8.1435
NO119,Kristiansund,,Møre og Romsdal,NO,63.1115,7.732,ardac,1.8,True,63.0566,7.8601
NO120,Larsnes,,Møre og Romsdal,NO,62.2028,5.5773,ardac,1.8,True,62.3061,5.6836
NO121,Midsund,,Møre og Romsdal,NO,62.6761,6.6778,ardac,0.8,True,62.7787,6.7894
NO122,Molde,,Møre og Romsdal,NO,62.7381,7.1588,ardac,7.9,True,62.6772,6.9486
NO123,Nesset,,Møre og Romsdal,NO,62.7762,8.0662,ardac,0.5,True,63.0345,8.1734
NO124,Norddal,,Møre og Romsdal,NO,62.2991,7.2615,ardac,1.7,True,62.5516,7.0238
NO125,Nordstranda,,Møre og Romsdal,NO,62.5138,6.1317,ardac,7.0,True,62.4602,6.2601
NO126,Ørskog,,Møre og Romsdal,NO,62.4845,6.8203,ardac,1.7,True,62.587,6.9317
NO127,Ørsta,,Møre og Romsdal,NO,62.1994,6.1308,ardac,3.5,True,62.3023,6.2389
NO128,Rauma,,Møre og Romsdal,NO,62.5681,7.6861,ardac,3.7,True,62.502,7.1401
NO129,Rensvik,,Møre og Romsdal,NO,63.0984,7.8203,ardac,1.4,True,63.0434,7.9482
NO130,Sande,,Møre og Romsdal,NO,62.2046,5.5797,ardac,1.5,True,62.3079,5.686
NO131,Sandøy,,Møre og Romsdal,NO,62.7817,6.4688,ardac,12.5,True,62.7278,6.5978
NO132,Sjøholt,,Møre og Romsdal,NO,62.4826,6.8138,ardac,1.3,True,62.5851,6.9252
NO133,Skodje,,Møre og Romsdal,NO,62.5031,6.6982,ardac,1.3,True,62.4416,6.4905
NO134,Smøla,,Møre og Romsdal,NO,63.4653,8.0181,ardac,1.1,True,63.4101,8.1472
NO135,Steinshamn,,Møre og Romsdal,NO,62.7839,6.4707,ardac,12.5,True,62.73,6.5997
NO136,Stordal,,Møre og Romsdal,NO,62.3821,6.9871,ardac,0.9,True,62.4844,7.0987
NO137,Stranda,,Møre og Romsdal,NO,62.3113,6.9312,ardac,2.1,True,62.5703,7.0272
NO138,Sula,,Møre og Romsdal,NO,62.4445,6.2123,ardac,0.4,True,62.3909,6.3403
NO139,Sunndal,,Møre og Romsdal,NO,62.6746,8.5619,ardac,0.9,True,63.0818,7.9809
NO140,Sunndalsøra,,Møre og Romsdal,NO,62.6752,8.5633,ardac,0.8,True,63.0824,7.9823
NO141,Surnadal,,Møre og Romsdal,NO,62.9753,8.7249,ardac,2.9,True,63.0697,8.1597
NO142,Sykkylven,,Møre og Romsdal,NO,62.3896,6.5783,ardac,0.9,True,62.328,6.3716
NO143,Tingvoll,,Møre og Romsdal,NO,62.9119,8.2067,ardac,0.2,True,63.0092,7.9827
NO144,Tomra,,Møre og Romsdal,NO,62.5812,6.9311,ardac,0.5,True,62.527,7.0584
NO145,Ulstein,,Møre og Romsdal,NO,62.3442,5.8524,ardac,2.0,True,62.2909,5.9806
NO146,Ulsteinvik,,Møre og Romsdal,NO,62.3432,5.8487,ardac,1.8,True,62.4463,5.9564
NO147,Ulsteinvik weather pws station,,Møre og Romsdal,NO,62.3434,5.8439,ardac,1.7,True,62.4465,5.9515
NO148,Vanylven,,Møre og Romsdal,NO,62.1,5.5583,ardac,1.2,True,62.1933,5.3321
NO149,Vatne,,Møre og Romsdal,NO,62.5583,6.6171,ardac,0.4,True,62.6609,6.7281
NO150,Vestnes,,Møre og Romsdal,NO,62.6213,7.0897,ardac,1.1,True,62.5669,7.2169
NO151,Volda,,Møre og Romsdal,NO,62.1468,6.068,ardac,1.4,True,62.4062,6.1563
NO152,Alstahaug,,Nordland,NO,65.9756,12.5684,ardac,1.9,True,65.9166,12.6999
NO153,Andenes,,Nordland,NO,69.3143,16.1194,ardac,0.6,True,69.2524,16.2605
NO154,Andøy,,Nordland,NO,69.0803,15.7764,ardac,4.5,True,69.0186,15.917
NO155,Ballangen,,Nordland,NO,68.3437,16.8332,ardac,1.3,True,68.438,17.0136
NO156,Beiarn,,Nordland,NO,67.0073,14.573,ardac,1.2,True,67.271,14.3661
NO157,Bindal,,Nordland,NO,65.0878,12.3775,ardac,0.5,True,65.0342,12.1387
NO158,Bjerkvik,,Nordland,NO,68.5492,17.5571,ardac,2.1,True,68.6599,17.3214
NO159,Bodø,,Nordland,NO,67.2833,14.3832,ardac,1.2,True,67.2228,14.5172
NO160,Bogen,,Nordland,NO,68.5265,16.9928,ardac,1.9,True,68.464,17.1269
NO161,Bø,,Nordland,NO,68.6882,14.479,ardac,2.7,True,68.6275,14.6207
NO162,Brønnøy,,Nordland,NO,65.4679,12.2063,ardac,0.8,True,65.4092,12.3361
NO163,Brønnøysund,,Nordland,NO,65.4749,12.2129,ardac,0.7,True,65.4162,12.3427
NO164,Dønna,,Nordland,NO,66.1061,12.4819,ardac,0.7,True,66.0472,12.6142
NO165,Evenes,,Nordland,NO,68.5233,17.0089,ardac,1.7,True,68.4608,17.1429
NO166,Evjen,,Nordland,NO,68.2667,13.7333,ardac,1.2,True,68.2066,13.8744
NO167,Fauske,,Nordland,NO,67.2596,15.3941,ardac,2.7,True,67.5357,14.7913
NO168,Flakstad,,Nordland,NO,68.0929,13.2331,ardac,0.3,True,68.0332,13.3744
NO169,Gildeskål,,Nordland,NO,67.0339,14.0258,ardac,0.4,True,67.1308,14.1856
NO170,Gladstad,,Nordland,NO,65.6768,11.9622,ardac,1.3,True,65.6183,12.0936
NO171,Glomfjord,,Nordland,NO,66.8166,13.944,ardac,1.8,True,67.0706,14.1279
NO172,Grane,,Nordland,NO,65.5387,13.385,ardac,29.5,True,65.8073,12.8003
NO173,Gravdal,,Nordland,NO,68.1183,13.5534,ardac,0.3,True,68.0584,13.6941
NO174,Hadsel,,Nordland,NO,68.5633,14.9084,ardac,1.0,True,68.5023,15.0482
NO175,Hamarøy,,Nordland,NO,68.0838,15.6167,ardac,0.4,True,68.1792,15.7902
NO176,Hattfjelldal,,Nordland,NO,65.5977,13.9895,ardac,47.3,True,65.8821,12.6536
NO177,Hauknes,,Nordland,NO,66.2833,14.0667,ardac,0.8,True,66.2477,13.047
NO178,Hemnes,,Nordland,NO,66.0771,13.8135,ardac,7.7,True,66.3474,13.2213
NO179,Hemnesberget,,Nordland,NO,66.2249,13.6164,ardac,1.2,True,66.3302,13.385
NO180,Herøy,,Nordland,NO,65.9843,12.2892,ardac,3.4,True,65.9255,12.4214
NO181,Inndyr,,Nordland,NO,67.0335,14.0266,ardac,0.4,True,67.1304,14.1864
NO182,Kabelvåg,,Nordland,NO,68.2107,14.4755,ardac,1.8,True,68.1501,14.6144
NO183,Kjøpsvik,,Nordland,NO,68.097,16.3742,ardac,2.0,True,68.035,16.5075
NO184,Korgen,,Nordland,NO,66.0766,13.8216,ardac,7.8,True,66.3469,13.2295
NO185,Leirfjord,,Nordland,NO,66.0635,12.9367,ardac,0.5,True,66.0107,12.6878
NO186,Leknes,,Nordland,NO,68.1475,13.6115,ardac,1.6,True,68.0875,13.7522
NO187,Leland,,Nordland,NO,66.0641,12.9433,ardac,0.8,True,66.0113,12.6944
NO188,Løding,,Nordland,NO,67.3006,14.7385,ardac,3.2,True,67.2505,14.4734
NO189,Lødingen,,Nordland,NO,68.41,15.9901,ardac,2.1,True,68.3482,16.1262
NO190,Løpsmarka,,Nordland,NO,67.3134,14.4493,ardac,1.9,True,67.2529,14.5833
NO191,Lurøy,,Nordland,NO,66.4189,12.8425,ardac,0.6,True,66.3597,12.9756
NO192,Melbu,,Nordland,NO,68.5025,14.7996,ardac,1.7,True,68.4416,14.9393
NO193,Meløy,,Nordland,NO,66.872,13.7076,ardac,1.5,True,66.8203,13.4492
NO194,Mo i Rana,,Nordland,NO,66.3128,14.1428,ardac,0.5,True,66.2777,13.1218
NO195,Mosjøen,,Nordland,NO,65.836,13.1908,ardac,2.3,True,65.7836,12.9436
NO196,Moskenes,,Nordland,NO,67.9347,13.0911,ardac,0.9,True,67.8752,13.2318
NO197,Myre,,Nordland,NO,68.914,15.0784,ardac,0.5,True,68.8529,15.2198
NO198,Narvik,,Nordland,NO,68.439,17.4278,ardac,1.9,True,68.393,17.1441
NO199,Nesna,,Nordland,NO,66.198,13.0223,ardac,0.4,True,66.2957,13.173
NO200,Øksnes,,Nordland,NO,68.9146,15.087,ardac,0.9,True,68.8535,15.2284
NO201,Ørnes,,Nordland,NO,66.8688,13.7058,ardac,1.2,True,66.8171,13.4474
NO202,Rana,,Nordland,NO,66.3112,14.14,ardac,0.6,True,66.2761,13.1191
NO203,Reine,,Nordland,NO,67.9325,13.0896,ardac,1.1,True,67.873,13.2303
NO204,Rognan,,Nordland,NO,67.1002,15.3909,ardac,0.7,True,67.2296,14.3635
NO205,Rødøy,,Nordland,NO,66.712,13.2853,ardac,1.4,True,66.6524,13.4189
NO206,Røst,,Nordland,NO,67.5173,12.1156,ardac,43.2,True,67.4586,12.2563
NO207,Saltdal,,Nordland,NO,67.1014,15.3946,ardac,0.9,True,67.2308,14.3671
NO208,Sandnessjøen,,Nordland,NO,66.0217,12.6316,ardac,0.2,True,65.9627,12.7632
NO209,Sortland,,Nordland,NO,68.6962,15.4117,ardac,0.6,True,68.7919,15.5891
NO210,Sømna,,Nordland,NO,65.3138,12.1673,ardac,1.8,True,65.2599,11.9269
NO211,Sørfold,,Nordland,NO,67.348,15.5945,ardac,1.1,True,67.6129,15.396
NO212,Sørland,,Nordland,NO,67.6656,12.6978,ardac,16.4,True,67.6064,12.838
NO213,Steigen,,Nordland,NO,67.7763,15.0162,ardac,0.2,True,67.7153,15.1512
NO214,Stokmarknes,,Nordland,NO,68.5646,14.9108,ardac,1.0,True,68.5036,15.0506
NO215,Straume,,Nordland,NO,68.6888,14.4721,ardac,2.4,True,68.6281,14.6138
NO216,Straumen,,Nordland,NO,67.3477,15.6049,ardac,0.7,True,67.4675,14.9702
NO217,Svolvær,,Nordland,NO,68.2342,14.5683,ardac,1.6,True,68.1735,14.7071
NO218,Terråk,,Nordland,NO,65.087,12.3715,ardac,0.4,True,65.0334,12.1327
NO219,Tjeldsund,,Nordland,NO,68.5556,16.3617,ardac,0.8,True,68.5079,16.0788
NO220,Træna,,Nordland,NO,66.5016,12.0965,ardac,33.1,True,66.4429,12.2317
NO221,Trofors,,Nordland,NO,65.5334,13.4063,ardac,30.3,True,65.8021,12.8219
NO222,Tysfjord,,Nordland,NO,68.0977,16.3759,ardac,2.1,True,68.0357,16.5092
NO223,Vågan,,Nordland,NO,68.2322,14.5623,ardac,1.4,True,68.1715,14.7011
NO224,Værøy,,Nordland,NO,67.6637,12.6934,ardac,16.6,True,67.6045,12.8336
NO225,Vefsn,,Nordland,NO,65.8411,13.2002,ardac,2.0,True,65.795,12.576
NO226,Vega,,Nordland,NO,65.6754,11.9646,ardac,1.1,True,65.6169,12.096
NO227,Vestvågøy,,Nordland,NO,68.1483,13.6112,ardac,1.6,True,68.0883,13.7519
NO228,Vevelstad,,Nordland,NO,65.7,12.4392,ardac,0.4,True,65.7982,12.5849
NO229,Vik,,Nordland,NO,65.3125,12.1673,ardac,1.9,True,65.2586,11.9269
NO230,Oslo,,Oslo,NO,59.9127,10.7461,ardac,2.0,True,59.3874,10.5398
NO231,Sjølyststranda,,Oslo,NO,59.9211,10.6802,ardac,1.1,True,59.3957,10.4749
NO232,Åkrehamn,,Rogaland,NO,59.2605,5.1869,ardac,0.9,True,59.2078,5.3044
NO233,Bjerkreim,,Rogaland,NO,58.6305,6.0813,ardac,18.6,True,58.403,5.6186
NO234,Bokn,,Rogaland,NO,59.2306,5.4352,ardac,0.2,True,59.1676,5.2493
NO235,Bryne,,Rogaland,NO,58.7354,5.6477,ardac,7.9,True,58.6624,5.1653
NO236,Egersund,,Rogaland,NO,58.4513,5.9997,ardac,1.9,True,58.2418,6.1301
NO237,Eigersund,,Rogaland,NO,58.4524,6.0031,ardac,2.2,True,58.2428,6.1335
NO238,Eike,,Rogaland,NO,59.3983,5.3639,ardac,0.4,True,59.3352,5.1772
NO239,Finnøy,,Rogaland,NO,59.1712,5.874,ardac,7.0,True,59.2741,5.9722
NO240,Forsand,,Rogaland,NO,58.8993,6.0964,ardac,2.3,True,59.1495,5.8745
NO241,Gjesdal,,Rogaland,NO,58.7648,5.855,ardac,13.9,True,58.6925,5.3718
NO242,Hå,,Rogaland,NO,58.6161,5.645,ardac,3.1,True,58.5534,5.4619
NO243,Hauge i Dalane,,Rogaland,NO,58.3436,6.2812,ardac,3.4,True,58.29,6.394
NO244,Haugesund,,Rogaland,NO,59.4102,5.2755,ardac,3.0,True,59.347,5.0889
NO245,Hjelmeland,,Rogaland,NO,59.2367,6.1791,ardac,2.8,True,59.3394,6.2783
NO246,Hommersåk,,Rogaland,NO,58.9256,5.851,ardac,2.2,True,59.0193,5.6466
NO247,Jørpeland,,Rogaland,NO,59.0225,6.0408,ardac,1.2,True,59.2726,5.8177
NO248,Judaberg,,Rogaland,NO,59.172,5.8762,ardac,7.0,True,59.2749,5.9744
NO249,Karmøy,,Rogaland,NO,59.2808,5.3053,ardac,0.6,True,59.2176,5.1193
NO250,Klepp,,Rogaland,NO,58.7766,5.6301,ardac,6.0,True,58.7139,5.4462
NO251,Kopervik,,Rogaland,NO,59.2835,5.3067,ardac,0.7,True,59.2203,5.1207
NO252,Kvitsøy,,Rogaland,NO,59.0647,5.4054,ardac,8.8,True,59.0118,5.5219
NO253,Lund,,Rogaland,NO,58.4572,6.5487,ardac,15.9,True,58.2471,6.6759
NO254,Lyefjell,,Rogaland,NO,58.7354,5.7362,ardac,12.9,True,58.6627,5.2536
NO255,Moi,,Rogaland,NO,58.4567,6.5518,ardac,15.8,True,58.2466,6.679
NO256,Nærbø,,Rogaland,NO,58.6655,5.6379,ardac,5.2,True,58.6028,5.4545
NO257,Ølen,,Rogaland,NO,59.6044,5.808,ardac,2.8,True,59.5512,5.9258
NO258,Randaberg,,Rogaland,NO,58.9987,5.6206,ardac,2.6,True,59.092,5.4152
NO259,Rennesøy,,Rogaland,NO,59.099,5.6997,ardac,1.9,True,59.202,5.7971
NO260,Sandnes,,Rogaland,NO,58.8476,5.7286,ardac,2.3,True,58.7749,5.2445
NO261,Sauda,,Rogaland,NO,59.6507,6.3531,ardac,2.4,True,59.4327,6.1807
NO262,Sæveland,,Rogaland,NO,59.2667,5.2,ardac,1.6,True,59.214,5.3175
NO263,Skudeneshavn,,Rogaland,NO,59.1486,5.2569,ardac,0.5,True,59.0958,5.3739
NO264,Sokndal,,Rogaland,NO,58.3426,6.2943,ardac,3.4,True,58.289,6.4071
NO265,Sola,,Rogaland,NO,58.8881,5.6473,ardac,2.7,True,58.9815,5.4426
NO266,Stavanger,,Rogaland,NO,58.9694,5.7286,ardac,1.1,True,59.0629,5.5237
NO267,Strand,,Rogaland,NO,59.0235,6.0434,ardac,1.4,True,59.108,5.5365
NO268,Suldal,,Rogaland,NO,59.4857,6.2522,ardac,2.0,True,59.4238,6.0635
NO269,Tananger,,Rogaland,NO,58.9362,5.5741,ardac,0.8,True,58.8734,5.3895
NO270,Tau,,Rogaland,NO,59.0648,5.9225,ardac,2.7,True,59.1586,5.7175
NO271,Time,,Rogaland,NO,58.7364,5.653,ardac,8.2,True,58.6634,5.1706
NO272,Tysvær,,Rogaland,NO,59.4216,5.4478,ardac,2.0,True,59.5248,5.5454
NO273,Utsira,,Rogaland,NO,59.3057,4.8862,ardac,16.3,True,59.2533,5.0043
NO274,Varhaug,,Rogaland,NO,58.6181,5.657,ardac,3.7,True,58.3993,5.4935
NO275,Vedavågen,,Rogaland,NO,59.2948,5.2187,ardac,1.2,True,59.2421,5.3363
NO276,Vigrestad,,Rogaland,NO,58.571,5.6818,ardac,1.9,True,58.5083,5.4988
NO277,Vikeså,,Rogaland,NO,58.6376,6.0913,ardac,19.5,True,58.4101,5.6285
NO278,Vikevåg,,Rogaland,NO,59.0975,5.6979,ardac,1.8,True,59.0348,5.5122
NO279,Vindafjord,,Rogaland,NO,59.6054,5.8078,ardac,2.7,True,59.5522,5.9256
NO280,Vormedal,,Rogaland,NO,59.3561,5.3196,ardac,0.7,True,59.2929,5.1332
NO281,Alta,,Troms og Finnmark,NO,69.9768,23.2963,ardac,1.5,True,70.0642,23.5185
NO282,Ávanuorri,,Troms og Finnmark,NO,70.9963,24.6622,ardac,2.1,True,70.9284,24.7874
NO283,Balsfjord,,Troms og Finnmark,NO,69.2402,19.2265,ardac,0.9,True,69.3923,18.1249
NO284,Bardu,,Troms og Finnmark,NO,68.8606,18.3505,ardac,20.4,True,68.8509,17.2116
NO285,Båtsfjord,,Troms og Finnmark,NO,70.6343,29.7175,ardac,0.8,True,70.5637,29.824
NO286,Berg,,Troms og Finnmark,NO,69.4444,17.2995,ardac,1.2,True,69.5383,17.4912
NO287,Berlevåg,,Troms og Finnmark,NO,70.8578,29.0864,ardac,0.9,True,70.7875,29.1961
NO288,Bjørnevatn,,Troms og Finnmark,NO,69.6675,29.9872,ardac,3.0,True,69.8962,30.3777
NO289,Borkenes,,Troms og Finnmark,NO,68.7726,16.1712,ardac,0.3,True,68.8676,16.3524
NO290,Dyrøy,,Troms og Finnmark,NO,69.0915,17.6909,ardac,0.5,True,69.0458,17.3984
NO291,Evenskjer,,Troms og Finnmark,NO,68.5828,16.572,ardac,0.6,True,68.6773,16.7533
NO292,Finnsnes,,Troms og Finnmark,NO,69.2296,17.9811,ardac,0.7,True,69.3228,18.1738
NO293,Gamvik,,Troms og Finnmark,NO,71.0411,27.8514,ardac,0.2,True,71.123,28.1052
NO294,Gratangen,,Troms og Finnmark,NO,68.6927,17.5319,ardac,1.6,True,68.8034,17.2946
NO295,Gryllefjord,,Troms og Finnmark,NO,69.363,17.0528,ardac,0.2,True,69.3004,17.1916
NO296,Hammerfest,,Troms og Finnmark,NO,70.6626,23.683,ardac,0.4,True,70.7496,23.9146
NO297,Hansnes,,Troms og Finnmark,NO,69.967,19.6275,ardac,0.8,True,70.0585,19.8341
NO298,Harstad,,Troms og Finnmark,NO,68.799,16.5293,ardac,1.1,True,68.8936,16.7122
NO299,Hasvik,,Troms og Finnmark,NO,70.5916,22.3027,ardac,1.1,True,70.5253,22.4332
NO300,Honningsvåg,,Troms og Finnmark,NO,70.9821,25.9704,ardac,0.5,True,70.9135,26.0912
NO301,Ibestad,,Troms og Finnmark,NO,68.7787,17.1766,ardac,1.6,True,68.716,17.3116
NO302,Kåfjord,,Troms og Finnmark,NO,69.604,20.5346,ardac,0.7,True,69.7186,20.3031
NO303,Kárášjohka,,Troms og Finnmark,NO,69.4719,25.5112,ardac,68.6,True,70.4731,26.4402
NO304,Karasjok,,Troms og Finnmark,NO,69.4722,25.5189,ardac,68.6,True,70.4733,26.4483
NO305,Karlsøy,,Troms og Finnmark,NO,69.9619,19.6181,ardac,1.4,True,70.0534,19.8247
NO306,Kautokeino,,Troms og Finnmark,NO,69.0115,23.0415,ardac,89.5,True,70.0855,22.9477
NO307,Kirkenes,,Troms og Finnmark,NO,69.7271,30.0458,ardac,0.8,True,69.8061,30.2916
NO308,Kjøllefjord,,Troms og Finnmark,NO,70.9457,27.3465,ardac,0.4,True,70.8763,27.4625
NO309,Kvalsund,,Troms og Finnmark,NO,70.4991,23.9739,ardac,2.4,True,70.5857,24.2048
NO310,Kvæfjord,,Troms og Finnmark,NO,68.772,16.1729,ardac,0.2,True,68.724,15.8877
NO311,Kvænangen,,Troms og Finnmark,NO,69.9389,22.0494,ardac,0.1,True,69.9991,22.7083
NO312,Lakselv,,Troms og Finnmark,NO,70.0513,24.9718,ardac,1.9,True,70.5118,24.5314
NO313,Lavangen,,Troms og Finnmark,NO,68.7472,17.8056,ardac,0.9,True,68.7017,17.5173
NO314,Lebesby,,Troms og Finnmark,NO,70.9454,27.3513,ardac,0.4,True,70.876,27.4673
NO315,Lenvik,,Troms og Finnmark,NO,69.2311,17.9874,ardac,0.5,True,69.3243,18.1801
NO316,Loppa,,Troms og Finnmark,NO,70.2395,22.3514,ardac,1.2,True,70.328,22.5725
NO317,Lyngen,,Troms og Finnmark,NO,69.5762,20.217,ardac,2.9,True,69.667,20.4223
NO318,Lyngseidet,,Troms og Finnmark,NO,69.5763,20.2189,ardac,2.8,True,69.6671,20.4242
NO319,Målselv,,Troms og Finnmark,NO,69.1239,18.615,ardac,13.2,True,69.2547,17.9472
NO320,Måsøy,,Troms og Finnmark,NO,70.9965,24.6615,ardac,2.1,True,70.9286,24.7867
NO321,Mehamn,,Troms og Finnmark,NO,71.0414,27.8513,ardac,0.2,True,71.1233,28.1051
NO322,Moen,,Troms og Finnmark,NO,69.1304,18.6123,ardac,12.4,True,69.2612,17.9443
NO323,Nesseby,,Troms og Finnmark,NO,69.8854,28.4337,ardac,24.6,True,69.8348,29.9634
NO324,Nordkapp,,Troms og Finnmark,NO,70.9781,25.9747,ardac,0.2,True,70.9095,26.0955
NO325,Nordreisa,,Troms og Finnmark,NO,69.7683,21.0257,ardac,2.2,True,69.8835,20.7951
NO326,Olderdalen,,Troms og Finnmark,NO,69.6041,20.5327,ardac,0.7,True,69.7187,20.3012
NO327,Øksfjord,,Troms og Finnmark,NO,70.2394,22.3507,ardac,1.2,True,70.3279,22.5718
NO328,Porsanger,,Troms og Finnmark,NO,70.0521,24.9559,ardac,2.3,True,70.5126,24.5151
NO329,Rypefjord,,Troms og Finnmark,NO,70.6413,23.6721,ardac,0.6,True,70.7283,23.9034
NO330,Salangen,,Troms og Finnmark,NO,68.8767,17.8338,ardac,0.8,True,68.8313,17.5438
NO331,Setermoen,,Troms og Finnmark,NO,68.861,18.3486,ardac,20.3,True,68.8513,17.2097
NO332,Sjøvegan,,Troms og Finnmark,NO,68.8736,17.8471,ardac,0.2,True,68.8282,17.5571
NO333,Skånland,,Troms og Finnmark,NO,68.5838,16.5731,ardac,0.7,True,68.6783,16.7544
NO334,Skjervøy,,Troms og Finnmark,NO,70.0338,20.9737,ardac,0.3,True,69.9684,21.1051
NO335,Sør-Varanger,,Troms og Finnmark,NO,69.7286,30.0426,ardac,0.9,True,69.8076,30.2885
NO336,Sørreisa,,Troms og Finnmark,NO,69.147,18.1563,ardac,0.8,True,69.2586,17.9174
NO337,Storfjord,,Troms og Finnmark,NO,69.2686,19.9609,ardac,0.5,True,69.6712,20.308
NO338,Storslett,,Troms og Finnmark,NO,69.7678,21.0247,ardac,2.3,True,69.883,20.7941
NO339,Storsteinnes,,Troms og Finnmark,NO,69.2408,19.2344,ardac,0.6,True,69.393,18.1328
NO340,Tana,,Troms og Finnmark,NO,70.1998,28.1849,ardac,0.9,True,70.6464,29.7378
NO341,Torsken,,Troms og Finnmark,NO,69.3618,17.0538,ardac,0.3,True,69.2992,17.1926
NO342,Tranøy,,Troms og Finnmark,NO,69.1702,17.7348,ardac,1.2,True,69.1246,17.4412
NO343,Tromsø,,Troms og Finnmark,NO,69.6496,18.957,ardac,3.8,True,69.6059,18.6544
NO344,Vadsø,,Troms og Finnmark,NO,70.0741,29.7492,ardac,3.4,True,69.958,30.2826
NO345,Vardø,,Troms og Finnmark,NO,70.3704,31.1087,ardac,1.7,True,70.2991,31.2094
NO346,Å i Åfjord,,Trøndelag,NO,63.9607,10.2247,ardac,2.6,True,63.9037,9.6471
NO347,Åfjord,,Trøndelag,NO,63.962,10.2259,ardac,2.7,True,63.905,9.6483
NO348,Agdenes,,Trøndelag,NO,63.5058,9.8262,ardac,1.3,True,63.4486,9.6052
NO349,Berkåk,,Trøndelag,NO,62.825,10.0118,ardac,50.6,True,63.2361,9.1034
NO350,Bjugn,,Trøndelag,NO,63.7652,9.8094,ardac,1.6,True,63.708,9.5865
NO351,Botngård,,Trøndelag,NO,63.7648,9.8086,ardac,1.5,True,63.7076,9.5857
NO352,Brekstad,,Trøndelag,NO,63.687,9.6654,ardac,1.1,True,63.6304,9.7923
NO353,Fillan,,Trøndelag,NO,63.6064,8.9696,ardac,1.6,True,63.548,8.7495
NO354,Flatanger,,Trøndelag,NO,64.4128,11.0329,ardac,7.3,True,64.3587,10.4445
NO355,Fosnes,,Trøndelag,NO,64.6591,11.2654,ardac,2.4,True,64.6012,11.3935
NO356,Frosta,,Trøndelag,NO,63.5891,10.7423,ardac,1.6,True,63.534,9.8232
NO357,Frøya,,Trøndelag,NO,63.7301,8.8243,ardac,0.4,True,63.6742,8.953
NO358,Grong,,Trøndelag,NO,64.464,12.3111,ardac,29.6,True,64.5716,11.7288
NO359,Hemne,,Trøndelag,NO,63.291,9.0889,ardac,0.4,True,63.2349,9.2152
NO360,Hitra,,Trøndelag,NO,63.5453,8.7803,ardac,3.8,True,63.6463,8.9025
NO361,Holtålen,,Trøndelag,NO,62.8432,11.2928,ardac,68.5,True,63.5759,9.7092
NO362,Hommelvik,,Trøndelag,NO,63.4108,10.7942,ardac,0.8,True,63.5129,9.8799
NO363,Høylandet,,Trøndelag,NO,64.6276,12.3004,ardac,25.3,True,64.5782,11.7051
NO364,Inderøy,,Trøndelag,NO,63.8783,11.2842,ardac,1.3,True,64.2972,10.3607
NO365,Indre Fosen,,Trøndelag,NO,63.589,9.9585,ardac,2.8,True,63.532,9.7366
NO366,Klæbu,,Trøndelag,NO,63.3006,10.4819,ardac,10.3,True,63.5583,9.9158
NO367,Kolvereid,,Trøndelag,NO,64.8655,11.6047,ardac,0.4,True,64.8073,11.733
NO368,Kyrksæterøra,,Trøndelag,NO,63.2906,9.0891,ardac,0.4,True,63.2345,9.2154
NO369,Lauvsnes,,Trøndelag,NO,64.5006,10.894,ardac,1.4,True,64.6,11.0278
NO370,Leka,,Trøndelag,NO,65.0924,11.7051,ardac,1.2,True,65.0341,11.8342
NO371,Levanger,,Trøndelag,NO,63.7459,11.2999,ardac,3.6,True,64.3219,10.383
NO372,Lierne,,Trøndelag,NO,64.4641,13.5925,ardac,84.3,True,65.0591,12.3334
NO373,Lundamo,,Trøndelag,NO,63.1522,10.2856,ardac,12.8,True,63.5661,9.7192
NO374,Malm,,Trøndelag,NO,64.0753,11.224,ardac,0.4,True,64.3359,10.6493
NO375,Malvik,,Trøndelag,NO,63.4106,10.7938,ardac,0.8,True,63.5127,9.8795
NO376,Meldal,,Trøndelag,NO,63.046,9.7109,ardac,31.9,True,63.144,9.1475
NO377,Melhus,,Trøndelag,NO,63.2876,10.2769,ardac,0.7,True,63.5446,9.7093
NO378,Meråker,,Trøndelag,NO,63.4142,11.7456,ardac,42.0,True,63.524,9.7913
NO379,Midtre Gauldal,,Trøndelag,NO,63.039,10.287,ardac,25.4,True,63.4528,9.7228
NO380,Namdalseid,,Trøndelag,NO,64.1084,10.9186,ardac,15.6,True,64.3679,10.3404
NO381,Namsos,,Trøndelag,NO,64.4784,11.5418,ardac,2.0,True,64.5773,11.6778
NO382,Namsskogan,,Trøndelag,NO,64.926,13.1593,ardac,33.7,True,65.0421,12.204
NO383,Nærøy,,Trøndelag,NO,64.863,11.6051,ardac,0.2,True,64.8048,11.7334
NO384,Oppdal,,Trøndelag,NO,62.595,9.6876,ardac,56.5,True,63.1633,9.1189
NO385,Orkdal,,Trøndelag,NO,63.2999,9.8437,ardac,2.9,True,63.5565,9.6202
NO386,Osen,,Trøndelag,NO,64.2988,10.5128,ardac,1.1,True,64.2415,10.6408
NO387,Overhalla,,Trøndelag,NO,64.4938,11.9475,ardac,13.9,True,64.5966,11.7242
NO388,Ørland,,Trøndelag,NO,63.6857,9.6663,ardac,1.2,True,63.6291,9.7932
NO389,Raarvihke - Røyrvik,,Trøndelag,NO,64.8838,13.5631,ardac,51.8,True,65.0077,12.2448
NO390,Ranemsletta,,Trøndelag,NO,64.4945,11.9491,ardac,13.9,True,64.5973,11.7258
NO391,Rennebu,,Trøndelag,NO,62.8286,10.0049,ardac,50.3,True,63.2397,9.0963
NO392,Rindal,,Trøndelag,NO,63.0551,9.2127,ardac,22.1,True,63.1539,8.9909
NO393,Roan,,Trøndelag,NO,64.1728,10.2251,ardac,2.1,True,64.1162,9.9982
NO394,Røros,,Trøndelag,NO,62.5756,11.3873,ardac,96.0,True,63.4661,9.8193
NO395,Rørvik,,Trøndelag,NO,64.8619,11.2397,ardac,0.6,True,64.804,11.3687
NO396,Røyrvik,,Trøndelag,NO,64.8839,13.5626,ardac,51.8,True,65.0078,12.2443
NO397,Selbu,,Trøndelag,NO,63.2177,11.0394,ardac,25.3,True,63.478,9.7854
NO398,Sistranda,,Trøndelag,NO,63.7252,8.8332,ardac,0.7,True,63.6693,8.9619
NO399,Skaun,,Trøndelag,NO,63.3239,10.0675,ardac,1.6,True,63.5808,9.8457
NO400,Skogn,,Trøndelag,NO,63.7037,11.1926,ardac,1.8,True,63.6515,9.9197
NO401,Snåase,,Trøndelag,NO,64.2457,12.3778,ardac,43.7,True,64.6711,11.4586
NO402,Snåase - Snåsa,,Trøndelag,NO,64.2461,12.3829,ardac,43.9,True,64.6715,11.4638
NO403,Snillfjord,,Trøndelag,NO,63.3997,9.5019,ardac,1.3,True,63.5002,9.6259
NO404,Steinkjer,,Trøndelag,NO,64.193,11.3851,ardac,8.5,True,64.6059,11.5362
NO405,Stjørdal,,Trøndelag,NO,63.567,11.0273,ardac,5.3,True,63.5134,9.7607
NO406,Stjørdalshalsen,,Trøndelag,NO,63.4681,10.9262,ardac,0.5,True,63.5706,9.6623
NO407,Straumen,,Trøndelag,NO,63.8716,11.2962,ardac,1.0,True,64.2906,10.3731
NO408,Trondheim,,Trøndelag,NO,63.4281,10.3969,ardac,1.7,True,63.5286,9.8285
NO409,Tydal,,Trøndelag,NO,63.0448,11.6504,ardac,59.0,True,63.4672,9.7171
NO410,Verdal,,Trøndelag,NO,63.9002,11.7272,ardac,16.0,True,64.3231,10.452
NO411,Verran,,Trøndelag,NO,64.071,11.218,ardac,0.4,True,64.3315,10.6433
NO412,Vikna,,Trøndelag,NO,64.8636,11.242,ardac,0.7,True,64.8057,11.371
NO413,Årøysund,,Vestfold og Telemark,NO,59.1832,10.4574,ardac,6.8,True,59.1262,10.5664
NO414,Åsgårdstrand,,Vestfold og Telemark,NO,59.3494,10.4695,ardac,1.4,True,59.2924,10.579
NO415,Bamble,,Vestfold og Telemark,NO,59.0015,9.7457,ardac,1.9,True,58.9444,9.5536
NO416,Barkåker,,Vestfold og Telemark,NO,59.3186,10.3896,ardac,4.5,True,59.4181,10.5013
NO417,Berger,,Vestfold og Telemark,NO,59.5499,10.3864,ardac,1.0,True,59.4929,10.4966
NO418,Bø,,Vestfold og Telemark,NO,59.4128,9.0662,ardac,42.2,True,59.0454,9.4879
NO419,Dalen,,Vestfold og Telemark,NO,59.445,8.0049,ardac,83.9,True,58.9317,9.3493
NO420,Drangedal,,Vestfold og Telemark,NO,59.0966,9.0596,ardac,27.6,True,59.0422,9.4729
NO421,Færder,,Vestfold og Telemark,NO,59.2279,10.4153,ardac,2.9,True,59.1709,10.5245
NO422,Fyresdal,,Vestfold og Telemark,NO,59.1865,8.0895,ardac,75.1,True,58.5093,8.5316
NO423,Gullhaug,,Vestfold og Telemark,NO,59.5013,10.2522,ardac,2.4,True,59.4444,10.3625
NO424,Gvarv,,Vestfold og Telemark,NO,59.3877,9.1724,ardac,36.3,True,59.02,9.5927
NO425,Herre,,Vestfold og Telemark,NO,59.1035,9.562,ardac,0.2,True,59.0461,9.3697
NO426,Hjartdal,,Vestfold og Telemark,NO,59.6128,8.9494,ardac,64.2,True,58.9327,9.3804
NO427,Holmestrand,,Vestfold og Telemark,NO,59.4898,10.3152,ardac,1.1,True,59.4329,10.4253
NO428,Horten,,Vestfold og Telemark,NO,59.4155,10.4853,ardac,0.5,True,59.3584,10.5949
NO429,Kragerø,,Vestfold og Telemark,NO,58.8679,9.411,ardac,1.0,True,58.8117,9.5207
NO430,Kviteseid,,Vestfold og Telemark,NO,59.4019,8.4946,ardac,67.4,True,59.0396,9.5269
NO431,Larvik,,Vestfold og Telemark,NO,59.0523,10.027,ardac,2.2,True,58.9956,10.1362
NO432,Lunde,,Vestfold og Telemark,NO,59.2983,9.1027,ardac,31.8,True,58.9308,9.5227
NO433,Melsomvik,,Vestfold og Telemark,NO,59.2239,10.3362,ardac,1.0,True,59.167,10.4455
NO434,Nissedal,,Vestfold og Telemark,NO,59.0196,8.5213,ardac,44.3,True,58.6559,9.2431
NO435,Nome,,Vestfold og Telemark,NO,59.2814,9.2568,ardac,24.1,True,58.9124,9.3736
NO436,Notodden,,Vestfold og Telemark,NO,59.5599,9.2605,ardac,51.3,True,59.5049,10.292
NO437,Porsgrunn,,Vestfold og Telemark,NO,59.1419,9.6568,ardac,1.9,True,58.9282,9.4665
NO438,Prestestranda,,Vestfold og Telemark,NO,59.0977,9.0587,ardac,27.7,True,59.0433,9.4721
NO439,Re,,Vestfold og Telemark,NO,59.3506,10.2476,ardac,10.9,True,59.4502,10.359
NO440,Rjukan,,Vestfold og Telemark,NO,59.8789,8.5941,ardac,93.3,True,59.0452,9.3421
NO441,Sande,,Vestfold og Telemark,NO,59.5936,10.2076,ardac,4.1,True,59.3803,10.3168
NO442,Sandefjord,,Vestfold og Telemark,NO,59.1288,10.2197,ardac,1.6,True,59.072,10.3289
NO443,Sauherad,,Vestfold og Telemark,NO,59.3964,9.2491,ardac,34.9,True,59.0274,9.3664
NO444,Seljord,,Vestfold og Telemark,NO,59.4827,8.6267,ardac,65.8,True,58.9619,9.3598
NO445,Selvik,,Vestfold og Telemark,NO,59.5665,10.26,ardac,1.0,True,59.5096,10.3705
NO446,Sem,,Vestfold og Telemark,NO,59.2823,10.33,ardac,2.1,True,59.3819,10.4415
NO447,Siljan,,Vestfold og Telemark,NO,59.2825,9.7337,ardac,17.8,True,59.3819,10.4542
NO448,Skien,,Vestfold og Telemark,NO,59.2075,9.6105,ardac,8.5,True,58.9937,9.4201
NO449,Skoppum,,Vestfold og Telemark,NO,59.3861,10.4108,ardac,3.1,True,59.4856,10.5228
NO450,Stavern,,Vestfold og Telemark,NO,59.0,10.0333,ardac,0.7,True,58.9433,10.1424
NO451,Stokke,,Vestfold og Telemark,NO,59.2226,10.3006,ardac,2.1,True,59.1657,10.4099
NO452,Svelvik,,Vestfold og Telemark,NO,59.6068,10.4023,ardac,0.6,True,59.3933,10.5104
NO453,Tinn,,Vestfold og Telemark,NO,59.8349,9.1353,ardac,62.6,True,59.4671,10.4799
NO454,Tjøme,,Vestfold og Telemark,NO,59.1109,10.3933,ardac,4.9,True,59.0539,10.5021
NO455,Tokke,,Vestfold og Telemark,NO,59.4457,8.0139,ardac,84.4,True,58.9323,9.3582
NO456,Tønsberg,,Vestfold og Telemark,NO,59.2675,10.4076,ardac,0.6,True,59.2105,10.5169
NO457,Ulefoss,,Vestfold og Telemark,NO,59.2825,9.2655,ardac,23.9,True,58.9135,9.3822
NO458,Vinje,,Vestfold og Telemark,NO,59.5692,7.989,ardac,81.9,True,59.056,9.3385
NO459,Ågotnes,,Vestland,NO,60.4031,5.0193,ardac,1.0,True,60.3505,5.1412
NO460,Årdal,,Vestland,NO,61.2364,7.702,ardac,0.6,True,61.4326,5.2032
NO461,Årdalstangen,,Vestland,NO,61.2358,7.7037,ardac,0.6,True,61.432,5.205
NO462,Askøy,,Vestland,NO,60.4092,5.226,ardac,2.1,True,60.3458,5.034
NO463,Askvoll,,Vestland,NO,61.3485,5.0532,ardac,1.8,True,61.2848,4.8561
NO464,Aurland,,Vestland,NO,60.9056,7.1873,ardac,1.9,True,60.1876,5.7953
NO465,Austevoll,,Vestland,NO,60.0958,5.2272,ardac,1.0,True,60.0431,5.3476
NO466,Austrheim,,Vestland,NO,60.7774,4.9323,ardac,2.3,True,60.7249,5.0557
NO467,Balestrand,,Vestland,NO,61.2081,6.5355,ardac,0.4,True,61.4314,5.3274
NO468,Bergen,,Vestland,NO,60.392,5.328,ardac,1.7,True,60.3288,5.1359
NO469,Bømlo,,Vestland,NO,59.7938,5.1762,ardac,3.2,True,59.7411,5.2956
NO470,Bremanger,,Vestland,NO,61.7686,5.2891,ardac,5.2,True,61.7052,5.0889
NO471,Dale,,Vestland,NO,60.5864,5.8189,ardac,6.2,True,60.2114,5.6657
NO472,Eid,,Vestland,NO,61.9068,5.9932,ardac,1.7,True,62.1473,5.4167
NO473,Eidfjord,,Vestland,NO,60.4674,7.0697,ardac,1.4,True,60.0702,5.969
NO474,Eikelandsosen,,Vestland,NO,60.2418,5.7443,ardac,2.0,True,60.1886,5.8644
NO475,Eivindvik,,Vestland,NO,60.9813,5.075,ardac,1.1,True,60.9177,4.88
NO476,Espeland,,Vestland,NO,60.3825,5.4657,ardac,5.5,True,60.1733,5.6073
NO477,Etne,,Vestland,NO,59.6647,5.9344,ardac,3.3,True,59.6023,5.7453
NO478,Farnes,,Vestland,NO,61.3085,7.7969,ardac,10.1,True,62.3247,6.5077
NO479,Fedje,,Vestland,NO,60.7787,4.7197,ardac,11.6,True,60.7264,4.8435
NO480,Fitjar,,Vestland,NO,59.9174,5.3164,ardac,2.8,True,59.8646,5.436
NO481,Fjaler,,Vestland,NO,61.3638,5.3981,ardac,2.3,True,61.4568,5.1767
NO482,Fjell,,Vestland,NO,60.3627,5.1219,ardac,1.5,True,60.2992,4.9304
NO483,Flora,,Vestland,NO,61.5999,5.0314,ardac,4.0,True,61.5362,4.8328
NO484,Florø,,Vestland,NO,61.5996,5.0328,ardac,4.0,True,61.5359,4.8342
NO485,Førde,,Vestland,NO,61.4505,5.854,ardac,2.7,True,61.3779,5.331
NO486,Frekhaug,,Vestland,NO,60.5132,5.2425,ardac,2.3,True,60.4499,5.0499
NO487,Fusa,,Vestland,NO,60.2407,5.7446,ardac,2.0,True,60.1875,5.8647
NO488,Gaular,,Vestland,NO,61.3256,5.7952,ardac,9.6,True,61.4091,5.2513
NO489,Gaupne,,Vestland,NO,61.4047,7.2946,ardac,1.2,True,61.4487,5.13
NO490,Gloppen,,Vestland,NO,61.7773,6.2156,ardac,2.2,True,61.6854,5.0328
NO491,Granvin,,Vestland,NO,60.5263,6.7218,ardac,1.7,True,59.9794,5.9538
NO492,Gulen,,Vestland,NO,60.9819,5.0741,ardac,1.2,True,60.9183,4.8791
NO493,Hagavik,,Vestland,NO,60.1808,5.4015,ardac,2.0,True,60.1279,5.522
NO494,Hardbakke,,Vestland,NO,61.0756,4.8411,ardac,0.9,True,61.0232,4.9658
NO495,Hermansverk,,Vestland,NO,61.1846,6.8502,ardac,2.2,True,61.4005,5.3213
NO496,Hornindal,,Vestland,NO,61.9693,6.5225,ardac,10.2,True,62.377,6.2625
NO497,Høyanger,,Vestland,NO,61.2188,6.0731,ardac,2.5,True,61.4493,5.1855
NO498,Hylkje,,Vestland,NO,60.5103,5.3544,ardac,1.1,True,60.4471,5.1616
NO499,Hyllestad,,Vestland,NO,61.1704,5.2961,ardac,2.9,True,61.1071,5.0996
NO500,Indre Arna,,Vestland,NO,60.4177,5.4709,ardac,2.0,True,60.2085,5.6127
NO501,Jondal,,Vestland,NO,60.2762,6.2526,ardac,2.4,True,60.058,6.0778
NO502,Jølster,,Vestland,NO,61.5692,6.4835,ardac,21.8,True,61.4795,5.3076
NO503,Kinsarvik,,Vestland,NO,60.3757,6.7195,ardac,2.8,True,59.9851,5.9362
NO504,Knappskog,,Vestland,NO,60.3791,5.056,ardac,3.6,True,60.3265,5.1777
NO505,Knarvik,,Vestland,NO,60.5453,5.2821,ardac,1.6,True,60.482,5.0893
NO506,Kvam,,Vestland,NO,60.3698,6.1434,ardac,0.7,True,60.1422,5.657
NO507,Kvinnherad,,Vestland,NO,59.9842,6.0123,ardac,1.7,True,60.0871,6.1131
NO508,Lærdal,,Vestland,NO,61.0984,7.481,ardac,2.5,True,61.4579,5.2915
NO509,Lærdalsøyri,,Vestland,NO,61.1,7.4737,ardac,2.1,True,61.4594,5.284
NO510,Leikanger,,Vestland,NO,61.1856,6.822,ardac,0.8,True,61.4012,5.2928
NO511,Leirvik,,Vestland,NO,59.7798,5.5005,ardac,1.4,True,59.7268,5.6194
NO512,Lindås,,Vestland,NO,60.5491,5.2856,ardac,1.3,True,60.4858,5.0927
NO513,Lonevåg,,Vestland,NO,60.5256,5.4956,ardac,5.9,True,60.4519,4.9879
NO514,Luster,,Vestland,NO,61.4031,7.2979,ardac,1.2,True,61.4472,5.1334
NO515,Måløy,,Vestland,NO,61.9354,5.1136,ardac,0.2,True,61.8827,5.2413
NO516,Manger,,Vestland,NO,60.6415,5.0414,ardac,3.2,True,60.5889,5.1641
NO517,Masfjorden,,Vestland,NO,60.7995,5.3004,ardac,0.9,True,60.7362,5.1061
NO518,Meland,,Vestland,NO,60.5178,5.2406,ardac,2.2,True,60.4545,5.048
NO519,Modalen,,Vestland,NO,60.8174,5.8079,ardac,9.5,True,60.734,4.9779
NO520,Mosterhamn,,Vestland,NO,59.6992,5.3859,ardac,1.8,True,59.6463,5.5046
NO521,Naustdal,,Vestland,NO,61.5103,5.7172,ardac,1.3,True,61.4372,5.1936
NO522,Nordfjordeid,,Vestland,NO,61.9122,5.9856,ardac,1.3,True,62.1527,5.4089
NO523,Norheimsund,,Vestland,NO,60.3709,6.1456,ardac,0.7,True,60.1433,5.6592
NO524,Odda,,Vestland,NO,60.067,6.5454,ardac,1.9,True,59.9971,6.0424
NO525,Os,,Vestland,NO,60.1855,5.4696,ardac,0.3,True,60.1326,5.59
NO526,Osterøy,,Vestland,NO,60.5239,5.5055,ardac,6.3,True,60.4502,4.9978
NO527,Øygarden,,Vestland,NO,60.5904,4.8389,ardac,0.3,True,60.538,4.9618
NO528,Øystese,,Vestland,NO,60.3883,6.1925,ardac,0.5,True,60.1608,5.7055
NO529,Radøy,,Vestland,NO,60.6419,5.0411,ardac,3.2,True,60.5893,5.1638
NO530,Rosendal,,Vestland,NO,59.9859,6.0116,ardac,1.7,True,60.0888,6.1124
NO531,Rubbestadneset,,Vestland,NO,59.8156,5.2682,ardac,1.5,True,59.7628,5.3875
NO532,Sagvåg,,Vestland,NO,59.7814,5.39,ardac,0.9,True,59.7285,5.509
NO533,Samnanger,,Vestland,NO,60.3775,5.7622,ardac,1.7,True,60.1587,5.59
NO534,Sandane,,Vestland,NO,61.7728,6.215,ardac,1.9,True,62.3451,6.266
NO535,Sande,,Vestland,NO,61.3251,5.7977,ardac,9.7,True,61.4086,5.2538
NO536,Sandsli,,Vestland,NO,60.3032,5.2855,ardac,3.7,True,60.2399,5.094
NO537,Selje,,Vestland,NO,62.0426,5.3445,ardac,0.7,True,62.1461,5.4495
NO538,Skogsvågen,,Vestland,NO,60.2551,5.1016,ardac,0.4,True,60.2025,5.2228
NO539,Sogndal,,Vestland,NO,61.2314,7.103,ardac,7.3,True,61.4398,5.2492
NO540,Solund,,Vestland,NO,61.0739,4.8388,ardac,0.9,True,61.0215,4.9635
NO541,Stord,,Vestland,NO,59.7809,5.4998,ardac,1.3,True,59.7279,5.6187
NO542,Storebø,,Vestland,NO,60.0949,5.2271,ardac,0.9,True,60.0422,5.3475
NO543,Straume,,Vestland,NO,60.3613,5.122,ardac,1.5,True,60.2978,4.9305
NO544,Stryn,,Vestland,NO,61.9041,6.724,ardac,2.4,True,62.3122,6.4673
NO545,Sund,,Vestland,NO,60.2702,5.0723,ardac,0.9,True,60.2176,5.1936
NO546,Sveio,,Vestland,NO,59.543,5.3541,ardac,3.4,True,59.4902,5.4723
NO547,Svelgen,,Vestland,NO,61.7698,5.2954,ardac,5.6,True,61.7064,5.0952
NO548,Syfteland,,Vestland,NO,60.238,5.4529,ardac,4.4,True,60.1851,5.5735
NO549,Tysnes,,Vestland,NO,60.0408,5.5313,ardac,2.3,True,59.9878,5.651
NO550,Ullensvang,,Vestland,NO,60.375,6.7207,ardac,2.9,True,59.9844,5.9374
NO551,Ulvik,,Vestland,NO,60.5672,6.9187,ardac,1.6,True,60.0214,6.1466
NO552,Vågsøy,,Vestland,NO,61.9354,5.114,ardac,0.2,True,61.8827,5.2417
NO553,Vaksdal,,Vestland,NO,60.5903,5.8227,ardac,6.3,True,60.2153,5.6694
NO554,Vik,,Vestland,NO,61.0886,6.5851,ardac,2.7,True,61.4686,5.3592
NO555,Voss,,Vestland,NO,60.6278,6.4183,ardac,17.9,True,60.2355,5.6327
NO556,Ytre Arna,,Vestland,NO,60.4618,5.4327,ardac,1.2,True,60.3879,4.9261
NO557,Ytrebygda,,Vestland,NO,60.305,5.2824,ardac,3.5,True,60.2417,5.0909
NO558,Ål,,Viken,NO,60.6303,8.5612,ardac,80.5,True,60.0601,6.2042
NO559,Åneby,,Viken,NO,60.0893,10.87,ardac,22.2,True,59.4088,10.3522
NO560,Aremark,,Viken,NO,59.222,11.6958,ardac,23.0,True,59.1729,10.8924
NO561,Årnes,,Viken,NO,60.1224,11.4701,ardac,47.8,True,59.2876,10.9357
NO562,Åros,,Viken,NO,59.7061,10.5109,ardac,0.6,True,59.4935,10.3122
NO563,Ås,,Viken,NO,59.6637,10.791,ardac,9.2,True,59.4525,10.2848
NO564,Ask,,Viken,NO,60.0713,11.0362,ardac,25.6,True,59.3914,10.5153
NO565,Asker,,Viken,NO,59.8373,10.436,ardac,2.2,True,59.4672,10.5421
NO566,Askim,,Viken,NO,59.5846,11.1608,ardac,28.6,True,59.2165,10.9545
NO567,Auli,,Viken,NO,60.0345,11.3605,ardac,37.7,True,59.5138,10.5311
NO568,Aurskog-Høland,,Viken,NO,59.8832,11.5649,ardac,45.4,True,59.3618,11.0412
NO569,Aursmoen,,Viken,NO,59.9276,11.4428,ardac,39.0,True,59.2493,10.9162
NO570,Bærum,,Viken,NO,59.89,10.5265,ardac,0.9,True,59.5209,10.3252
NO571,Billingstad,,Viken,NO,59.8755,10.4823,ardac,1.5,True,59.5064,10.2815
NO572,Bjørkelangen,,Viken,NO,59.8836,11.564,ardac,45.4,True,59.3622,11.0403
NO573,Blakstad,,Viken,NO,59.8191,10.4645,ardac,1.4,True,59.4499,10.2643
NO574,Drammen,,Viken,NO,59.7439,10.2045,ardac,2.0,True,59.374,10.3128
NO575,Drøbak,,Viken,NO,59.6633,10.6298,ardac,0.7,True,59.4509,10.4306
NO576,Eidsberg,,Viken,NO,59.5515,11.3359,ardac,37.5,True,59.3401,11.1331
NO577,Eidsvoll,,Viken,NO,60.3289,11.2612,ardac,56.3,True,59.4945,10.4222
NO578,Enebakk,,Viken,NO,59.7645,11.1449,ardac,23.1,True,59.2399,10.9335
NO579,Fagerstrand,,Viken,NO,59.7375,10.594,ardac,2.1,True,59.525,10.3946
NO580,Fet,,Viken,NO,59.9222,11.1678,ardac,23.6,True,59.4004,10.344
NO581,Fetsund,,Viken,NO,59.9246,11.1571,ardac,23.0,True,59.4028,10.3334
NO582,Fjellfoten,,Viken,NO,60.0897,11.4722,ardac,46.0,True,59.2549,10.9382
NO583,Flå,,Viken,NO,60.4291,9.4661,ardac,84.8,True,59.4333,10.5098
NO584,Flateby,,Viken,NO,59.8295,11.1535,ardac,22.3,True,59.3049,10.9416
NO585,Flesberg,,Viken,NO,59.8328,9.5831,ardac,38.1,True,59.4634,10.3106
NO586,Fossby,,Viken,NO,59.2222,11.6993,ardac,23.2,True,59.1731,10.8959
NO587,Fredrikstad,,Viken,NO,59.2176,10.9379,ardac,3.1,True,59.1602,11.0462
NO588,Frogn,,Viken,NO,59.6667,10.6357,ardac,1.1,True,59.4543,10.4365
NO589,Frogner,,Viken,NO,60.0246,11.1028,ardac,24.7,True,59.5024,10.2775
NO590,Geilo,,Viken,NO,60.5337,8.2054,ardac,60.6,True,59.9666,6.1714
NO591,Gjerdrum,,Viken,NO,60.0716,11.036,ardac,25.7,True,59.3917,10.5151
NO592,Gol,,Viken,NO,60.6995,8.9502,ardac,90.1,True,59.3939,10.3226
NO593,Halden,,Viken,NO,59.1226,11.3871,ardac,2.6,True,59.0701,10.8891
NO594,Hemsedal,,Viken,NO,60.8611,8.5654,ardac,62.5,True,59.9695,5.9171
NO595,Hobøl,,Viken,NO,59.6225,10.9498,ardac,16.9,True,59.4119,10.4433
NO596,Hol,,Viken,NO,60.6153,8.3019,ardac,66.9,True,60.0409,5.9505
NO597,Hole,,Viken,NO,60.0802,10.2784,ardac,26.1,True,59.3972,10.3834
NO598,Hønefoss,,Viken,NO,60.168,10.2565,ardac,35.2,True,59.485,10.3622
NO599,Hurdal,,Viken,NO,60.4352,11.0671,ardac,61.8,True,59.4423,10.5351
NO600,Hurum,,Viken,NO,59.614,10.4576,ardac,1.9,True,59.4014,10.2598
NO601,Hvaler,,Viken,NO,59.0281,11.0311,ardac,0.8,True,58.9706,11.1386
NO602,Hvittingfoss,,Viken,NO,59.4857,10.0117,ardac,14.8,True,59.4284,10.4281
NO603,Jessheim,,Viken,NO,60.1415,11.1752,ardac,36.6,True,59.4632,10.3444
NO604,Karlshus,,Viken,NO,59.352,10.8723,ardac,6.9,True,59.2946,10.9811
NO605,Kløfta,,Viken,NO,60.0741,11.1381,ardac,29.8,True,59.3956,10.3097
NO606,Knappstad,,Viken,NO,59.6242,11.0327,ardac,21.5,True,59.4139,10.5256
NO607,Kongsberg,,Viken,NO,59.6652,9.6465,ardac,33.3,True,59.452,10.3714
NO608,Krødsherad,,Viken,NO,60.1794,9.6212,ardac,60.0,True,59.4967,10.3524
NO609,Larkollen,,Viken,NO,59.332,10.6669,ardac,0.5,True,59.2748,10.776
NO610,Leirsund,,Viken,NO,59.9968,11.0875,ardac,22.3,True,59.4745,10.2631
NO611,Lervik,,Viken,NO,59.2712,10.7461,ardac,0.4,True,59.2139,10.8549
NO612,Lier,,Viken,NO,59.7866,10.2459,ardac,5.3,True,59.4167,10.3539
NO613,Lillestrøm,,Viken,NO,59.956,11.0492,ardac,18.2,True,59.4327,10.5322
NO614,Lørenskog,,Viken,NO,59.9321,10.9608,ardac,12.6,True,59.4085,10.4455
NO615,Lysaker,,Viken,NO,59.9099,10.6355,ardac,1.7,True,59.3845,10.4309
NO616,Marker,,Viken,NO,59.4795,11.6592,ardac,41.8,True,59.2715,11.1505
NO617,Maura,,Viken,NO,60.2583,11.0319,ardac,43.0,True,59.4218,10.506
NO618,Modum,,Viken,NO,59.9735,10.0047,ardac,29.2,True,59.4466,10.4213
NO619,Moss,,Viken,NO,59.4344,10.6597,ardac,0.4,True,59.3786,10.4638
NO620,Mysen,,Viken,NO,59.5535,11.3258,ardac,37.0,True,59.3421,11.123
NO621,Nannestad,,Viken,NO,60.2171,11.012,ardac,38.4,True,59.3806,10.4872
NO622,Nedre Eiker,,Viken,NO,59.7502,10.0074,ardac,12.6,True,59.3799,10.4232
NO623,Nes,,Viken,NO,60.1225,11.4657,ardac,47.6,True,59.2877,10.9314
NO624,Nesbyen,,Viken,NO,60.5681,9.1027,ardac,106.0,False,59.4177,10.4662
NO625,Neskollen,,Viken,NO,60.1216,11.3393,ardac,41.8,True,59.4443,10.5058
NO626,Nesodden,,Viken,NO,59.8422,10.6494,ardac,1.6,True,59.4733,10.447
NO627,Nesoddtangen,,Viken,NO,59.8624,10.6631,ardac,0.8,True,59.4935,10.4605
NO628,Nittedal,,Viken,NO,60.0428,10.8817,ardac,18.1,True,59.5188,10.366
NO629,Nore og Uvdal,,Viken,NO,60.2671,8.9464,ardac,93.1,True,59.4313,10.306
NO630,Noresund,,Viken,NO,60.1799,9.6241,ardac,59.9,True,59.4972,10.3553
NO631,Oppegård,,Viken,NO,59.8115,10.7971,ardac,2.8,True,59.4438,10.2874
NO632,Ørje,,Viken,NO,59.4802,11.6602,ardac,41.9,True,59.2722,11.1514
NO633,Øvre Eiker,,Viken,NO,59.7711,9.9084,ardac,18.6,True,59.4011,10.3255
NO634,Prestfoss,,Viken,NO,60.0434,9.6352,ardac,47.9,True,59.5172,10.3649
NO635,Råde,,Viken,NO,59.3516,10.8714,ardac,6.8,True,59.2942,10.9802
NO636,Råholt,,Viken,NO,60.2751,11.179,ardac,48.7,True,59.4402,10.3433
NO637,Rakkestad,,Viken,NO,59.4282,11.3435,ardac,27.4,True,59.2169,11.1413
NO638,Rælingen,,Viken,NO,59.9263,11.0653,ardac,18.0,True,59.403,10.5485
NO639,Ringerike,,Viken,NO,60.1602,10.2566,ardac,34.4,True,59.4772,10.3623
NO640,Rollag,,Viken,NO,59.9841,9.2949,ardac,59.6,True,59.4592,10.3346
NO641,Rotnes,,Viken,NO,60.0571,10.8614,ardac,18.8,True,59.3766,10.3442
NO642,Rømskog,,Viken,NO,59.7497,11.8112,ardac,60.3,True,59.2318,10.9818
NO643,Røyken,,Viken,NO,59.7402,10.4132,ardac,4.4,True,59.3702,10.5193
NO644,Rygge,,Viken,NO,59.4063,10.693,ardac,2.0,True,59.3491,10.8023
NO645,Ryggebyen,,Viken,NO,59.375,10.75,ardac,4.6,True,59.3177,10.8591
NO646,Sarpsborg,,Viken,NO,59.2815,11.1117,ardac,10.1,True,59.2263,10.9159
NO647,Sætre,,Viken,NO,59.6813,10.5275,ardac,1.0,True,59.4688,10.3289
NO648,Sigdal,,Viken,NO,60.0459,9.6367,ardac,48.0,True,59.5197,10.3664
NO649,Skedsmo,,Viken,NO,59.9545,11.0395,ardac,17.7,True,59.4311,10.5227
NO650,Ski,,Viken,NO,59.7205,10.8388,ardac,7.1,True,59.5095,10.3315
NO651,Skiptvet,,Viken,NO,59.4775,11.1617,ardac,26.8,True,59.2659,10.9604
NO652,Skjærhalden,,Viken,NO,59.0253,11.0369,ardac,0.6,True,58.9678,11.1444
NO653,Skjeberg,,Viken,NO,59.2115,11.1903,ardac,1.8,True,59.1564,10.9948
NO654,Skoger,,Viken,NO,59.7133,10.2536,ardac,1.1,True,59.4999,10.3629
NO655,Skui,,Viken,NO,59.9275,10.4475,ardac,6.8,True,59.4009,10.5512
NO656,Sørum,,Viken,NO,59.9871,11.2402,ardac,29.4,True,59.4657,10.4137
NO657,Sørumsand,,Viken,NO,59.9862,11.2415,ardac,29.4,True,59.4648,10.415
NO658,Spydeberg,,Viken,NO,59.6203,11.0807,ardac,24.2,True,59.2521,10.8751
NO659,Tofte,,Viken,NO,59.5428,10.5614,ardac,1.3,True,59.4868,10.365
NO660,Tomter,,Viken,NO,59.6591,10.9949,ardac,17.9,True,59.4486,10.4876
NO661,Tranby,,Viken,NO,59.8085,10.2611,ardac,7.6,True,59.4386,10.369
NO662,Trøgstad,,Viken,NO,59.6402,11.3189,ardac,35.6,True,59.2723,11.1106
NO663,Ullensaker,,Viken,NO,60.144,11.1744,ardac,36.8,True,59.4657,10.3436
NO664,Våler,,Viken,NO,59.4887,10.8655,ardac,10.0,True,59.2749,10.9703
NO665,Vestby,,Viken,NO,59.6023,10.7481,ardac,5.3,True,59.3901,10.5486
NO666,Vikersund,,Viken,NO,59.9684,9.9911,ardac,29.1,True,59.4416,10.4078
NO667,Olonkinbyen,,Jan Mayen,NO,70.922,-8.715,ardac,1.9,True,70.8827,-8.5002
NO668,Longyearbyen,,Svalbard,NO,78.22,15.65,ardac,0.9,True,78.3167,15.9672
NO669,Ny-Ålesund,,Svalbard,NO,78.925,11.9222,ardac,2.0,True,78.8652,12.1961
NO669,Bjørnøya,,Svalbard,NO,74.44,19.0475,ardac,5.1,True,74.3754,19.2193
NO670,Hopen,,Svalbard,NO,76.55,25.1167,ardac,0.9,True,76.4811,25.2845
NO672,"Polish Polar Station, Hornsund",Isbjørnhamna,Svalbard,NO,77.0,15.55,ardac,3.7,True,76.9505,15.0985
NO671,Pyramiden,,Svalbard,NO,78.6561,16.325,ardac,1.1,True,78.6077,15.8071
NO672,Barentsburg,,Svalbard,NO,78.0667,14.2167,ardac,1.0,True,78.1648,14.5186
