id,name,alt_name,region,country,latitude,longitude,tags
RU1,Алейск,Aleysk,Altai Krai,RU,52.497,82.7732,ardac
RU2,Барнаул,Barnaul,Altai Krai,RU,53.3475,83.7788,ardac
RU3,Белокуриха,Belokurikha,Altai Krai,RU,51.9995,84.9861,ardac
RU4,Бийск,Biysk,Altai Krai,RU,52.5395,85.2149,ardac
RU5,Горняк,Gornyak,Altai Krai,RU,51.0005,81.4639,ardac
RU6,Камень-на-Оби,Kamen-na-Obi,Altai Krai,RU,53.7937,81.3516,ardac
RU7,Новоалтайск,Novoaltaysk,Altai Krai,RU,53.3933,83.9394,ardac
RU8,Рубцовск,Rubtsovsk,Altai Krai,RU,51.5276,81.2176,ardac
RU9,Славгород,Slavgorod,Altai Krai,RU,52.9969,78.6485,ardac
RU10,Яровое,Yarovoye,Altai Krai,RU,52.9197,78.5636,ardac
RU11,Заринск,Zarinsk,Altai Krai,RU,53.7079,84.9349,ardac
RU12,Змеиногорск,Zmeinogorsk,Altai Krai,RU,51.1545,82.198,ardac
RU13,Горно-Алтайск,Gorno-Altaysk,Altai Republic,RU,51.9578,85.9637,ardac
RU14,Белогорск,Belogorsk,Amur Oblast,RU,50.9213,128.4729,ardac
RU15,Благовещенск,Blagoveshchensk,Amur Oblast,RU,50.26,127.5337,ardac
RU16,Райчихинск,Raychikhinsk,Amur Oblast,RU,49.7968,129.4031,ardac
RU17,Шимановск,Shimanovsk,Amur Oblast,RU,51.9987,127.6719,ardac
RU18,Сковородино,Skovorodino,Amur Oblast,RU,53.9863,123.9373,ardac
RU19,Свободный,Svobodny,Amur Oblast,RU,51.3774,128.1348,ardac
RU20,Тында,Tynda,Amur Oblast,RU,55.1497,124.7376,ardac
RU21,Завитинск,Zavitinsk,Amur Oblast,RU,50.1112,129.4402,ardac
RU22,Зея,Zeya,Amur Oblast,RU,53.7404,127.2716,ardac
RU23,Архангельск,Arkhangelsk,Arkhangelsk Oblast,RU,64.543,40.5371,ardac
RU24,Каргополь,Kargopol,Arkhangelsk Oblast,RU,61.5091,38.9408,ardac
RU25,Коряжма,Koryazhma,Arkhangelsk Oblast,RU,61.3153,47.1607,ardac
RU26,Котлас,Kotlas,Arkhangelsk Oblast,RU,61.2522,46.6476,ardac
RU27,Мезень,Mezen,Arkhangelsk Oblast,RU,65.844,44.2441,ardac
RU28,Мирный,Mirny,Arkhangelsk Oblast,RU,62.5411,113.9786,ardac
RU29,Новодвинск,Novodvinsk,Arkhangelsk Oblast,RU,64.4192,40.7938,ardac
RU30,Няндома,Nyandoma,Arkhangelsk Oblast,RU,61.6613,40.197,ardac
RU31,Онега,Onega,Arkhangelsk Oblast,RU,63.9116,38.0948,ardac
RU32,Северодвинск,Severodvinsk,Arkhangelsk Oblast,RU,64.5634,39.8238,ardac
RU33,Шенкурск,Shenkursk,Arkhangelsk Oblast,RU,62.1059,42.9076,ardac
RU34,Сольвычегодск,Solvychegodsk,Arkhangelsk Oblast,RU,61.3313,46.9189,ardac
RU35,Вельск,Velsk,Arkhangelsk Oblast,RU,61.0756,42.098,ardac
RU36,Ахтубинск,Akhtubinsk,Astrakhan Oblast,RU,48.2848,46.1644,ardac
RU37,Астрахань,Astrakhan,Astrakhan Oblast,RU,46.3498,48.0326,ardac
RU38,Камызяк,Kamyzyak,Astrakhan Oblast,RU,46.1205,48.0816,ardac
RU39,Харабали,Kharabali,Astrakhan Oblast,RU,47.4084,47.2539,ardac
RU40,Нариманов,Narimanov,Astrakhan Oblast,RU,46.6923,47.8512,ardac
RU41,Знаменск,Znamensk,Astrakhan Oblast,RU,54.6156,21.2274,ardac
RU42,Алексеевка,Alexeyevka,Belgorod Oblast,RU,54.8301,55.9974,ardac
RU43,Белгород,Belgorod,Belgorod Oblast,RU,50.5956,36.5873,ardac
RU44,Бирюч,Biryuch,Belgorod Oblast,RU,50.6488,38.3964,ardac
RU45,Грайворон,Grayvoron,Belgorod Oblast,RU,50.4838,35.6712,ardac
RU46,Губкин,Gubkin,Belgorod Oblast,RU,51.2837,37.5347,ardac
RU47,Короча,Korocha,Belgorod Oblast,RU,50.8107,37.1953,ardac
RU48,Новый Оскол,Novy Oskol,Belgorod Oblast,RU,50.7644,37.8633,ardac
RU49,Шебекино,Shebekino,Belgorod Oblast,RU,50.4049,36.8797,ardac
RU50,Старый Оскол,Stary Oskol,Belgorod Oblast,RU,51.298,37.8332,ardac
RU51,Строитель,Stroitel,Belgorod Oblast,RU,50.7852,36.4854,ardac
RU52,Валуйки,Valuyki,Belgorod Oblast,RU,50.2113,38.1002,ardac
RU53,Брянск,Bryansk,Bryansk Oblast,RU,53.2424,34.3668,ardac
RU54,Дятьково,Dyatkovo,Bryansk Oblast,RU,53.6004,34.3336,ardac
RU55,Фокино,Fokino,Bryansk Oblast,RU,42.9772,132.4049,ardac
RU56,Карачев,Karachev,Bryansk Oblast,RU,53.1222,34.9826,ardac
RU57,Клинцы,Klintsy,Bryansk Oblast,RU,52.7585,32.2401,ardac
RU58,Мглин,Mglin,Bryansk Oblast,RU,53.0592,32.85,ardac
RU59,Новозыбков,Novozybkov,Bryansk Oblast,RU,52.5371,31.9337,ardac
RU60,Почеп,Pochep,Bryansk Oblast,RU,52.9288,33.4545,ardac
RU61,Сельцо,Seltso,Bryansk Oblast,RU,53.37,34.1006,ardac
RU62,Севск,Sevsk,Bryansk Oblast,RU,52.156,34.4946,ardac
RU63,Стародуб,Starodub,Bryansk Oblast,RU,52.5844,32.7601,ardac
RU64,Сураж,Surazh,Bryansk Oblast,RU,53.0132,32.3932,ardac
RU65,Трубчевск,Trubchevsk,Bryansk Oblast,RU,52.5835,33.7675,ardac
RU66,Унеча,Unecha,Bryansk Oblast,RU,52.845,32.67,ardac
RU67,Жуковка,Zhukovka,Bryansk Oblast,RU,53.533,33.7321,ardac
RU68,Злынка,Zlynka,Bryansk Oblast,RU,52.4274,31.7371,ardac
RU69,Аргун,Argun,Chechen Republic,RU,43.295,45.8689,ardac
RU70,Грозный,Grozny,Chechen Republic,RU,43.3197,45.6934,ardac
RU71,Гудермес,Gudermes,Chechen Republic,RU,43.357,46.1008,ardac
RU72,Шали,Shali,Chechen Republic,RU,43.1539,45.9066,ardac
RU73,Урус-Мартан,Urus-Martan,Chechen Republic,RU,43.1331,45.5384,ardac
RU74,Аша,Asha,Chelyabinsk Oblast,RU,54.9909,57.2781,ardac
RU75,Бакал,Bakal,Chelyabinsk Oblast,RU,54.9367,58.8102,ardac
RU76,Чебаркуль,Chebarkul,Chelyabinsk Oblast,RU,54.9778,60.3701,ardac
RU77,Челябинск,Chelyabinsk,Chelyabinsk Oblast,RU,55.1598,61.4026,ardac
RU78,Карабаш,Karabash,Chelyabinsk Oblast,RU,55.4886,60.2029,ardac
RU79,Карталы,Kartaly,Chelyabinsk Oblast,RU,53.0533,60.6392,ardac
RU80,Касли,Kasli,Chelyabinsk Oblast,RU,55.8904,60.7539,ardac
RU81,Катав-Ивановск,Katav-Ivanovsk,Chelyabinsk Oblast,RU,54.7535,58.2058,ardac
RU82,Копейск,Kopeysk,Chelyabinsk Oblast,RU,55.1132,61.6216,ardac
RU83,Коркино,Korkino,Chelyabinsk Oblast,RU,54.8899,61.408,ardac
RU84,Куса,Kusa,Chelyabinsk Oblast,RU,55.3365,59.4459,ardac
RU85,Кыштым,Kyshtym,Chelyabinsk Oblast,RU,55.7099,60.5511,ardac
RU86,Магнитогорск,Magnitogorsk,Chelyabinsk Oblast,RU,53.4242,58.9831,ardac
RU87,Миасс,Miass,Chelyabinsk Oblast,RU,55.0506,60.1087,ardac
RU88,Миньяр,Minyar,Chelyabinsk Oblast,RU,55.0709,57.5485,ardac
RU89,Нязепетровск,Nyazepetrovsk,Chelyabinsk Oblast,RU,56.0555,59.5986,ardac
RU90,Озёрск,Ozyorsk,Chelyabinsk Oblast,RU,54.4087,22.0144,ardac
RU91,Пласт,Plast,Chelyabinsk Oblast,RU,54.3698,60.8071,ardac
RU92,Сатка,Satka,Chelyabinsk Oblast,RU,55.051,58.9723,ardac
RU93,Сим,Sim,Chelyabinsk Oblast,RU,54.9873,57.6847,ardac
RU94,Снежинск,Snezhinsk,Chelyabinsk Oblast,RU,56.087,60.7327,ardac
RU95,Троицк,Troitsk,Chelyabinsk Oblast,RU,54.0848,61.5514,ardac
RU96,Трёхгорный,Tryokhgorny,Chelyabinsk Oblast,RU,54.8151,58.4466,ardac
RU97,Усть-Катав,Ust-Katav,Chelyabinsk Oblast,RU,54.9308,58.1748,ardac
RU98,Верхнеуральск,Verkhneuralsk,Chelyabinsk Oblast,RU,53.8753,59.2198,ardac
RU99,Верхний Уфалей,Verkhny Ufaley,Chelyabinsk Oblast,RU,56.052,60.2264,ardac
RU100,Еманжелинск,Yemanzhelinsk,Chelyabinsk Oblast,RU,54.7591,61.3132,ardac
RU101,Юрюзань,Yuryuzan,Chelyabinsk Oblast,RU,54.8701,58.4278,ardac
RU102,Южноуральск,Yuzhnouralsk,Chelyabinsk Oblast,RU,54.4425,61.2683,ardac
RU103,Златоуст,Zlatoust,Chelyabinsk Oblast,RU,55.1674,59.6793,ardac
RU104,Анадырь,Anadyr,Chukotka Autonomous Okrug,RU,64.7317,177.5061,ardac
RU105,Билибино,Bilibino,Chukotka Autonomous Okrug,RU,68.055,166.4449,ardac
RU106,Наукан,Naukan,Chukotka Autonomous Okrug,RU,66.0192,-169.7082,ardac
RU107,Певек,Pevek,Chukotka Autonomous Okrug,RU,69.7028,170.2747,ardac
RU108,Алатырь,Alatyr,Chuvash Republic,RU,54.8458,46.5627,ardac
RU109,Чебоксары,Cheboksary,Chuvash Republic,RU,56.1307,47.245,ardac
RU110,Канаш,Kanash,Chuvash Republic,RU,55.5114,47.5068,ardac
RU111,Козловка,Kozlovka,Chuvash Republic,RU,55.8415,48.2484,ardac
RU112,Мариинский Посад,Mariinsky Posad,Chuvash Republic,RU,56.1178,47.7221,ardac
RU113,Новочебоксарск,Novocheboksarsk,Chuvash Republic,RU,56.114,47.487,ardac
RU114,Шумерля,Shumerlya,Chuvash Republic,RU,55.4985,46.4187,ardac
RU115,Цивильск,Tsivilsk,Chuvash Republic,RU,55.8661,47.4737,ardac
RU116,Ядрин,Yadrin,Chuvash Republic,RU,55.9408,46.2007,ardac
RU117,Буйнакск,Buynaksk,Dagestan,RU,42.8261,47.122,ardac
RU118,Дагестанские Огни,Dagestanskiye Ogni,Dagestan,RU,42.1152,48.1864,ardac
RU119,Дербент,Derbent,Dagestan,RU,42.0579,48.2888,ardac
RU120,Избербаш,Izberbash,Dagestan,RU,42.5711,47.863,ardac
RU121,Каспийск,Kaspiysk,Dagestan,RU,42.8881,47.6425,ardac
RU122,Хасавюрт,Khasavyurt,Dagestan,RU,43.2469,46.5855,ardac
RU123,Кизилюрт,Kizilyurt,Dagestan,RU,43.1999,46.8713,ardac
RU124,Кизляр,Kizlyar,Dagestan,RU,43.8547,46.7139,ardac
RU125,Махачкала,Makhachkala,Dagestan,RU,42.983,47.5049,ardac
RU126,Южно-Сухокумск,Yuzhno-Sukhokumsk,Dagestan,RU,44.6622,45.6451,ardac
RU127,Карабулак,Karabulak,Ingushetia,RU,43.3095,44.9103,ardac
RU128,Магас,Magas,Ingushetia,RU,43.1666,44.8048,ardac
RU129,Малгобек,Malgobek,Ingushetia,RU,43.5127,44.587,ardac
RU130,Назрань,Nazran,Ingushetia,RU,43.2321,44.754,ardac
RU131,Алзамай,Alzamay,Irkutsk Oblast,RU,55.555,98.6654,ardac
RU132,Ангарск,Angarsk,Irkutsk Oblast,RU,52.5443,103.8882,ardac
RU133,Байкальск,Baykalsk,Irkutsk Oblast,RU,51.5172,104.141,ardac
RU134,Бирюсинск,Biryusinsk,Irkutsk Oblast,RU,55.9643,97.8245,ardac
RU135,Бодайбо,Bodaybo,Irkutsk Oblast,RU,57.85,114.204,ardac
RU136,Братск,Bratsk,Irkutsk Oblast,RU,56.1517,101.6335,ardac
RU137,Черемхово,Cheremkhovo,Irkutsk Oblast,RU,53.1484,103.0701,ardac
RU138,Иркутск,Irkutsk,Irkutsk Oblast,RU,52.2891,104.2798,ardac
RU139,Киренск,Kirensk,Irkutsk Oblast,RU,57.7764,108.1163,ardac
RU140,Нижнеудинск,Nizhneudinsk,Irkutsk Oblast,RU,54.9085,99.0303,ardac
RU141,Саянск,Sayansk,Irkutsk Oblast,RU,54.1123,102.1785,ardac
RU142,Шелехов,Shelekhov,Irkutsk Oblast,RU,52.2097,104.0977,ardac
RU143,Слюдянка,Slyudyanka,Irkutsk Oblast,RU,51.6568,103.7193,ardac
RU144,Свирск,Svirsk,Irkutsk Oblast,RU,53.0663,103.3423,ardac
RU145,Тайшет,Tayshet,Irkutsk Oblast,RU,55.9385,98.0197,ardac
RU146,Тулун,Tulun,Irkutsk Oblast,RU,54.5621,100.5792,ardac
RU147,Усолье-Сибирское,Usolye-Sibirskoye,Irkutsk Oblast,RU,52.7512,103.6622,ardac
RU148,Усть-Илимск,Ust-Ilimsk,Irkutsk Oblast,RU,57.9595,102.7342,ardac
RU149,Усть-Кут,Ust-Kut,Irkutsk Oblast,RU,56.781,105.746,ardac
RU150,Вихоревка,Vikhorevka,Irkutsk Oblast,RU,56.1247,101.172,ardac
RU151,Железногорск-Илимский,Zheleznogorsk-Ilimsky,Irkutsk Oblast,RU,56.5779,104.1229,ardac
RU152,Зима,Zima,Irkutsk Oblast,RU,53.9211,102.0492,ardac
RU153,Фурманов,Furmanov,Ivanovo Oblast,RU,57.2488,41.1092,ardac
RU154,Гаврилов Посад,Gavrilov Posad,Ivanovo Oblast,RU,56.5586,40.1206,ardac
RU155,Иваново,Ivanovo,Ivanovo Oblast,RU,56.9984,40.9737,ardac
RU156,Кинешма,Kineshma,Ivanovo Oblast,RU,57.4427,42.1688,ardac
RU157,Кохма,Kokhma,Ivanovo Oblast,RU,56.9315,41.0939,ardac
RU158,Комсомольск,Komsomolsk,Ivanovo Oblast,RU,57.0273,40.3776,ardac
RU159,Наволоки,Navoloki,Ivanovo Oblast,RU,57.4738,41.9622,ardac
RU160,Плёс,Plyos,Ivanovo Oblast,RU,57.4592,41.5114,ardac
RU161,Приволжск,Privolzhsk,Ivanovo Oblast,RU,57.3803,41.2812,ardac
RU162,Пучеж,Puchezh,Ivanovo Oblast,RU,56.9821,43.1681,ardac
RU163,Родники,Rodniki,Ivanovo Oblast,RU,57.1052,41.7284,ardac
RU164,Шуя,Shuya,Ivanovo Oblast,RU,56.8558,41.3838,ardac
RU165,Тейково,Teykovo,Ivanovo Oblast,RU,56.8555,40.5406,ardac
RU166,Вичуга,Vichuga,Ivanovo Oblast,RU,57.2201,41.9239,ardac
RU167,Юрьевец,Yuryevets,Ivanovo Oblast,RU,57.3179,43.111,ardac
RU168,Южа,Yuzha,Ivanovo Oblast,RU,56.584,42.0109,ardac
RU169,Заволжск,Zavolzhsk,Ivanovo Oblast,RU,57.491,42.1396,ardac
RU170,Биробиджан,Birobidzhan,Jewish Autonomous Oblast,RU,48.7882,132.9282,ardac
RU171,Облучье,Obluchye,Jewish Autonomous Oblast,RU,49.0145,131.0538,ardac
RU172,Баксан,Baksan,Kabardino-Balkar Republic,RU,43.6821,43.5344,ardac
RU173,Чегем,Chegem,Kabardino-Balkar Republic,RU,43.5656,43.5899,ardac
RU174,Майский,Maysky,Kabardino-Balkar Republic,RU,43.6282,44.0519,ardac
RU175,Нальчик,Nalchik,Kabardino-Balkar Republic,RU,43.477,43.5967,ardac
RU176,Нарткала,Nartkala,Kabardino-Balkar Republic,RU,43.5561,43.8617,ardac
RU177,Прохладный,Prokhladny,Kabardino-Balkar Republic,RU,43.759,44.0104,ardac
RU178,Терек,Terek,Kabardino-Balkar Republic,RU,43.5713,45.4683,ardac
RU179,Тырныауз,Tyrnyauz,Kabardino-Balkar Republic,RU,43.3959,42.9231,ardac
RU180,Багратионовск,Bagrationovsk,Kaliningrad Oblast,RU,54.3868,20.6405,ardac
RU181,Балтийск,Baltiysk,Kaliningrad Oblast,RU,54.6437,19.8942,ardac
RU182,Черняховск,Chernyakhovsk,Kaliningrad Oblast,RU,54.6355,21.81,ardac
RU183,Гурьевск,Guryevsk,Kaliningrad Oblast,RU,54.7746,20.6037,ardac
RU184,Гусев,Gusev,Kaliningrad Oblast,RU,54.5922,22.2015,ardac
RU185,Гвардейск,Gvardeysk,Kaliningrad Oblast,RU,54.6478,21.0719,ardac
RU186,Калининград,Kaliningrad,Kaliningrad Oblast,RU,54.7101,20.5106,ardac
RU187,Краснознаменск,Krasnoznamensk,Kaliningrad Oblast,RU,55.5972,37.0395,ardac
RU188,Ладушкин,Ladushkin,Kaliningrad Oblast,RU,54.5713,20.1734,ardac
RU189,Мамоново,Mamonovo,Kaliningrad Oblast,RU,54.4636,19.9414,ardac
RU190,Неман,Neman,Kaliningrad Oblast,RU,55.036,22.0294,ardac
RU191,Нестеров,Nesterov,Kaliningrad Oblast,RU,54.6325,22.5711,ardac
RU192,Озёрск,Ozyorsk,Kaliningrad Oblast,RU,54.4087,22.0144,ardac
RU193,Пионерский,Pionersky,Kaliningrad Oblast,RU,54.9482,20.2259,ardac
RU194,Полесск,Polessk,Kaliningrad Oblast,RU,54.8628,21.1099,ardac
RU195,Правдинск,Pravdinsk,Kaliningrad Oblast,RU,54.4471,21.014,ardac
RU196,Славск,Slavsk,Kaliningrad Oblast,RU,55.0455,21.6791,ardac
RU197,Советск,Sovetsk,Kaliningrad Oblast,RU,55.081,21.8883,ardac
RU198,Светлогорск,Svetlogorsk,Kaliningrad Oblast,RU,54.9418,20.1551,ardac
RU199,Светлый,Svetly,Kaliningrad Oblast,RU,54.6734,20.1312,ardac
RU200,Зеленоградск,Zelenogradsk,Kaliningrad Oblast,RU,54.96,20.475,ardac
RU201,Элиста,Elista,Kalmykia,RU,46.307,44.2702,ardac
RU202,Городовиковск,Gorodovikovsk,Kalmykia,RU,46.0829,41.9343,ardac
RU203,Лагань,Lagan,Kalmykia,RU,45.3921,47.3613,ardac
RU204,Балабаново,Balabanovo,Kaluga Oblast,RU,55.1784,36.6576,ardac
RU205,Белоусово,Belousovo,Kaluga Oblast,RU,55.0897,36.6613,ardac
RU206,Боровск,Borovsk,Kaluga Oblast,RU,55.2073,36.4827,ardac
RU207,Калуга,Kaluga,Kaluga Oblast,RU,54.5101,36.2598,ardac
RU208,Киров,Kirov,Kaluga Oblast,RU,58.6036,49.6666,ardac
RU209,Кондрово,Kondrovo,Kaluga Oblast,RU,54.8069,35.9301,ardac
RU210,Козельск,Kozelsk,Kaluga Oblast,RU,54.0371,35.7801,ardac
RU211,Кремёнки,Kremyonki,Kaluga Oblast,RU,54.8865,37.1172,ardac
RU212,Людиново,Lyudinovo,Kaluga Oblast,RU,53.8646,34.4479,ardac
RU213,Малоярославец,Maloyaroslavets,Kaluga Oblast,RU,55.0122,36.459,ardac
RU214,Медынь,Medyn,Kaluga Oblast,RU,54.969,35.857,ardac
RU215,Мещовск,Meshchovsk,Kaluga Oblast,RU,54.3207,35.2796,ardac
RU216,Мосальск,Mosalsk,Kaluga Oblast,RU,54.4873,34.979,ardac
RU217,Обнинск,Obninsk,Kaluga Oblast,RU,55.0952,36.6119,ardac
RU218,Сосенский,Sosensky,Kaluga Oblast,RU,54.0516,35.959,ardac
RU219,Спас-Деменск,Spas-Demensk,Kaluga Oblast,RU,54.4126,34.031,ardac
RU220,Сухиничи,Sukhinichi,Kaluga Oblast,RU,54.1013,35.3394,ardac
RU221,Таруса,Tarusa,Kaluga Oblast,RU,54.7294,37.1816,ardac
RU222,Ермолино,Yermolino,Kaluga Oblast,RU,55.2055,36.5715,ardac
RU223,Юхнов,Yukhnov,Kaluga Oblast,RU,54.7416,35.2264,ardac
RU224,Жиздра,Zhizdra,Kaluga Oblast,RU,53.7485,34.7354,ardac
RU225,Жуков,Zhukov,Kaluga Oblast,RU,55.0338,36.7489,ardac
RU226,Петропавловск-Камчатский,Petropavlovsk-Kamchatsky,Kamchatka Krai,RU,53.02,158.6471,ardac
RU227,Вилючинск,Vilyuchinsk,Kamchatka Krai,RU,52.9318,158.4054,ardac
RU228,Елизово,Yelizovo,Kamchatka Krai,RU,53.1865,158.3837,ardac
RU229,Черкесск,Cherkessk,Karachay-Cherkessia,RU,44.2285,42.0483,ardac
RU230,Карачаевск,Karachayevsk,Karachay-Cherkessia,RU,43.7716,41.912,ardac
RU231,Теберда,Teberda,Karachay-Cherkessia,RU,43.4411,41.7437,ardac
RU232,Усть-Джегута,Ust-Dzheguta,Karachay-Cherkessia,RU,44.0859,41.9723,ardac
RU233,Беломорск,Belomorsk,Karelia,RU,64.5217,34.7626,ardac
RU234,Кемь,Kem,Karelia,RU,64.9551,34.5697,ardac
RU235,Кондопога,Kondopoga,Karelia,RU,62.2093,34.2682,ardac
RU236,Костомукша,Kostomuksha,Karelia,RU,64.5873,30.5969,ardac
RU237,Лахденпохья,Lakhdenpokhya,Karelia,RU,61.5179,30.2039,ardac
RU238,Медвежьегорск,Medvezhyegorsk,Karelia,RU,62.915,34.4733,ardac
RU239,Олонец,Olonets,Karelia,RU,60.9793,32.9749,ardac
RU240,Петрозаводск,Petrozavodsk,Karelia,RU,61.79,34.39,ardac
RU241,Питкяранта,Pitkyaranta,Karelia,RU,61.5718,31.4744,ardac
RU242,Пудож,Pudozh,Karelia,RU,61.8084,36.536,ardac
RU243,Сегежа,Segezha,Karelia,RU,63.7435,34.3107,ardac
RU244,Сортавала,Sortavala,Karelia,RU,61.7027,30.6912,ardac
RU245,Суоярви,Suoyarvi,Karelia,RU,62.082,32.3459,ardac
RU246,Анжеро-Судженск,Anzhero-Sudzhensk,Kemerovo Oblast,RU,56.0778,86.0194,ardac
RU247,Белово,Belovo,Kemerovo Oblast,RU,54.4193,86.3034,ardac
RU248,Березовский,Berezovsky,Kemerovo Oblast,RU,55.6697,86.2752,ardac
RU249,Гурьевск,Guryevsk,Kemerovo Oblast,RU,54.7746,20.6037,ardac
RU250,Калтан,Kaltan,Kemerovo Oblast,RU,53.5195,87.2862,ardac
RU251,Кемерово,Kemerovo,Kemerovo Oblast,RU,55.3551,86.0871,ardac
RU252,Киселёвск,Kiselyovsk,Kemerovo Oblast,RU,54.005,86.6355,ardac
RU253,Ленинск-Кузнецкий,Leninsk-Kuznetsky,Kemerovo Oblast,RU,54.6654,86.1661,ardac
RU254,Мариинск,Mariinsk,Kemerovo Oblast,RU,56.2063,87.7513,ardac
RU255,Междуреченск,Mezhdurechensk,Kemerovo Oblast,RU,53.6864,88.0703,ardac
RU256,Мыски,Myski,Kemerovo Oblast,RU,53.7139,87.8003,ardac
RU257,Новокузнецк,Novokuznetsk,Kemerovo Oblast,RU,53.7576,87.1358,ardac
RU258,Осинники,Osinniki,Kemerovo Oblast,RU,53.607,87.3329,ardac
RU259,Полысаево,Polysayevo,Kemerovo Oblast,RU,54.6031,86.276,ardac
RU260,Прокопьевск,Prokopyevsk,Kemerovo Oblast,RU,53.8879,86.7492,ardac
RU261,Салаир,Salair,Kemerovo Oblast,RU,54.2325,85.7984,ardac
RU262,Таштагол,Tashtagol,Kemerovo Oblast,RU,52.7595,87.8484,ardac
RU263,Тайга,Tayga,Kemerovo Oblast,RU,56.0651,85.6313,ardac
RU264,Топки,Topki,Kemerovo Oblast,RU,55.2752,85.6229,ardac
RU265,Юрга,Yurga,Kemerovo Oblast,RU,55.7136,84.9348,ardac
RU266,Амурск,Amursk,Khabarovsk Krai,RU,50.2266,136.9101,ardac
RU267,Бикин,Bikin,Khabarovsk Krai,RU,46.8188,134.2581,ardac
RU268,Хабаровск,Khabarovsk,Khabarovsk Krai,RU,48.4813,135.0763,ardac
RU269,Комсомольск-на-Амуре,Komsomolsk-on-Amur,Khabarovsk Krai,RU,50.5497,137.0099,ardac
RU270,Николаевск-на-Амуре,Nikolayevsk-on-Amur,Khabarovsk Krai,RU,53.1387,140.7249,ardac
RU271,Советская Гавань,Sovetskaya Gavan,Khabarovsk Krai,RU,48.9663,140.285,ardac
RU272,Вяземский,Vyazemsky,Khabarovsk Krai,RU,47.5335,134.7579,ardac
RU273,Белоярский,Beloyarsky,Khanty-Mansi Autonomous Okrug,RU,63.7156,66.6668,ardac
RU274,Ханты-Мансийск,Khanty-Mansiysk,Khanty-Mansi Autonomous Okrug,RU,61.0034,69.019,ardac
RU275,Когалым,Kogalym,Khanty-Mansi Autonomous Okrug,RU,62.268,74.4889,ardac
RU276,Лангепас,Langepas,Khanty-Mansi Autonomous Okrug,RU,61.2473,75.1893,ardac
RU277,Лянтор,Lyantor,Khanty-Mansi Autonomous Okrug,RU,61.6225,72.1651,ardac
RU278,Мегион,Megion,Khanty-Mansi Autonomous Okrug,RU,61.0354,76.1082,ardac
RU279,Нефтеюганск,Nefteyugansk,Khanty-Mansi Autonomous Okrug,RU,61.0903,72.6101,ardac
RU280,Нижневартовск,Nizhnevartovsk,Khanty-Mansi Autonomous Okrug,RU,60.9339,76.5814,ardac
RU281,Нягань,Nyagan,Khanty-Mansi Autonomous Okrug,RU,62.1446,65.4349,ardac
RU282,Покачи,Pokachi,Khanty-Mansi Autonomous Okrug,RU,61.7441,75.5968,ardac
RU283,Пыть-Ях,Pyt-Yakh,Khanty-Mansi Autonomous Okrug,RU,60.7551,72.84,ardac
RU284,Радужный,Raduzhny,Khanty-Mansi Autonomous Okrug,RU,62.1353,77.4626,ardac
RU285,Советский,Sovetsky,Khanty-Mansi Autonomous Okrug,RU,61.3621,63.5735,ardac
RU286,Сургут,Surgut,Khanty-Mansi Autonomous Okrug,RU,61.254,73.3964,ardac
RU287,Урай,Uray,Khanty-Mansi Autonomous Okrug,RU,60.1291,64.8036,ardac
RU288,Югорск,Yugorsk,Khanty-Mansi Autonomous Okrug,RU,61.315,63.3316,ardac
RU289,Белая Холуница,Belaya Kholunitsa,Kirov Oblast,RU,58.8433,50.8529,ardac
RU290,Киров,Kirov,Kirov Oblast,RU,58.6036,49.6666,ardac
RU291,Кирово-Чепецк,Kirovo-Chepetsk,Kirov Oblast,RU,58.5551,50.0313,ardac
RU292,Кирс,Kirs,Kirov Oblast,RU,59.3399,52.2418,ardac
RU293,Котельнич,Kotelnich,Kirov Oblast,RU,58.3054,48.3373,ardac
RU294,Луза,Luza,Kirov Oblast,RU,60.6306,47.2549,ardac
RU295,Малмыж,Malmyzh,Kirov Oblast,RU,56.5206,50.6776,ardac
RU296,Мураши,Murashi,Kirov Oblast,RU,59.3951,48.9644,ardac
RU297,Нолинск,Nolinsk,Kirov Oblast,RU,57.5599,49.9385,ardac
RU298,Омутнинск,Omutninsk,Kirov Oblast,RU,58.6683,52.1763,ardac
RU299,Орлов,Orlov,Kirov Oblast,RU,58.5363,48.8851,ardac
RU300,Слободской,Slobodskoy,Kirov Oblast,RU,58.7278,50.1771,ardac
RU301,Сосновка,Sosnovka,Kirov Oblast,RU,56.2574,51.2843,ardac
RU302,Советск,Sovetsk,Kirov Oblast,RU,55.081,21.8883,ardac
RU303,Уржум,Urzhum,Kirov Oblast,RU,57.1101,50.0003,ardac
RU304,Вятские Поляны,Vyatskiye Polyany,Kirov Oblast,RU,56.223,51.0749,ardac
RU305,Яранск,Yaransk,Kirov Oblast,RU,57.3043,47.8856,ardac
RU306,Зуевка,Zuyevka,Kirov Oblast,RU,58.406,51.1389,ardac
RU307,Инта,Inta,Komi Republic,RU,66.0401,60.1314,ardac
RU308,Микунь,Mikun,Komi Republic,RU,62.3582,50.0822,ardac
RU309,Печора,Pechora,Komi Republic,RU,65.711,54.818,ardac
RU310,Сосногорск,Sosnogorsk,Komi Republic,RU,63.5856,53.9001,ardac
RU311,Сыктывкар,Syktyvkar,Komi Republic,RU,61.6685,50.8352,ardac
RU312,Ухта,Ukhta,Komi Republic,RU,63.5624,53.6842,ardac
RU313,Усинск,Usinsk,Komi Republic,RU,65.9944,57.5571,ardac
RU314,Воркута,Vorkuta,Komi Republic,RU,67.5036,64.0627,ardac
RU315,Вуктыл,Vuktyl,Komi Republic,RU,63.8443,57.3002,ardac
RU316,Емва,Yemva,Komi Republic,RU,62.5983,50.8881,ardac
RU317,Буй,Buy,Kostroma Oblast,RU,58.4817,41.533,ardac
RU318,Чухлома,Chukhloma,Kostroma Oblast,RU,58.756,42.6807,ardac
RU319,Галич,Galich,Kostroma Oblast,RU,58.3814,42.3479,ardac
RU320,Кологрив,Kologriv,Kostroma Oblast,RU,58.8255,44.3113,ardac
RU321,Кострома,Kostroma,Kostroma Oblast,RU,57.7679,40.9269,ardac
RU322,Макарьев,Makaryev,Kostroma Oblast,RU,57.8804,43.8072,ardac
RU323,Мантурово,Manturovo,Kostroma Oblast,RU,58.3333,44.7618,ardac
RU324,Нерехта,Nerekhta,Kostroma Oblast,RU,57.4607,40.5738,ardac
RU325,Нея,Neya,Kostroma Oblast,RU,58.2941,43.8609,ardac
RU326,Шарья,Sharya,Kostroma Oblast,RU,58.3726,45.5193,ardac
RU327,Солигалич,Soligalich,Kostroma Oblast,RU,59.0778,42.2862,ardac
RU328,Волгореченск,Volgorechensk,Kostroma Oblast,RU,57.4401,41.1572,ardac
RU329,Абинск,Abinsk,Krasnodar Krai,RU,44.865,38.1578,ardac
RU330,Анапа,Anapa,Krasnodar Krai,RU,44.8943,37.3169,ardac
RU331,Апшеронск,Apsheronsk,Krasnodar Krai,RU,44.4618,39.741,ardac
RU332,Армавир,Armavir,Krasnodar Krai,RU,44.9994,41.1294,ardac
RU333,Белореченск,Belorechensk,Krasnodar Krai,RU,44.7614,39.8713,ardac
RU334,Геленджик,Gelendzhik,Krasnodar Krai,RU,44.5609,38.0767,ardac
RU335,Горячий Ключ,Goryachy Klyuch,Krasnodar Krai,RU,44.6343,39.1364,ardac
RU336,Гулькевичи,Gulkevichi,Krasnodar Krai,RU,45.3565,40.6962,ardac
RU337,Хадыженск,Khadyzhensk,Krasnodar Krai,RU,44.4231,39.5369,ardac
RU338,Кореновск,Korenovsk,Krasnodar Krai,RU,45.4636,39.4488,ardac
RU339,Краснодар,Krasnodar,Krasnodar Krai,RU,45.0352,38.9772,ardac
RU340,Кропоткин,Kropotkin,Krasnodar Krai,RU,45.4344,40.575,ardac
RU341,Крымск,Krymsk,Krasnodar Krai,RU,44.9296,37.988,ardac
RU342,Курганинск,Kurganinsk,Krasnodar Krai,RU,44.8852,40.5895,ardac
RU343,Лабинск,Labinsk,Krasnodar Krai,RU,44.6348,40.7242,ardac
RU344,Новокубанск,Novokubansk,Krasnodar Krai,RU,45.1083,41.0367,ardac
RU345,Новороссийск,Novorossiysk,Krasnodar Krai,RU,44.724,37.7691,ardac
RU346,Приморско-Ахтарск,Primorsko-Akhtarsk,Krasnodar Krai,RU,46.0432,38.1555,ardac
RU347,Славянск-на-Кубани,Slavyansk-na-Kubani,Krasnodar Krai,RU,45.2492,38.1093,ardac
RU348,Сочи,Sochi,Krasnodar Krai,RU,43.5855,39.7231,ardac
RU349,Темрюк,Temryuk,Krasnodar Krai,RU,45.2752,37.3905,ardac
RU350,Тихорецк,Tikhoretsk,Krasnodar Krai,RU,45.8547,40.1281,ardac
RU351,Тимашёвск,Timashyovsk,Krasnodar Krai,RU,45.613,38.9358,ardac
RU352,Туапсе,Tuapse,Krasnodar Krai,RU,44.0985,39.0719,ardac
RU353,Усть-Лабинск,Ust-Labinsk,Krasnodar Krai,RU,45.2178,39.6897,ardac
RU354,Ейск,Yeysk,Krasnodar Krai,RU,46.7112,38.2748,ardac
RU355,Ачинск,Achinsk,Krasnoyarsk Krai,RU,56.2695,90.4954,ardac
RU356,Артёмовск,Artyomovsk,Krasnoyarsk Krai,RU,54.3496,93.4378,ardac
RU357,Боготол,Bogotol,Krasnoyarsk Krai,RU,56.2115,89.5316,ardac
RU358,Бородино,Borodino,Krasnoyarsk Krai,RU,55.9,94.8937,ardac
RU359,Дивногорск,Divnogorsk,Krasnoyarsk Krai,RU,55.9596,92.3754,ardac
RU360,Дудинка,Dudinka,Krasnoyarsk Krai,RU,69.4061,86.1751,ardac
RU361,Игарка,Igarka,Krasnoyarsk Krai,RU,67.4566,86.5308,ardac
RU362,Иланский,Ilansky,Krasnoyarsk Krai,RU,56.2381,96.0669,ardac
RU363,Канск,Kansk,Krasnoyarsk Krai,RU,56.206,95.7068,ardac
RU364,Кодинск,Kodinsk,Krasnoyarsk Krai,RU,58.6027,99.1888,ardac
RU365,Красноярск,Krasnoyarsk,Krasnoyarsk Krai,RU,56.0091,92.8726,ardac
RU366,Лесосибирск,Lesosibirsk,Krasnoyarsk Krai,RU,58.2165,92.5078,ardac
RU367,Минусинск,Minusinsk,Krasnoyarsk Krai,RU,53.7004,91.6848,ardac
RU368,Назарово,Nazarovo,Krasnoyarsk Krai,RU,56.0116,90.4185,ardac
RU369,Норильск,Norilsk,Krasnoyarsk Krai,RU,69.3444,88.2096,ardac
RU370,Шарыпово,Sharypovo,Krasnoyarsk Krai,RU,55.5329,89.1864,ardac
RU371,Сосновоборск,Sosnovoborsk,Krasnoyarsk Krai,RU,56.1215,93.3387,ardac
RU372,Уяр,Uyar,Krasnoyarsk Krai,RU,55.81,94.3278,ardac
RU373,Ужур,Uzhur,Krasnoyarsk Krai,RU,55.3197,89.8424,ardac
RU374,Енисейск,Yeniseysk,Krasnoyarsk Krai,RU,58.4532,92.1748,ardac
RU375,Заозёрный,Zaozyorny,Krasnoyarsk Krai,RU,55.9654,94.7081,ardac
RU376,Зеленогорск,Zelenogorsk,Krasnoyarsk Krai,RU,56.1136,94.5893,ardac
RU377,Железногорск,Zheleznogorsk,Krasnoyarsk Krai,RU,56.2509,93.5329,ardac
RU378,Далматово,Dalmatovo,Kurgan Oblast,RU,56.2587,62.9392,ardac
RU379,Катайск,Kataysk,Kurgan Oblast,RU,56.2835,62.5837,ardac
RU380,Курган,Kurgan,Kurgan Oblast,RU,55.4409,65.3421,ardac
RU381,Куртамыш,Kurtamysh,Kurgan Oblast,RU,54.9096,64.4284,ardac
RU382,Макушино,Makushino,Kurgan Oblast,RU,55.2083,67.2527,ardac
RU383,Петухово,Petukhovo,Kurgan Oblast,RU,55.065,67.8874,ardac
RU384,Шадринск,Shadrinsk,Kurgan Oblast,RU,56.0874,63.6295,ardac
RU385,Щучье,Shchuchye,Kurgan Oblast,RU,55.2089,62.7478,ardac
RU386,Шумиха,Shumikha,Kurgan Oblast,RU,55.2282,63.2825,ardac
RU387,Дмитриев,Dmitriyev,Kursk Oblast,RU,52.1285,35.0754,ardac
RU388,Фатеж,Fatezh,Kursk Oblast,RU,52.0893,35.8595,ardac
RU389,Курчатов,Kurchatov,Kursk Oblast,RU,51.6595,35.6589,ardac
RU390,Курск,Kursk,Kursk Oblast,RU,51.727,36.1922,ardac
RU391,Льгов,Lgov,Kursk Oblast,RU,51.6907,35.284,ardac
RU392,Обоянь,Oboyan,Kursk Oblast,RU,51.2111,36.2762,ardac
RU393,Рыльск,Rylsk,Kursk Oblast,RU,51.5705,34.6835,ardac
RU394,Щигры,Shchigry,Kursk Oblast,RU,51.8708,36.9132,ardac
RU395,Суджа,Sudzha,Kursk Oblast,RU,51.1906,35.2709,ardac
RU396,Железногорск,Zheleznogorsk,Kursk Oblast,RU,56.2509,93.5329,ardac
RU397,Бокситогорск,Boksitogorsk,Leningrad Oblast,RU,59.4729,33.849,ardac
RU398,Гатчина,Gatchina,Leningrad Oblast,RU,59.5706,30.1305,ardac
RU399,Ивангород,Ivangorod,Leningrad Oblast,RU,59.3744,28.2193,ardac
RU400,Каменногорск,Kamennogorsk,Leningrad Oblast,RU,60.9526,29.1303,ardac
RU401,Кингисепп,Kingisepp,Leningrad Oblast,RU,59.3744,28.5982,ardac
RU402,Кириши,Kirishi,Leningrad Oblast,RU,59.4503,32.0106,ardac
RU403,Кировск,Kirovsk,Leningrad Oblast,RU,59.8814,30.9855,ardac
RU404,Коммунар,Kommunar,Leningrad Oblast,RU,59.6222,30.3919,ardac
RU405,Лодейное Поле,Lodeynoye Pole,Leningrad Oblast,RU,60.7339,33.5458,ardac
RU406,Луга,Luga,Leningrad Oblast,RU,58.7357,29.8475,ardac
RU407,Любань,Lyuban,Leningrad Oblast,RU,59.35,31.25,ardac
RU408,Мурино,Murino,Leningrad Oblast,RU,60.0462,30.4459,ardac
RU409,Никольское,Nikolskoye,Leningrad Oblast,RU,59.7035,30.7861,ardac
RU410,Новая Ладога,Novaya Ladoga,Leningrad Oblast,RU,60.1052,32.3148,ardac
RU411,Отрадное,Otradnoye,Leningrad Oblast,RU,55.8646,37.6045,ardac
RU412,Пикалёво,Pikalyovo,Leningrad Oblast,RU,59.513,34.1774,ardac
RU413,Подпорожье,Podporozhye,Leningrad Oblast,RU,60.9143,34.1624,ardac
RU414,Приморск,Primorsk,Leningrad Oblast,RU,60.3667,28.6167,ardac
RU415,Приозерск,Priozersk,Leningrad Oblast,RU,61.0385,30.1248,ardac
RU416,Сертолово,Sertolovo,Leningrad Oblast,RU,60.1437,30.2078,ardac
RU417,Шлиссельбург,Shlisselburg,Leningrad Oblast,RU,59.9404,31.0337,ardac
RU418,Сланцы,Slantsy,Leningrad Oblast,RU,59.1173,28.087,ardac
RU419,Сосновый Бор,Sosnovy Bor,Leningrad Oblast,RU,59.8969,29.0766,ardac
RU420,Светогорск,Svetogorsk,Leningrad Oblast,RU,61.1113,28.8701,ardac
RU421,Сясьстрой,Syasstroy,Leningrad Oblast,RU,60.1397,32.5638,ardac
RU422,Тихвин,Tikhvin,Leningrad Oblast,RU,59.6443,33.5419,ardac
RU423,Тосно,Tosno,Leningrad Oblast,RU,59.5413,30.8774,ardac
RU424,Волхов,Volkhov,Leningrad Oblast,RU,59.9276,32.3277,ardac
RU425,Волосово,Volosovo,Leningrad Oblast,RU,59.4444,29.4925,ardac
RU426,Всеволожск,Vsevolozhsk,Leningrad Oblast,RU,60.024,30.646,ardac
RU427,Выборг,Vyborg,Leningrad Oblast,RU,60.7092,28.7441,ardac
RU428,Высоцк,Vysotsk,Leningrad Oblast,RU,60.628,28.5688,ardac
RU429,Чаплыгин,Chaplygin,Lipetsk Oblast,RU,53.243,39.9668,ardac
RU430,Данков,Dankov,Lipetsk Oblast,RU,53.2533,39.1592,ardac
RU431,Грязи,Gryazi,Lipetsk Oblast,RU,52.4961,39.9552,ardac
RU432,Лебедянь,Lebedyan,Lipetsk Oblast,RU,53.0126,39.1276,ardac
RU433,Липецк,Lipetsk,Lipetsk Oblast,RU,52.6042,39.5937,ardac
RU434,Усмань,Usman,Lipetsk Oblast,RU,52.0507,39.74,ardac
RU435,Елец,Yelets,Lipetsk Oblast,RU,52.622,38.5003,ardac
RU436,Задонск,Zadonsk,Lipetsk Oblast,RU,52.3878,38.9267,ardac
RU437,Магадан,Magadan,Magadan Oblast,RU,59.5605,150.7989,ardac
RU438,Сусуман,Susuman,Magadan Oblast,RU,62.7797,148.1536,ardac
RU439,Козьмодемьянск,Kozmodemyansk,Mari El,RU,56.3324,46.5463,ardac
RU440,Волжск,Volzhsk,Mari El,RU,55.8637,48.3619,ardac
RU441,Йошкар-Ола,Yoshkar-Ola,Mari El,RU,56.6327,47.8976,ardac
RU442,Звенигово,Zvenigovo,Mari El,RU,55.9718,48.0161,ardac
RU443,Московский,Moskovsky,Moscow,RU,55.6026,37.3479,ardac
RU444,Москва,Moscow,Moscow,RU,55.6256,37.6064,ardac
RU445,Троицк,Troitsk,Moscow,RU,54.0848,61.5514,ardac
RU446,Зеленоград,Zelenograd,Moscow,RU,55.9964,37.1985,ardac
RU447,Апрелевка,Aprelevka,Moscow Oblast,RU,55.5454,37.073,ardac
RU448,Балашиха,Balashikha,Moscow Oblast,RU,55.7998,37.9374,ardac
RU449,Бронницы,Bronnitsy,Moscow Oblast,RU,55.422,38.2591,ardac
RU450,Чехов,Chekhov,Moscow Oblast,RU,55.1427,37.4545,ardac
RU451,Черноголовка,Chernogolovka,Moscow Oblast,RU,56.0061,38.3835,ardac
RU452,Дедовск,Dedovsk,Moscow Oblast,RU,55.8598,37.1206,ardac
RU453,Дмитров,Dmitrov,Moscow Oblast,RU,56.3451,37.5201,ardac
RU454,Долгопрудный,Dolgoprudny,Moscow Oblast,RU,55.9341,37.5142,ardac
RU455,Домодедово,Domodedovo,Moscow Oblast,RU,55.4091,37.9042,ardac
RU456,Дрезна,Drezna,Moscow Oblast,RU,55.7448,38.8491,ardac
RU457,Дубна,Dubna,Moscow Oblast,RU,56.7363,37.1624,ardac
RU458,Дзержинский,Dzerzhinsky,Moscow Oblast,RU,55.6309,37.8497,ardac
RU459,Электрогорск,Elektrogorsk,Moscow Oblast,RU,55.8793,38.7859,ardac
RU460,Электросталь,Elektrostal,Moscow Oblast,RU,55.7904,38.4406,ardac
RU461,Электроугли,Elektrougli,Moscow Oblast,RU,55.7184,38.2228,ardac
RU462,Фрязино,Fryazino,Moscow Oblast,RU,55.9546,38.0568,ardac
RU463,Голицыно,Golitsyno,Moscow Oblast,RU,55.615,36.9888,ardac
RU464,Истра,Istra,Moscow Oblast,RU,55.9146,36.8595,ardac
RU465,Ивантеевка,Ivanteyevka,Moscow Oblast,RU,55.9714,37.9201,ardac
RU466,Кашира,Kashira,Moscow Oblast,RU,54.8374,38.1505,ardac
RU467,Химки,Khimki,Moscow Oblast,RU,55.8917,37.4397,ardac
RU468,Хотьково,Khotkovo,Moscow Oblast,RU,56.2517,37.978,ardac
RU469,Климовск,Klimovsk,Moscow Oblast,RU,61.2857,53.6475,ardac
RU470,Клин,Klin,Moscow Oblast,RU,56.3356,36.7351,ardac
RU471,Коломна,Kolomna,Moscow Oblast,RU,55.0939,38.767,ardac
RU472,Королёв,Korolyov,Moscow Oblast,RU,55.919,37.815,ardac
RU473,Котельники,Kotelniki,Moscow Oblast,RU,55.6617,37.8673,ardac
RU474,Красноармейск,Krasnoarmeysk,Moscow Oblast,RU,56.1211,38.1458,ardac
RU475,Красногорск,Krasnogorsk,Moscow Oblast,RU,55.8218,37.3401,ardac
RU476,Краснозаводск,Krasnozavodsk,Moscow Oblast,RU,56.4405,38.2443,ardac
RU477,Краснознаменск,Krasnoznamensk,Moscow Oblast,RU,55.5972,37.0395,ardac
RU478,Кубинка,Kubinka,Moscow Oblast,RU,55.5755,36.6953,ardac
RU479,Куровское,Kurovskoye,Moscow Oblast,RU,55.5771,38.9226,ardac
RU480,Ликино-Дулёво,Likino-Dulyovo,Moscow Oblast,RU,55.7043,38.9569,ardac
RU481,Лобня,Lobnya,Moscow Oblast,RU,56.0104,37.4671,ardac
RU482,Лосино-Петровский,Losino-Petrovsky,Moscow Oblast,RU,55.8706,38.2033,ardac
RU483,Луховицы,Lukhovitsy,Moscow Oblast,RU,54.9656,39.0277,ardac
RU484,Лыткарино,Lytkarino,Moscow Oblast,RU,55.5822,37.908,ardac
RU485,Люберцы,Lyubertsy,Moscow Oblast,RU,55.6783,37.8938,ardac
RU486,Можайск,Mozhaysk,Moscow Oblast,RU,55.5065,36.0213,ardac
RU487,Мытищи,Mytishchi,Moscow Oblast,RU,55.9095,37.7339,ardac
RU488,Наро-Фоминск,Naro-Fominsk,Moscow Oblast,RU,55.3843,36.7235,ardac
RU489,Ногинск,Noginsk,Moscow Oblast,RU,55.8554,38.4412,ardac
RU490,Одинцово,Odintsovo,Moscow Oblast,RU,55.6782,37.2668,ardac
RU491,Орехово-Зуево,Orekhovo-Zuyevo,Moscow Oblast,RU,55.8083,38.979,ardac
RU492,Ожерелье,Ozherelye,Moscow Oblast,RU,54.8029,38.2738,ardac
RU493,Озёры,Ozyory,Moscow Oblast,RU,54.8542,38.5599,ardac
RU494,Павловский Посад,Pavlovsky Posad,Moscow Oblast,RU,55.7813,38.6508,ardac
RU495,Пересвет,Peresvet,Moscow Oblast,RU,56.4158,38.1736,ardac
RU496,Подольск,Podolsk,Moscow Oblast,RU,55.4309,37.5453,ardac
RU497,Протвино,Protvino,Moscow Oblast,RU,54.8708,37.2189,ardac
RU498,Пущино,Pushchino,Moscow Oblast,RU,54.8347,37.614,ardac
RU499,Пушкино,Pushkino,Moscow Oblast,RU,56.0104,37.8462,ardac
RU500,Раменское,Ramenskoye,Moscow Oblast,RU,55.5709,38.2282,ardac
RU501,Реутов,Reutov,Moscow Oblast,RU,55.7622,37.8566,ardac
RU502,Рошаль,Roshal,Moscow Oblast,RU,55.6583,39.8717,ardac
RU503,Руза,Ruza,Moscow Oblast,RU,55.6999,36.1947,ardac
RU504,Сергиев Посад,Sergiyev Posad,Moscow Oblast,RU,56.3153,38.136,ardac
RU505,Серпухов,Serpukhov,Moscow Oblast,RU,54.9155,37.4196,ardac
RU506,Шатура,Shatura,Moscow Oblast,RU,55.5784,39.5438,ardac
RU507,Щербинка,Shcherbinka,Moscow Oblast,RU,55.5101,37.5622,ardac
RU508,Щёлково,Shchyolkovo,Moscow Oblast,RU,55.9206,37.9916,ardac
RU509,Солнечногорск,Solnechnogorsk,Moscow Oblast,RU,56.1854,36.9782,ardac
RU510,Старая Купавна,Staraya Kupavna,Moscow Oblast,RU,55.807,38.1774,ardac
RU511,Ступино,Stupino,Moscow Oblast,RU,54.8866,38.0773,ardac
RU512,Талдом,Taldom,Moscow Oblast,RU,56.7309,37.528,ardac
RU513,Верея,Vereya,Moscow Oblast,RU,55.3432,36.1851,ardac
RU514,Видное,Vidnoye,Moscow Oblast,RU,55.5571,37.7087,ardac
RU515,Волоколамск,Volokolamsk,Moscow Oblast,RU,56.036,35.9583,ardac
RU516,Воскресенск,Voskresensk,Moscow Oblast,RU,55.3225,38.6817,ardac
RU517,Высоковск,Vysokovsk,Moscow Oblast,RU,56.3205,36.5522,ardac
RU518,Яхрома,Yakhroma,Moscow Oblast,RU,56.2899,37.4838,ardac
RU519,Егорьевск,Yegoryevsk,Moscow Oblast,RU,55.383,39.0356,ardac
RU520,Юбилейный,Yubileyny,Moscow Oblast,RU,55.9368,37.8436,ardac
RU521,Зарайск,Zaraysk,Moscow Oblast,RU,54.7586,38.8818,ardac
RU522,Железнодорожный,Zheleznodorozhny,Moscow Oblast,RU,55.7465,38.0091,ardac
RU523,Жуковский,Zhukovsky,Moscow Oblast,RU,55.5973,38.12,ardac
RU524,Звенигород,Zvenigorod,Moscow Oblast,RU,55.7294,36.8585,ardac
RU525,Апатиты,Apatity,Murmansk Oblast,RU,67.5686,33.4044,ardac
RU526,Гаджиево,Gadzhiyevo,Murmansk Oblast,RU,69.2504,33.3153,ardac
RU527,Кандалакша,Kandalaksha,Murmansk Oblast,RU,67.1508,32.4083,ardac
RU528,Кировск,Kirovsk,Murmansk Oblast,RU,59.8814,30.9855,ardac
RU529,Кола,Kola,Murmansk Oblast,RU,68.8806,33.0197,ardac
RU530,Ковдор,Kovdor,Murmansk Oblast,RU,67.563,30.4741,ardac
RU531,Мончегорск,Monchegorsk,Murmansk Oblast,RU,67.9399,32.9317,ardac
RU532,Мурманск,Murmansk,Murmansk Oblast,RU,68.9707,33.075,ardac
RU533,Оленегорск,Olenegorsk,Murmansk Oblast,RU,68.1407,33.2826,ardac
RU534,Островной,Ostrovnoy,Murmansk Oblast,RU,68.0544,39.5129,ardac
RU535,Полярный,Polyarny,Murmansk Oblast,RU,69.1995,33.4458,ardac
RU536,Полярные Зори,Polyarnye Zori,Murmansk Oblast,RU,67.3659,32.501,ardac
RU537,Североморск,Severomorsk,Murmansk Oblast,RU,69.0692,33.4167,ardac
RU538,Снежногорск,Snezhnogorsk,Murmansk Oblast,RU,69.1919,33.2324,ardac
RU539,Заозёрск,Zaozyorsk,Murmansk Oblast,RU,69.4009,32.4413,ardac
RU540,Заполярный,Zapolyarny,Murmansk Oblast,RU,69.4262,30.8199,ardac
RU541,Нарьян-Мар,Naryan-Mar,Nenets Autonomous Okrug,RU,67.638,53.0071,ardac
RU542,Арзамас,Arzamas,Nizhny Novgorod Oblast,RU,55.3988,43.8211,ardac
RU543,Балахна,Balakhna,Nizhny Novgorod Oblast,RU,56.4871,43.604,ardac
RU544,Богородск,Bogorodsk,Nizhny Novgorod Oblast,RU,55.8554,38.4412,ardac
RU545,Бор,Bor,Nizhny Novgorod Oblast,RU,56.3598,44.0543,ardac
RU546,Чкаловск,Chkalovsk,Nizhny Novgorod Oblast,RU,56.7649,43.2433,ardac
RU547,Дзержинск,Dzerzhinsk,Nizhny Novgorod Oblast,RU,56.2382,43.4617,ardac
RU548,Горбатов,Gorbatov,Nizhny Novgorod Oblast,RU,56.1328,43.0583,ardac
RU549,Городец,Gorodets,Nizhny Novgorod Oblast,RU,56.6471,43.476,ardac
RU550,Княгинино,Knyaginino,Nizhny Novgorod Oblast,RU,55.8213,45.0316,ardac
RU551,Кстово,Kstovo,Nizhny Novgorod Oblast,RU,56.1496,44.198,ardac
RU552,Кулебаки,Kulebaki,Nizhny Novgorod Oblast,RU,55.4293,42.5119,ardac
RU553,Лукоянов,Lukoyanov,Nizhny Novgorod Oblast,RU,55.0348,44.4927,ardac
RU554,Лысково,Lyskovo,Nizhny Novgorod Oblast,RU,56.0279,45.0383,ardac
RU555,Навашино,Navashino,Nizhny Novgorod Oblast,RU,55.5441,42.1887,ardac
RU556,Нижний Новгород,Nizhny Novgorod,Nizhny Novgorod Oblast,RU,56.3265,44.0051,ardac
RU557,Павлово,Pavlovo,Nizhny Novgorod Oblast,RU,55.9651,43.0711,ardac
RU558,Перевоз,Perevoz,Nizhny Novgorod Oblast,RU,55.5965,44.5448,ardac
RU559,Первомайск,Pervomaysk,Nizhny Novgorod Oblast,RU,54.8666,43.8054,ardac
RU560,Саров,Sarov,Nizhny Novgorod Oblast,RU,54.9392,43.3269,ardac
RU561,Семёнов,Semyonov,Nizhny Novgorod Oblast,RU,56.7883,44.4916,ardac
RU562,Сергач,Sergach,Nizhny Novgorod Oblast,RU,55.5328,45.4617,ardac
RU563,Шахунья,Shakhunya,Nizhny Novgorod Oblast,RU,57.6696,46.6281,ardac
RU564,Урень,Uren,Nizhny Novgorod Oblast,RU,57.4615,45.7879,ardac
RU565,Ветлуга,Vetluga,Nizhny Novgorod Oblast,RU,57.8529,45.7757,ardac
RU566,Володарск,Volodarsk,Nizhny Novgorod Oblast,RU,56.2243,43.1827,ardac
RU567,Ворсма,Vorsma,Nizhny Novgorod Oblast,RU,55.9881,43.2755,ardac
RU568,Выкса,Vyksa,Nizhny Novgorod Oblast,RU,55.3188,42.18,ardac
RU569,Заволжье,Zavolzhye,Nizhny Novgorod Oblast,RU,56.64,43.3994,ardac
RU570,Боровичи,Borovichi,Novgorod Oblast,RU,58.389,33.9068,ardac
RU571,Чудово,Chudovo,Novgorod Oblast,RU,59.1195,31.6666,ardac
RU572,Холм,Kholm,Novgorod Oblast,RU,57.1541,31.1709,ardac
RU573,Малая Вишера,Malaya Vishera,Novgorod Oblast,RU,58.8442,32.2186,ardac
RU574,Окуловка,Okulovka,Novgorod Oblast,RU,58.3741,33.3009,ardac
RU575,Пестово,Pestovo,Novgorod Oblast,RU,58.5992,35.8231,ardac
RU576,Сольцы,Soltsy,Novgorod Oblast,RU,58.119,30.3097,ardac
RU577,Старая Русса,Staraya Russa,Novgorod Oblast,RU,57.9899,31.3635,ardac
RU578,Валдай,Valday,Novgorod Oblast,RU,57.9791,33.2538,ardac
RU579,Великий Новгород,Veliky Novgorod,Novgorod Oblast,RU,58.521,31.2758,ardac
RU580,Барабинск,Barabinsk,Novosibirsk Oblast,RU,55.3568,78.3503,ardac
RU581,Бердск,Berdsk,Novosibirsk Oblast,RU,54.758,83.1068,ardac
RU582,Болотное,Bolotnoye,Novosibirsk Oblast,RU,55.6716,84.3886,ardac
RU583,Черепаново,Cherepanovo,Novosibirsk Oblast,RU,54.2261,83.3705,ardac
RU584,Чулым,Chulym,Novosibirsk Oblast,RU,55.09,80.9705,ardac
RU585,Искитим,Iskitim,Novosibirsk Oblast,RU,54.6426,83.3036,ardac
RU586,Карасук,Karasuk,Novosibirsk Oblast,RU,53.7345,78.0324,ardac
RU587,Каргат,Kargat,Novosibirsk Oblast,RU,55.193,80.2828,ardac
RU588,Купино,Kupino,Novosibirsk Oblast,RU,54.3649,77.3085,ardac
RU589,Куйбышев,Kuybyshev,Novosibirsk Oblast,RU,55.4454,78.3222,ardac
RU590,Новосибирск,Novosibirsk,Novosibirsk Oblast,RU,55.0288,82.9227,ardac
RU591,Обь,Ob,Novosibirsk Oblast,RU,55.5786,83.5967,ardac
RU592,Татарск,Tatarsk,Novosibirsk Oblast,RU,55.217,75.9622,ardac
RU593,Тогучин,Toguchin,Novosibirsk Oblast,RU,55.2377,84.4025,ardac
RU594,Исилькуль,Isilkul,Omsk Oblast,RU,54.9049,71.26,ardac
RU595,Калачинск,Kalachinsk,Omsk Oblast,RU,55.0491,74.5824,ardac
RU596,Называевск,Nazyvayevsk,Omsk Oblast,RU,55.5649,71.3494,ardac
RU597,Омск,Omsk,Omsk Oblast,RU,54.9914,73.3715,ardac
RU598,Тара,Tara,Omsk Oblast,RU,56.9026,74.3699,ardac
RU599,Тюкалинск,Tyukalinsk,Omsk Oblast,RU,55.8706,72.1966,ardac
RU600,Абдулино,Abdulino,Orenburg Oblast,RU,53.6828,53.6557,ardac
RU601,Бугуруслан,Buguruslan,Orenburg Oblast,RU,53.6528,52.434,ardac
RU602,Бузулук,Buzuluk,Orenburg Oblast,RU,52.7587,52.2883,ardac
RU603,Гай,Gay,Orenburg Oblast,RU,51.4714,58.4405,ardac
RU604,Кувандык,Kuvandyk,Orenburg Oblast,RU,51.4788,57.3508,ardac
RU605,Медногорск,Mednogorsk,Orenburg Oblast,RU,51.4049,57.5803,ardac
RU606,Новотроицк,Novotroitsk,Orenburg Oblast,RU,51.1964,58.2985,ardac
RU607,Оренбург,Orenburg,Orenburg Oblast,RU,51.7671,55.0979,ardac
RU608,Орск,Orsk,Orenburg Oblast,RU,51.2305,58.4738,ardac
RU609,Соль-Илецк,Sol-Iletsk,Orenburg Oblast,RU,51.1613,54.9964,ardac
RU610,Сорочинск,Sorochinsk,Orenburg Oblast,RU,52.427,53.1542,ardac
RU611,Ясный,Yasny,Orenburg Oblast,RU,51.037,59.8733,ardac
RU612,Болхов,Bolkhov,Oryol Oblast,RU,53.449,36.0022,ardac
RU613,Дмитровск,Dmitrovsk,Oryol Oblast,RU,52.5094,35.1457,ardac
RU614,Ливны,Livny,Oryol Oblast,RU,52.4254,37.6089,ardac
RU615,Малоархангельск,Maloarkhangelsk,Oryol Oblast,RU,52.3996,36.504,ardac
RU616,Мценск,Mtsensk,Oryol Oblast,RU,53.279,36.5761,ardac
RU617,Новосиль,Novosil,Oryol Oblast,RU,52.9729,37.0419,ardac
RU618,Орёл,Oryol,Oryol Oblast,RU,52.968,36.0995,ardac
RU619,Белинский,Belinsky,Penza Oblast,RU,52.9669,43.4131,ardac
RU620,Городище,Gorodishche,Penza Oblast,RU,48.8101,44.4761,ardac
RU621,Каменка,Kamenka,Penza Oblast,RU,53.185,44.0529,ardac
RU622,Кузнецк,Kuznetsk,Penza Oblast,RU,53.1125,46.6007,ardac
RU623,Никольск,Nikolsk,Penza Oblast,RU,53.7146,46.0852,ardac
RU624,Нижний Ломов,Nizhny Lomov,Penza Oblast,RU,53.53,43.6736,ardac
RU625,Пенза,Penza,Penza Oblast,RU,53.1938,45.0067,ardac
RU626,Сердобск,Serdobsk,Penza Oblast,RU,52.4559,44.2029,ardac
RU627,Спасск,Spassk,Penza Oblast,RU,44.598,132.8157,ardac
RU628,Сурск,Sursk,Penza Oblast,RU,53.0729,45.6861,ardac
RU629,Заречный,Zarechny,Penza Oblast,RU,56.815,61.3206,ardac
RU630,Александровск,Alexandrovsk,Perm Krai,RU,59.1594,57.5861,ardac
RU631,Березники,Berezniki,Perm Krai,RU,59.4084,56.8037,ardac
RU632,Чайковский,Chaykovsky,Perm Krai,RU,56.7787,54.1501,ardac
RU633,Чердынь,Cherdyn,Perm Krai,RU,60.4046,56.4753,ardac
RU634,Чернушка,Chernushka,Perm Krai,RU,56.5153,56.0765,ardac
RU635,Чусовой,Chusovoy,Perm Krai,RU,58.2821,57.8211,ardac
RU636,Чёрмоз,Chyormoz,Perm Krai,RU,58.785,56.1534,ardac
RU637,Добрянка,Dobryanka,Perm Krai,RU,58.4619,56.4203,ardac
RU638,Горнозаводск,Gornozavodsk,Perm Krai,RU,58.374,58.3251,ardac
RU639,Гремячинск,Gremyachinsk,Perm Krai,RU,58.567,57.8504,ardac
RU640,Губаха,Gubakha,Perm Krai,RU,58.8424,57.5551,ardac
RU641,Кизел,Kizel,Perm Krai,RU,59.0493,57.6535,ardac
RU642,Краснокамск,Krasnokamsk,Perm Krai,RU,58.0833,55.77,ardac
RU643,Красновишерск,Krasnovishersk,Perm Krai,RU,60.4055,57.082,ardac
RU644,Кудымкар,Kudymkar,Perm Krai,RU,59.0146,54.6641,ardac
RU645,Кунгур,Kungur,Perm Krai,RU,57.4288,56.9443,ardac
RU646,Лысьва,Lysva,Perm Krai,RU,58.0996,57.7965,ardac
RU647,Нытва,Nytva,Perm Krai,RU,57.9434,55.3316,ardac
RU648,Очёр,Ochyor,Perm Krai,RU,57.8836,54.7158,ardac
RU649,Оханск,Okhansk,Perm Krai,RU,57.7218,55.386,ardac
RU650,Оса,Osa,Perm Krai,RU,57.2829,55.4602,ardac
RU651,Пермь,Perm,Perm Krai,RU,58.015,56.2467,ardac
RU652,Соликамск,Solikamsk,Perm Krai,RU,59.6494,56.7796,ardac
RU653,Усолье,Usolye,Perm Krai,RU,59.418,56.6831,ardac
RU654,Верещагино,Vereshchagino,Perm Krai,RU,58.0721,54.6675,ardac
RU655,Арсеньев,Arsenyev,Primorsky Krai,RU,44.1644,133.2704,ardac
RU656,Артём,Artyom,Primorsky Krai,RU,43.357,132.1854,ardac
RU657,Большой Камень,Bolshoy Kamen,Primorsky Krai,RU,43.1121,132.3509,ardac
RU658,Дальнегорск,Dalnegorsk,Primorsky Krai,RU,44.5595,135.5759,ardac
RU659,Дальнереченск,Dalnerechensk,Primorsky Krai,RU,45.9337,133.7349,ardac
RU660,Фокино,Fokino,Primorsky Krai,RU,42.9772,132.4049,ardac
RU661,Лесозаводск,Lesozavodsk,Primorsky Krai,RU,45.4653,133.4047,ardac
RU662,Находка,Nakhodka,Primorsky Krai,RU,42.8246,132.8926,ardac
RU663,Партизанск,Partizansk,Primorsky Krai,RU,43.1407,133.1433,ardac
RU664,Спасск-Дальний,Spassk-Dalny,Primorsky Krai,RU,44.598,132.8157,ardac
RU665,Уссурийск,Ussuriysk,Primorsky Krai,RU,43.7972,131.9521,ardac
RU666,Владивосток,Vladivostok,Primorsky Krai,RU,43.1151,131.8856,ardac
RU667,Дно,Dno,Pskov Oblast,RU,57.8288,29.9611,ardac
RU668,Гдов,Gdov,Pskov Oblast,RU,58.7431,27.8157,ardac
RU669,Невель,Nevel,Pskov Oblast,RU,56.0176,29.9171,ardac
RU670,Новоржев,Novorzhev,Pskov Oblast,RU,57.0312,29.3329,ardac
RU671,Новосокольники,Novosokolniki,Pskov Oblast,RU,56.3474,30.1529,ardac
RU672,Опочка,Opochka,Pskov Oblast,RU,56.7117,28.6568,ardac
RU673,Остров,Ostrov,Pskov Oblast,RU,57.3446,28.3578,ardac
RU674,Печоры,Pechory,Pskov Oblast,RU,57.8133,27.6082,ardac
RU675,Порхов,Porkhov,Pskov Oblast,RU,57.7653,29.5519,ardac
RU676,Псков,Pskov,Pskov Oblast,RU,57.8174,28.3343,ardac
RU677,Пустошка,Pustoshka,Pskov Oblast,RU,56.3351,29.3685,ardac
RU678,Пыталово,Pytalovo,Pskov Oblast,RU,57.0629,27.9211,ardac
RU679,Себеж,Sebezh,Pskov Oblast,RU,56.2774,28.4849,ardac
RU680,Великие Луки,Velikiye Luki,Pskov Oblast,RU,56.3424,30.5279,ardac
RU681,Адыгейск,Adygeysk,Republic of Adygea,RU,44.8834,39.191,ardac
RU682,Майкоп,Maykop,Republic of Adygea,RU,44.6062,40.1041,ardac
RU683,Агидель,Agidel,Republic of Bashkortostan,RU,55.8993,53.9374,ardac
RU684,Баймак,Baymak,Republic of Bashkortostan,RU,52.5979,58.3076,ardac
RU685,Белебей,Belebey,Republic of Bashkortostan,RU,54.1065,54.1078,ardac
RU686,Белорецк,Beloretsk,Republic of Bashkortostan,RU,53.9681,58.41,ardac
RU687,Бирск,Birsk,Republic of Bashkortostan,RU,55.4207,55.5407,ardac
RU688,Благовещенск,Blagoveshchensk,Republic of Bashkortostan,RU,50.26,127.5337,ardac
RU689,Давлеканово,Davlekanovo,Republic of Bashkortostan,RU,54.213,55.0307,ardac
RU690,Дюртюли,Dyurtyuli,Republic of Bashkortostan,RU,55.4906,54.8639,ardac
RU691,Ишимбай,Ishimbay,Republic of Bashkortostan,RU,53.4546,56.0439,ardac
RU692,Кумертау,Kumertau,Republic of Bashkortostan,RU,52.761,55.7965,ardac
RU693,Мелеуз,Meleuz,Republic of Bashkortostan,RU,52.9633,55.9286,ardac
RU694,Межгорье,Mezhgorye,Republic of Bashkortostan,RU,54.241,57.9737,ardac
RU695,Нефтекамск,Neftekamsk,Republic of Bashkortostan,RU,56.0884,54.2478,ardac
RU696,Октябрьский,Oktyabrsky,Republic of Bashkortostan,RU,54.481,53.466,ardac
RU697,Салават,Salavat,Republic of Bashkortostan,RU,53.3617,55.9246,ardac
RU698,Сибай,Sibay,Republic of Bashkortostan,RU,52.7204,58.6655,ardac
RU699,Стерлитамак,Sterlitamak,Republic of Bashkortostan,RU,53.6324,55.9523,ardac
RU700,Туймазы,Tuymazy,Republic of Bashkortostan,RU,54.6065,53.6974,ardac
RU701,Учалы,Uchaly,Republic of Bashkortostan,RU,54.3166,59.3846,ardac
RU702,Уфа,Ufa,Republic of Bashkortostan,RU,54.7261,55.9475,ardac
RU703,Янаул,Yanaul,Republic of Bashkortostan,RU,56.2714,54.9295,ardac
RU704,Бабушкин,Babushkin,Republic of Buryatia,RU,51.7162,105.8635,ardac
RU705,Гусиноозёрск,Gusinoozyorsk,Republic of Buryatia,RU,51.2895,106.527,ardac
RU706,Кяхта,Kyakhta,Republic of Buryatia,RU,50.3532,106.4492,ardac
RU707,Северобайкальск,Severobaykalsk,Republic of Buryatia,RU,55.636,109.3356,ardac
RU708,Улан-Удэ,Ulan-Ude,Republic of Buryatia,RU,51.8358,107.5839,ardac
RU709,Закаменск,Zakamensk,Republic of Buryatia,RU,50.3778,103.2915,ardac
RU710,Абакан,Abakan,Republic of Khakassia,RU,53.7207,91.4406,ardac
RU711,Абаза,Abaza,Republic of Khakassia,RU,52.6511,90.1012,ardac
RU712,Черногорск,Chernogorsk,Republic of Khakassia,RU,53.8282,91.3132,ardac
RU713,Саяногорск,Sayanogorsk,Republic of Khakassia,RU,53.0899,91.4128,ardac
RU714,Сорск,Sorsk,Republic of Khakassia,RU,54.0016,90.2526,ardac
RU715,Ардатов,Ardatov,Republic of Mordovia,RU,54.845,46.2386,ardac
RU716,Инсар,Insar,Republic of Mordovia,RU,53.8677,44.3714,ardac
RU717,Ковылкино,Kovylkino,Republic of Mordovia,RU,54.0381,43.9156,ardac
RU718,Краснослободск,Krasnoslobodsk,Republic of Mordovia,RU,54.4307,43.7779,ardac
RU719,Рузаевка,Ruzayevka,Republic of Mordovia,RU,54.0587,44.9544,ardac
RU720,Саранск,Saransk,Republic of Mordovia,RU,54.1867,45.1838,ardac
RU721,Темников,Temnikov,Republic of Mordovia,RU,54.6315,43.211,ardac
RU722,Алагир,Alagir,Republic of North Ossetia–Alania,RU,43.0398,44.2205,ardac
RU723,Ардон,Ardon,Republic of North Ossetia–Alania,RU,43.1758,44.3055,ardac
RU724,Беслан,Beslan,Republic of North Ossetia–Alania,RU,43.1876,44.5376,ardac
RU725,Дигора,Digora,Republic of North Ossetia–Alania,RU,43.16,44.1585,ardac
RU726,Моздок,Mozdok,Republic of North Ossetia–Alania,RU,43.7356,44.6536,ardac
RU727,Владикавказ,Vladikavkaz,Republic of North Ossetia–Alania,RU,43.0246,44.6821,ardac
RU728,Агрыз,Agryz,Republic of Tatarstan,RU,56.5255,52.9972,ardac
RU729,Альметьевск,Almetyevsk,Republic of Tatarstan,RU,54.9005,52.2964,ardac
RU730,Азнакаево,Aznakayevo,Republic of Tatarstan,RU,54.863,53.0792,ardac
RU731,Бавлы,Bavly,Republic of Tatarstan,RU,54.4031,53.2356,ardac
RU732,Болгар,Bolgar,Republic of Tatarstan,RU,54.9747,49.0302,ardac
RU733,Бугульма,Bugulma,Republic of Tatarstan,RU,54.5384,52.7956,ardac
RU734,Буинск,Buinsk,Republic of Tatarstan,RU,54.9724,48.2927,ardac
RU735,Чистополь,Chistopol,Republic of Tatarstan,RU,55.3715,50.6367,ardac
RU736,Иннополис,Innopolis,Republic of Tatarstan,RU,55.7522,48.7446,ardac
RU737,Казань,Kazan,Republic of Tatarstan,RU,55.7824,49.1242,ardac
RU738,Лаишево,Laishevo,Republic of Tatarstan,RU,55.4043,49.5468,ardac
RU739,Лениногорск,Leninogorsk,Republic of Tatarstan,RU,54.5994,52.4469,ardac
RU740,Мамадыш,Mamadysh,Republic of Tatarstan,RU,55.7091,51.4089,ardac
RU741,Менделеевск,Mendeleyevsk,Republic of Tatarstan,RU,55.8879,52.3084,ardac
RU742,Мензелинск,Menzelinsk,Republic of Tatarstan,RU,55.7256,53.1072,ardac
RU743,Набережные Челны,Naberezhnye Chelny,Republic of Tatarstan,RU,55.742,52.3992,ardac
RU744,Нижнекамск,Nizhnekamsk,Republic of Tatarstan,RU,55.6413,51.816,ardac
RU745,Нурлат,Nurlat,Republic of Tatarstan,RU,54.4297,50.802,ardac
RU746,Тетюши,Tetyushi,Republic of Tatarstan,RU,54.9343,48.832,ardac
RU747,Елабуга,Yelabuga,Republic of Tatarstan,RU,55.7577,52.054,ardac
RU748,Заинск,Zainsk,Republic of Tatarstan,RU,55.2867,52.0056,ardac
RU749,Зеленодольск,Zelenodolsk,Republic of Tatarstan,RU,55.8587,48.5575,ardac
RU750,Арск,Arsk,Republic of Tatarstan,RU,56.091,49.8772,ardac
RU751,Аксай,Aksay,Rostov Oblast,RU,47.2687,39.8614,ardac
RU752,Азов,Azov,Rostov Oblast,RU,47.1139,39.426,ardac
RU753,Батайск,Bataysk,Rostov Oblast,RU,47.1385,39.7423,ardac
RU754,Белая Калитва,Belaya Kalitva,Rostov Oblast,RU,48.1752,40.7902,ardac
RU755,Донецк,Donetsk,Rostov Oblast,RU,48.3383,39.9509,ardac
RU756,Гуково,Gukovo,Rostov Oblast,RU,48.046,39.9487,ardac
RU757,Каменск-Шахтинский,Kamensk-Shakhtinsky,Rostov Oblast,RU,48.2755,40.2318,ardac
RU758,Константиновск,Konstantinovsk,Rostov Oblast,RU,47.5824,41.0971,ardac
RU759,Красный Сулин,Krasny Sulin,Rostov Oblast,RU,47.8932,40.058,ardac
RU760,Миллерово,Millerovo,Rostov Oblast,RU,48.9196,40.3919,ardac
RU761,Морозовск,Morozovsk,Rostov Oblast,RU,48.3524,41.8288,ardac
RU762,Новочеркасск,Novocherkassk,Rostov Oblast,RU,47.4107,40.102,ardac
RU763,Новошахтинск,Novoshakhtinsk,Rostov Oblast,RU,47.7963,39.8936,ardac
RU764,Пролетарск,Proletarsk,Rostov Oblast,RU,46.7002,41.7241,ardac
RU765,Ростов-на-Дону,Rostov-on-Don,Rostov Oblast,RU,47.2217,39.7096,ardac
RU766,Сальск,Salsk,Rostov Oblast,RU,46.4767,41.541,ardac
RU767,Семикаракорск,Semikarakorsk,Rostov Oblast,RU,47.5164,40.8123,ardac
RU768,Шахты,Shakhty,Rostov Oblast,RU,47.7119,40.2116,ardac
RU769,Таганрог,Taganrog,Rostov Oblast,RU,47.2392,38.8755,ardac
RU770,Цимлянск,Tsimlyansk,Rostov Oblast,RU,47.6506,42.0982,ardac
RU771,Волгодонск,Volgodonsk,Rostov Oblast,RU,47.5183,42.1526,ardac
RU772,Зерноград,Zernograd,Rostov Oblast,RU,46.8448,40.3048,ardac
RU773,Зверево,Zverevo,Rostov Oblast,RU,48.0206,40.1186,ardac
RU774,Касимов,Kasimov,Ryazan Oblast,RU,54.9397,41.3952,ardac
RU775,Кораблино,Korablino,Ryazan Oblast,RU,53.9269,40.0345,ardac
RU776,Михайлов,Mikhaylov,Ryazan Oblast,RU,54.2302,39.0275,ardac
RU777,Новомичуринск,Novomichurinsk,Ryazan Oblast,RU,54.043,39.744,ardac
RU778,Рязань,Ryazan,Ryazan Oblast,RU,54.6703,39.6884,ardac
RU779,Ряжск,Ryazhsk,Ryazan Oblast,RU,53.7089,40.063,ardac
RU780,Рыбное,Rybnoye,Ryazan Oblast,RU,54.7268,39.5089,ardac
RU781,Сасово,Sasovo,Ryazan Oblast,RU,54.3539,41.9266,ardac
RU782,Шацк,Shatsk,Ryazan Oblast,RU,54.0287,41.7126,ardac
RU783,Скопин,Skopin,Ryazan Oblast,RU,53.8235,39.5493,ardac
RU784,Спас-Клепики,Spas-Klepiki,Ryazan Oblast,RU,55.1309,40.176,ardac
RU785,Спасск-Рязанский,Spassk-Ryazansky,Ryazan Oblast,RU,54.4079,40.3805,ardac
RU786,Колпино,Kolpino,Saint Petersburg,RU,56.0266,29.9843,ardac
RU787,Красное Село,Krasnoye Selo,Saint Petersburg,RU,60.0434,46.1314,ardac
RU788,Кронштадт,Kronstadt,Saint Petersburg,RU,59.9908,29.7747,ardac
RU789,Ломоносов,Lomonosov,Saint Petersburg,RU,59.9103,29.7762,ardac
RU790,Павловск,Pavlovsk,Saint Petersburg,RU,50.452,40.14,ardac
RU791,Петергоф,Petergof,Saint Petersburg,RU,59.8818,29.912,ardac
RU792,Пушкин,Pushkin,Saint Petersburg,RU,59.6878,30.3407,ardac
RU793,Санкт-Петербург,Saint Petersburg,Saint Petersburg,RU,59.9607,30.1587,ardac
RU794,Сестрорецк,Sestroretsk,Saint Petersburg,RU,60.0931,29.9585,ardac
RU795,Зеленогорск,Zelenogorsk,Saint Petersburg,RU,56.1136,94.5893,ardac
RU796,Алдан,Aldan,Sakha Republic,RU,58.6084,125.3882,ardac
RU797,Ленск,Lensk,Sakha Republic,RU,60.7145,114.9172,ardac
RU798,Мирный,Mirny,Sakha Republic,RU,62.5411,113.9786,ardac
RU799,Нерюнгри,Neryungri,Sakha Republic,RU,56.6579,124.7123,ardac
RU800,Нюрба,Nyurba,Sakha Republic,RU,63.2866,118.3541,ardac
RU801,Олёкминск,Olyokminsk,Sakha Republic,RU,60.3729,120.4035,ardac
RU802,Покровск,Pokrovsk,Sakha Republic,RU,61.4833,129.1541,ardac
RU803,Среднеколымск,Srednekolymsk,Sakha Republic,RU,67.4555,153.7071,ardac
RU804,Томмот,Tommot,Sakha Republic,RU,58.9685,126.2669,ardac
RU805,Удачный,Udachny,Sakha Republic,RU,66.4118,112.2517,ardac
RU806,Верхоянск,Verkhoyansk,Sakha Republic,RU,67.5495,133.3875,ardac
RU807,Вилюйск,Vilyuysk,Sakha Republic,RU,63.7541,121.6265,ardac
RU808,Якутск,Yakutsk,Sakha Republic,RU,62.0274,129.732,ardac
RU809,Александровск-Сахалинский,Alexandrovsk-Sakhalinsky,Sakhalin Oblast,RU,50.8975,142.1592,ardac
RU810,Анива,Aniva,Sakhalin Oblast,RU,46.7148,142.5275,ardac
RU811,Долинск,Dolinsk,Sakhalin Oblast,RU,47.3241,142.7979,ardac
RU812,Холмск,Kholmsk,Sakhalin Oblast,RU,47.0546,142.0487,ardac
RU813,Корсаков,Korsakov,Sakhalin Oblast,RU,46.6328,142.781,ardac
RU814,Курильск,Kurilsk,Sakhalin Oblast,RU,45.229,147.8752,ardac
RU815,Макаров,Makarov,Sakhalin Oblast,RU,48.6243,142.7814,ardac
RU816,Невельск,Nevelsk,Sakhalin Oblast,RU,46.6878,141.8601,ardac
RU817,Оха,Okha,Sakhalin Oblast,RU,53.5892,142.9497,ardac
RU818,Поронайск,Poronaysk,Sakhalin Oblast,RU,49.2216,143.1016,ardac
RU819,Северо-Курильск,Severo-Kurilsk,Sakhalin Oblast,RU,50.6683,156.1154,ardac
RU820,Шахтерск,Shakhtyorsk,Sakhalin Oblast,RU,49.1592,142.107,ardac
RU821,Томари,Tomari,Sakhalin Oblast,RU,47.7612,142.0635,ardac
RU822,Углегорск,Uglegorsk,Sakhalin Oblast,RU,49.0793,142.0634,ardac
RU823,Южно-Сахалинск,Yuzhno-Sakhalinsk,Sakhalin Oblast,RU,46.9574,142.7274,ardac
RU824,Чапаевск,Chapayevsk,Samara Oblast,RU,52.9813,49.7112,ardac
RU825,Кинель,Kinel,Samara Oblast,RU,53.2197,50.6332,ardac
RU826,Нефтегорск,"Neftegorsk, Samara Oblast",Samara Oblast,RU,44.3556,39.7035,ardac
RU827,Новокуйбышевск,Novokuybyshevsk,Samara Oblast,RU,53.0992,49.9484,ardac
RU828,Октябрьск,Oktyabrsk,Samara Oblast,RU,53.1642,48.6712,ardac
RU829,Отрадный,Otradny,Samara Oblast,RU,53.3762,51.3481,ardac
RU830,Озерное,Ozernoe,Samara Oblast,RU,55.1243,36.0478,ardac
RU831,Похвистнево,Pokhvistnevo,Samara Oblast,RU,53.6468,52.1233,ardac
RU832,Самара,Samara,Samara Oblast,RU,53.2195,50.2039,ardac
RU833,Сызрань,Syzran,Samara Oblast,RU,53.1554,48.4741,ardac
RU834,Тольятти,Tolyatti,Samara Oblast,RU,53.515,49.4073,ardac
RU835,Жигулёвск,Zhigulyovsk,Samara Oblast,RU,53.4005,49.4956,ardac
RU836,Аркадак,Arkadak,Saratov Oblast,RU,51.9429,43.4891,ardac
RU837,Аткарск,Atkarsk,Saratov Oblast,RU,51.875,44.9975,ardac
RU838,Балаково,Balakovo,Saratov Oblast,RU,52.0181,47.8191,ardac
RU839,Балашов,Balashov,Saratov Oblast,RU,51.5547,43.1431,ardac
RU840,Энгельс,Engels,Saratov Oblast,RU,51.5014,46.1233,ardac
RU841,Калининск,Kalininsk,Saratov Oblast,RU,51.4999,44.4846,ardac
RU842,Хвалынск,Khvalynsk,Saratov Oblast,RU,52.4955,48.1059,ardac
RU843,Красноармейск,Krasnoarmeysk,Saratov Oblast,RU,56.1211,38.1458,ardac
RU844,Красный Кут,Krasny Kut,Saratov Oblast,RU,50.9459,46.9725,ardac
RU845,Маркс,Marks,Saratov Oblast,RU,51.707,46.7484,ardac
RU846,Новоузенск,Novouzensk,Saratov Oblast,RU,50.4623,48.1355,ardac
RU847,Петровск,Petrovsk,Saratov Oblast,RU,52.3094,45.389,ardac
RU848,Пугачев,Pugachyov,Saratov Oblast,RU,52.0121,48.811,ardac
RU849,Ртищево,Rtishchevo,Saratov Oblast,RU,52.2599,43.7877,ardac
RU850,Саратов,Saratov,Saratov Oblast,RU,51.53,46.0347,ardac
RU851,Шиханы,Shikhany,Saratov Oblast,RU,52.1148,47.1985,ardac
RU852,Вольск,Volsk,Saratov Oblast,RU,52.0428,47.386,ardac
RU853,Ершов,Yershov,Saratov Oblast,RU,51.3498,48.2657,ardac
RU854,Демидов,Demidov,Smolensk Oblast,RU,55.2644,31.5178,ardac
RU855,Десногорск,Desnogorsk,Smolensk Oblast,RU,54.1517,33.2881,ardac
RU856,Дорогобуж,Dorogobuzh,Smolensk Oblast,RU,54.9148,33.2989,ardac
RU857,Духовщина,Dukhovshchina,Smolensk Oblast,RU,55.1908,32.406,ardac
RU858,Гагарин,Gagarin,Smolensk Oblast,RU,55.5534,34.9905,ardac
RU859,Починок,Pochinok,Smolensk Oblast,RU,54.4048,32.4408,ardac
RU860,Рославль,Roslavl,Smolensk Oblast,RU,53.9448,32.8479,ardac
RU861,Рудня,Rudnya,Smolensk Oblast,RU,54.9471,31.0906,ardac
RU862,Сафоново,Safonovo,Smolensk Oblast,RU,55.1084,33.2377,ardac
RU863,Смоленск,Smolensk,Smolensk Oblast,RU,54.7814,32.0461,ardac
RU864,Сычёвка,Sychyovka,Smolensk Oblast,RU,55.827,34.277,ardac
RU865,Велиж,Velizh,Smolensk Oblast,RU,55.6045,31.195,ardac
RU866,Вязьма,Vyazma,Smolensk Oblast,RU,55.2104,34.2995,ardac
RU867,Ярцево,Yartsevo,Smolensk Oblast,RU,55.0662,32.6884,ardac
RU868,Ельня,Yelnya,Smolensk Oblast,RU,54.5765,33.1892,ardac
RU869,Благодарный,Blagodarny,Stavropol Krai,RU,45.1006,43.4372,ardac
RU870,Будённовск,Budyonnovsk,Stavropol Krai,RU,44.7805,44.1634,ardac
RU871,Георгиевск,Georgiyevsk,Stavropol Krai,RU,44.1479,43.4742,ardac
RU872,Ипатово,Ipatovo,Stavropol Krai,RU,45.7197,42.9163,ardac
RU873,Изобильный,Izobilny,Stavropol Krai,RU,45.3741,41.7121,ardac
RU874,Кисловодск,Kislovodsk,Stavropol Krai,RU,43.9055,42.7157,ardac
RU875,Лермонтов,Lermontov,Stavropol Krai,RU,44.105,42.9731,ardac
RU876,Михайловск,Mikhaylovsk,Stavropol Krai,RU,45.1325,42.0263,ardac
RU877,Минеральные Воды,Mineralnye Vody,Stavropol Krai,RU,44.2107,43.135,ardac
RU878,Нефтекумск,Neftekumsk,Stavropol Krai,RU,44.7522,44.9851,ardac
RU879,Невинномысск,Nevinnomyssk,Stavropol Krai,RU,44.6246,41.9476,ardac
RU880,Новоалександровск,Novoalexandrovsk,Stavropol Krai,RU,45.4953,41.2199,ardac
RU881,Новопавловск,Novopavlovsk,Stavropol Krai,RU,43.9619,43.6311,ardac
RU882,Пятигорск,Pyatigorsk,Stavropol Krai,RU,44.0398,43.0707,ardac
RU883,Ставрополь,Stavropol,Stavropol Krai,RU,45.0433,41.9691,ardac
RU884,Светлоград,Svetlograd,Stavropol Krai,RU,45.3406,42.8459,ardac
RU885,Ессентуки,Yessentuki,Stavropol Krai,RU,44.047,42.8577,ardac
RU886,Зеленокумск,Zelenokumsk,Stavropol Krai,RU,44.4032,43.8842,ardac
RU887,Железноводск,Zheleznovodsk,Stavropol Krai,RU,44.1424,43.0091,ardac
RU888,Алапаевск,Alapayevsk,Sverdlovsk Oblast,RU,57.8508,61.695,ardac
RU889,Арамиль,Aramil,Sverdlovsk Oblast,RU,56.6963,60.8331,ardac
RU890,Артёмовский,Artyomovsky,Sverdlovsk Oblast,RU,57.3432,61.8775,ardac
RU891,Асбест,Asbest,Sverdlovsk Oblast,RU,57.0053,61.4581,ardac
RU892,Березовский,Berezovsky,Sverdlovsk Oblast,RU,55.6697,86.2752,ardac
RU893,Богданович,Bogdanovich,Sverdlovsk Oblast,RU,56.7683,62.0521,ardac
RU894,Дегтярск,Degtyarsk,Sverdlovsk Oblast,RU,56.6983,60.0868,ardac
RU895,Ирбит,Irbit,Sverdlovsk Oblast,RU,57.674,63.0638,ardac
RU896,Ивдель,Ivdel,Sverdlovsk Oblast,RU,60.6973,60.4173,ardac
RU897,Качканар,Kachkanar,Sverdlovsk Oblast,RU,58.6982,59.481,ardac
RU898,Каменск-Уральский,Kamensk-Uralsky,Sverdlovsk Oblast,RU,56.4155,61.9178,ardac
RU899,Камышлов,Kamyshlov,Sverdlovsk Oblast,RU,56.8462,62.7122,ardac
RU900,Карпинск,Karpinsk,Sverdlovsk Oblast,RU,59.7668,60.0009,ardac
RU901,Кировград,Kirovgrad,Sverdlovsk Oblast,RU,57.4265,60.0665,ardac
RU902,Краснотурьинск,Krasnoturyinsk,Sverdlovsk Oblast,RU,59.7646,60.1936,ardac
RU903,Красноуфимск,Krasnoufimsk,Sverdlovsk Oblast,RU,56.6181,57.7713,ardac
RU904,Красноуральск,Krasnouralsk,Sverdlovsk Oblast,RU,58.3571,60.0374,ardac
RU905,Кушва,Kushva,Sverdlovsk Oblast,RU,58.2817,59.7625,ardac
RU906,Лесной,Lesnoy,Sverdlovsk Oblast,RU,58.6364,59.7897,ardac
RU907,Михайловск,Mikhaylovsk,Sverdlovsk Oblast,RU,45.1325,42.0263,ardac
RU908,Невьянск,Nevyansk,Sverdlovsk Oblast,RU,57.4924,60.2105,ardac
RU909,Нижние Серги,Nizhniye Sergi,Sverdlovsk Oblast,RU,56.6619,59.3,ardac
RU910,Нижний Тагил,Nizhny Tagil,Sverdlovsk Oblast,RU,57.9051,59.9508,ardac
RU911,Нижняя Салда,Nizhnyaya Salda,Sverdlovsk Oblast,RU,58.0714,60.7147,ardac
RU912,Нижняя Тура,Nizhnyaya Tura,Sverdlovsk Oblast,RU,58.6208,59.8473,ardac
RU913,Новая Ляля,Novaya Lyalya,Sverdlovsk Oblast,RU,59.0527,60.596,ardac
RU914,Новоуральск,Novouralsk,Sverdlovsk Oblast,RU,57.247,60.0958,ardac
RU915,Первоуральск,Pervouralsk,Sverdlovsk Oblast,RU,56.9051,59.9432,ardac
RU916,Полевской,Polevskoy,Sverdlovsk Oblast,RU,56.4421,60.1659,ardac
RU917,Ревда,Revda,Sverdlovsk Oblast,RU,56.8001,59.9087,ardac
RU918,Реж,Rezh,Sverdlovsk Oblast,RU,57.3706,61.4043,ardac
RU919,Серов,Serov,Sverdlovsk Oblast,RU,59.6051,60.5733,ardac
RU920,Североуральск,Severouralsk,Sverdlovsk Oblast,RU,60.1502,59.9605,ardac
RU921,Среднеуральск,Sredneuralsk,Sverdlovsk Oblast,RU,56.9916,60.4689,ardac
RU922,Сухой Лог,Sukhoy Log,Sverdlovsk Oblast,RU,56.9047,62.035,ardac
RU923,Сысерть,Sysert,Sverdlovsk Oblast,RU,56.503,60.8093,ardac
RU924,Талица,Talitsa,Sverdlovsk Oblast,RU,57.0148,63.7302,ardac
RU925,Тавда,Tavda,Sverdlovsk Oblast,RU,58.0414,65.272,ardac
RU926,Туринск,Turinsk,Sverdlovsk Oblast,RU,58.0525,63.6909,ardac
RU927,Верхний Тагил,Verkhny Tagil,Sverdlovsk Oblast,RU,57.3745,59.9321,ardac
RU928,Верхняя Пышма,Verkhnyaya Pyshma,Sverdlovsk Oblast,RU,56.9725,60.5739,ardac
RU929,Верхняя Салда,Verkhnyaya Salda,Sverdlovsk Oblast,RU,58.0436,60.5548,ardac
RU930,Верхняя Тура,Verkhnyaya Tura,Sverdlovsk Oblast,RU,58.3605,59.8182,ardac
RU931,Верхотурье,Verkhoturye,Sverdlovsk Oblast,RU,58.8617,60.8093,ardac
RU932,Волчанск,Volchansk,Sverdlovsk Oblast,RU,59.9347,60.078,ardac
RU933,Екатеринбург,Yekaterinburg,Sverdlovsk Oblast,RU,56.8391,60.6083,ardac
RU934,Заречный,Zarechny,Sverdlovsk Oblast,RU,56.815,61.3206,ardac
RU935,Кирсанов,Kirsanov,Tambov Oblast,RU,52.6548,42.725,ardac
RU936,Котовск,Kotovsk,Tambov Oblast,RU,52.587,41.4994,ardac
RU937,Мичуринск,Michurinsk,Tambov Oblast,RU,52.8947,40.5072,ardac
RU938,Моршанск,Morshansk,Tambov Oblast,RU,53.4428,41.813,ardac
RU939,Рассказово,Rasskazovo,Tambov Oblast,RU,52.6587,41.879,ardac
RU940,Тамбов,Tambov,Tambov Oblast,RU,52.7216,41.4524,ardac
RU941,Уварово,Uvarovo,Tambov Oblast,RU,51.9839,42.2664,ardac
RU942,Жердевка,Zherdevka,Tambov Oblast,RU,51.8439,41.4704,ardac
RU943,Асино,Asino,Tomsk Oblast,RU,56.9992,86.1417,ardac
RU944,Кедровый,Kedrovy,Tomsk Oblast,RU,57.5619,79.5708,ardac
RU945,Колпашево,Kolpashevo,Tomsk Oblast,RU,58.3137,82.9036,ardac
RU946,Северск,Seversk,Tomsk Oblast,RU,56.6032,84.881,ardac
RU947,Стрежевой,Strezhevoy,Tomsk Oblast,RU,60.7328,77.6008,ardac
RU948,Томск,Tomsk,Tomsk Oblast,RU,56.4888,84.9523,ardac
RU949,Алексин,Aleksin,Tula Oblast,RU,54.5028,37.0667,ardac
RU950,Белёв,Belyov,Tula Oblast,RU,53.8118,36.137,ardac
RU951,Богородицк,Bogoroditsk,Tula Oblast,RU,53.7736,38.127,ardac
RU952,Болохово,Bolokhovo,Tula Oblast,RU,54.0851,37.8291,ardac
RU953,Чекалин,Chekalin,Tula Oblast,RU,54.0971,36.2448,ardac
RU954,Донской,Donskoy,Tula Oblast,RU,53.9729,38.3264,ardac
RU955,Кимовск,Kimovsk,Tula Oblast,RU,53.9699,38.5327,ardac
RU956,Киреевск,Kireyevsk,Tula Oblast,RU,53.9267,37.9299,ardac
RU957,Липки,Lipki,Tula Oblast,RU,53.9402,37.7019,ardac
RU958,Новомосковск,Novomoskovsk,Tula Oblast,RU,54.011,38.2909,ardac
RU959,Плавск,Plavsk,Tula Oblast,RU,53.7069,37.292,ardac
RU960,Щёкино,Shchyokino,Tula Oblast,RU,54.0045,37.5179,ardac
RU961,Сокольники,Sokolniki,Tula Oblast,RU,55.7888,37.6803,ardac
RU962,Советск,Sovetsk,Tula Oblast,RU,55.081,21.8883,ardac
RU963,Суворов,Suvorov,Tula Oblast,RU,54.1224,36.5,ardac
RU964,Тула,Tula,Tula Oblast,RU,54.193,37.6175,ardac
RU965,Узловая,Uzlovaya,Tula Oblast,RU,53.9785,38.1603,ardac
RU966,Венёв,Venyov,Tula Oblast,RU,54.3504,38.2656,ardac
RU967,Ясногорск,Yasnogorsk,Tula Oblast,RU,54.4793,37.6933,ardac
RU968,Ефремов,Yefremov,Tula Oblast,RU,53.1418,38.1162,ardac
RU969,Ак-Довурак,Ak-Dovurak,Tuva Republic,RU,51.1731,90.5934,ardac
RU970,Чадан,Chadan,Tuva Republic,RU,51.284,91.5667,ardac
RU971,Кызыл,Kyzyl,Tuva Republic,RU,51.7191,94.4301,ardac
RU972,Шагонар,Shagonar,Tuva Republic,RU,51.5387,92.9194,ardac
RU973,Туран,Turan,Tuva Republic,RU,52.1458,93.9186,ardac
RU974,Андреаполь,Andreapol,Tver Oblast,RU,56.6468,32.2653,ardac
RU975,Белый,Bely,Tver Oblast,RU,55.8331,32.9395,ardac
RU976,Бежецк,Bezhetsk,Tver Oblast,RU,57.7814,36.6925,ardac
RU977,Бологое,Bologoye,Tver Oblast,RU,57.8852,34.0496,ardac
RU978,Калязин,Kalyazin,Tver Oblast,RU,57.24,37.8405,ardac
RU979,Кашин,Kashin,Tver Oblast,RU,57.3618,37.6115,ardac
RU980,Кимры,Kimry,Tver Oblast,RU,56.8734,37.3557,ardac
RU981,Конаково,Konakovo,Tver Oblast,RU,56.7132,36.7776,ardac
RU982,Красный Холм,Krasny Kholm,Tver Oblast,RU,58.0565,37.1147,ardac
RU983,Кувшиново,Kuvshinovo,Tver Oblast,RU,57.0315,34.1797,ardac
RU984,Лихославль,Likhoslavl,Tver Oblast,RU,57.1244,35.4665,ardac
RU985,Нелидово,Nelidovo,Tver Oblast,RU,56.2261,32.7711,ardac
RU986,Осташков,Ostashkov,Tver Oblast,RU,57.1558,33.1013,ardac
RU987,Ржев,Rzhev,Tver Oblast,RU,56.2565,34.3286,ardac
RU988,Старица,Staritsa,Tver Oblast,RU,56.5081,34.9315,ardac
RU989,Торопец,Toropets,Tver Oblast,RU,56.4965,31.6411,ardac
RU990,Торжок,Torzhok,Tver Oblast,RU,57.0408,34.9734,ardac
RU991,Тверь,Tver,Tver Oblast,RU,56.8587,35.9208,ardac
RU992,Удомля,Udomlya,Tver Oblast,RU,57.878,35.0042,ardac
RU993,Весьегонск,Vesyegonsk,Tver Oblast,RU,58.6637,37.2626,ardac
RU994,Вышний Волочёк,Vyshny Volochyok,Tver Oblast,RU,57.5884,34.5721,ardac
RU995,Западная Двина,Zapadnaya Dvina,Tver Oblast,RU,56.2588,32.0707,ardac
RU996,Зубцов,Zubtsov,Tver Oblast,RU,56.1701,34.5852,ardac
RU997,Ишим,Ishim,Tyumen Oblast,RU,56.1092,69.4572,ardac
RU998,Тобольск,Tobolsk,Tyumen Oblast,RU,58.1998,68.2513,ardac
RU999,Тюмень,Tyumen,Tyumen Oblast,RU,57.1535,65.5423,ardac
RU1000,Ялуторовск,Yalutorovsk,Tyumen Oblast,RU,56.6549,66.3128,ardac
RU1001,Заводоуковск,Zavodoukovsk,Tyumen Oblast,RU,56.5093,66.5393,ardac
RU1002,Глазов,Glazov,Udmurtia,RU,58.1401,52.6464,ardac
RU1003,Ижевск,Izhevsk,Udmurtia,RU,56.8605,53.1977,ardac
RU1004,Камбарка,Kambarka,Udmurtia,RU,56.2653,54.1946,ardac
RU1005,Можга,Mozhga,Udmurtia,RU,56.4427,52.2139,ardac
RU1006,Сарапул,Sarapul,Udmurtia,RU,56.4774,53.8195,ardac
RU1007,Воткинск,Votkinsk,Udmurtia,RU,57.0525,53.9906,ardac
RU1008,Барыш,Barysh,Ulyanovsk Oblast,RU,53.6541,47.1014,ardac
RU1009,Димитровград,Dimitrovgrad,Ulyanovsk Oblast,RU,54.2189,49.6039,ardac
RU1010,Инза,Inza,Ulyanovsk Oblast,RU,53.8579,46.3573,ardac
RU1011,Новоульяновск,Novoulyanovsk,Ulyanovsk Oblast,RU,54.1502,48.3857,ardac
RU1012,Сенгилей,Sengiley,Ulyanovsk Oblast,RU,53.9589,48.7872,ardac
RU1013,Ульяновск,Ulyanovsk,Ulyanovsk Oblast,RU,54.315,48.4034,ardac
RU1014,Александров,Alexandrov,Vladimir Oblast,RU,56.3962,38.7111,ardac
RU1015,Гороховец,Gorokhovets,Vladimir Oblast,RU,56.2066,42.679,ardac
RU1016,Гусь-Хрустальный,Gus-Khrustalny,Vladimir Oblast,RU,55.615,40.6709,ardac
RU1017,Камешково,Kameshkovo,Vladimir Oblast,RU,56.3463,40.9971,ardac
RU1018,Карабаново,Karabanovo,Vladimir Oblast,RU,56.3084,38.6981,ardac
RU1019,Киржач,Kirzhach,Vladimir Oblast,RU,56.1592,38.8721,ardac
RU1020,Кольчугино,Kolchugino,Vladimir Oblast,RU,56.294,39.376,ardac
RU1021,Костерёво,Kosteryovo,Vladimir Oblast,RU,55.9288,39.6202,ardac
RU1022,Ковров,Kovrov,Vladimir Oblast,RU,56.3746,41.3117,ardac
RU1023,Курлово,Kurlovo,Vladimir Oblast,RU,55.4551,40.6106,ardac
RU1024,Лакинск,Lakinsk,Vladimir Oblast,RU,56.0151,39.9466,ardac
RU1025,Меленки,Melenki,Vladimir Oblast,RU,55.3368,41.6314,ardac
RU1026,Муром,Murom,Vladimir Oblast,RU,55.5738,42.0447,ardac
RU1027,Петушки,Petushki,Vladimir Oblast,RU,55.9298,39.4508,ardac
RU1028,Покров,Pokrov,Vladimir Oblast,RU,55.9196,39.1773,ardac
RU1029,Радужный,Raduzhny,Vladimir Oblast,RU,62.1353,77.4626,ardac
RU1030,Собинка,Sobinka,Vladimir Oblast,RU,55.9904,40.0151,ardac
RU1031,Струнино,Strunino,Vladimir Oblast,RU,56.374,38.586,ardac
RU1032,Судогда,Sudogda,Vladimir Oblast,RU,55.9516,40.8587,ardac
RU1033,Суздаль,Suzdal,Vladimir Oblast,RU,56.4194,40.4488,ardac
RU1034,Владимир,Vladimir,Vladimir Oblast,RU,56.1289,40.4075,ardac
RU1035,Вязники,Vyazniki,Vladimir Oblast,RU,56.2469,42.1586,ardac
RU1036,Юрьев-Польский,Yuryev-Polsky,Vladimir Oblast,RU,56.4972,39.6786,ardac
RU1037,Дубовка,Dubovka,Volgograd Oblast,RU,49.0605,44.8308,ardac
RU1038,Фролово,Frolovo,Volgograd Oblast,RU,49.7646,43.654,ardac
RU1039,Калач-на-Дону,Kalach-na-Donu,Volgograd Oblast,RU,48.6819,43.538,ardac
RU1040,Камышин,Kamyshin,Volgograd Oblast,RU,50.0808,45.4048,ardac
RU1041,Котельниково,Kotelnikovo,Volgograd Oblast,RU,47.6332,43.1411,ardac
RU1042,Котово,Kotovo,Volgograd Oblast,RU,50.3222,44.8016,ardac
RU1043,Краснослободск,Krasnoslobodsk,Volgograd Oblast,RU,54.4307,43.7779,ardac
RU1044,Ленинск,Leninsk,Volgograd Oblast,RU,48.6941,45.1992,ardac
RU1045,Михайловка,Mikhaylovka,Volgograd Oblast,RU,50.0797,43.2342,ardac
RU1046,Николаевск,Nikolayevsk,Volgograd Oblast,RU,50.0315,45.4545,ardac
RU1047,Новоаннинский,Novoanninsky,Volgograd Oblast,RU,50.5297,42.6674,ardac
RU1048,Палласовка,Pallasovka,Volgograd Oblast,RU,50.0459,46.8896,ardac
RU1049,Петров Вал,Petrov Val,Volgograd Oblast,RU,50.1396,45.2141,ardac
RU1050,Серафимович,Serafimovich,Volgograd Oblast,RU,49.5806,42.7302,ardac
RU1051,Суровикино,Surovikino,Volgograd Oblast,RU,48.6051,42.8441,ardac
RU1052,Урюпинск,Uryupinsk,Volgograd Oblast,RU,50.7971,42.0052,ardac
RU1053,Волгоград,Volgograd,Volgograd Oblast,RU,48.7082,44.5153,ardac
RU1054,Волжский,Volzhsky,Volgograd Oblast,RU,48.83,44.7655,ardac
RU1055,Жирновск,Zhirnovsk,Volgograd Oblast,RU,50.9788,44.7789,ardac
RU1056,Бабаево,Babayevo,Vologda Oblast,RU,59.3887,35.95,ardac
RU1057,Белозерск,Belozersk,Vologda Oblast,RU,60.032,37.7842,ardac
RU1058,Череповец,Cherepovets,Vologda Oblast,RU,59.1287,37.9164,ardac
RU1059,Грязовец,Gryazovets,Vologda Oblast,RU,58.8842,40.2515,ardac
RU1060,Кадников,Kadnikov,Vologda Oblast,RU,59.5015,40.3406,ardac
RU1061,Харовск,Kharovsk,Vologda Oblast,RU,59.9533,40.2068,ardac
RU1062,Кириллов,Kirillov,Vologda Oblast,RU,59.8591,38.3759,ardac
RU1063,Красавино,Krasavino,Vologda Oblast,RU,60.9617,46.4778,ardac
RU1064,Никольск,Nikolsk,Vologda Oblast,RU,53.7146,46.0852,ardac
RU1065,Сокол,Sokol,Vologda Oblast,RU,59.4628,40.1129,ardac
RU1066,Тотьма,Totma,Vologda Oblast,RU,59.9736,42.7587,ardac
RU1067,Устюжна,Ustyuzhna,Vologda Oblast,RU,58.8428,36.4297,ardac
RU1068,Великий Устюг,Veliky Ustyug,Vologda Oblast,RU,60.7613,46.3015,ardac
RU1069,Вологда,Vologda,Vologda Oblast,RU,59.2189,39.8934,ardac
RU1070,Вытегра,Vytegra,Vologda Oblast,RU,61.0065,36.4515,ardac
RU1071,Бобров,Bobrov,Voronezh Oblast,RU,51.0968,40.0308,ardac
RU1072,Богучар,Boguchar,Voronezh Oblast,RU,49.9324,40.5545,ardac
RU1073,Борисоглебск,Borisoglebsk,Voronezh Oblast,RU,51.368,42.0752,ardac
RU1074,Бутурлиновка,Buturlinovka,Voronezh Oblast,RU,50.7961,40.6019,ardac
RU1075,Эртиль,Ertil,Voronezh Oblast,RU,51.8367,40.7983,ardac
RU1076,Калач,Kalach,Voronezh Oblast,RU,50.426,41.0162,ardac
RU1077,Лиски,Liski,Voronezh Oblast,RU,50.9874,39.4972,ardac
RU1078,Новохопёрск,Novokhopyorsk,Voronezh Oblast,RU,51.0951,41.617,ardac
RU1079,Нововоронеж,Novovoronezh,Voronezh Oblast,RU,51.3091,39.216,ardac
RU1080,Острогожск,Ostrogozhsk,Voronezh Oblast,RU,50.8649,39.0772,ardac
RU1081,Павловск,Pavlovsk,Voronezh Oblast,RU,50.452,40.14,ardac
RU1082,Поворино,Povorino,Voronezh Oblast,RU,51.1993,42.2409,ardac
RU1083,Россошь,Rossosh,Voronezh Oblast,RU,50.1962,39.5765,ardac
RU1084,Семилуки,Semiluki,Voronezh Oblast,RU,51.6904,39.0222,ardac
RU1085,Воронеж,Voronezh,Voronezh Oblast,RU,51.6606,39.2006,ardac
RU1086,Губкинский,Gubkinsky,Yamalo-Nenets Autonomous Okrug,RU,64.4338,76.4898,ardac
RU1087,Лабытнанги,Labytnangi,Yamalo-Nenets Autonomous Okrug,RU,66.6615,66.3811,ardac
RU1088,Муравленко,Muravlenko,Yamalo-Nenets Autonomous Okrug,RU,63.7948,74.4969,ardac
RU1089,Надым,Nadym,Yamalo-Nenets Autonomous Okrug,RU,65.537,72.52,ardac
RU1090,Новый Уренгой,Novy Urengoy,Yamalo-Nenets Autonomous Okrug,RU,66.0852,76.6799,ardac
RU1091,Ноябрьск,Noyabrsk,Yamalo-Nenets Autonomous Okrug,RU,63.2003,75.4476,ardac
RU1092,Салехард,Salekhard,Yamalo-Nenets Autonomous Okrug,RU,66.5375,66.6157,ardac
RU1093,Тарко-Сале,Tarko-Sale,Yamalo-Nenets Autonomous Okrug,RU,64.922,77.7795,ardac
RU1094,Данилов,Danilov,Yaroslavl Oblast,RU,58.1888,40.1751,ardac
RU1095,Гаврилов-Ям,Gavrilov-Yam,Yaroslavl Oblast,RU,57.3033,39.8538,ardac
RU1096,Любим,Lyubim,Yaroslavl Oblast,RU,58.3596,40.6866,ardac
RU1097,Мышкин,Myshkin,Yaroslavl Oblast,RU,57.7847,38.4516,ardac
RU1098,Переславль-Залесский,Pereslavl-Zalessky,Yaroslavl Oblast,RU,56.7367,38.8463,ardac
RU1099,Пошехонье,Poshekhonye,Yaroslavl Oblast,RU,58.5032,39.1197,ardac
RU1100,Ростов,Rostov,Yaroslavl Oblast,RU,47.2217,39.7096,ardac
RU1101,Рыбинск,Rybinsk,Yaroslavl Oblast,RU,58.0504,38.8346,ardac
RU1102,Тутаев,Tutayev,Yaroslavl Oblast,RU,57.8754,39.5272,ardac
RU1103,Углич,Uglich,Yaroslavl Oblast,RU,57.5268,38.3167,ardac
RU1104,Ярославль,Yaroslavl,Yaroslavl Oblast,RU,57.6264,39.8934,ardac
RU1105,Балей,Baley,Zabaykalsky Krai,RU,51.5788,116.646,ardac
RU1106,Борзя,Borzya,Zabaykalsky Krai,RU,50.3852,116.5331,ardac
RU1107,Чита,Chita,Zabaykalsky Krai,RU,52.0334,113.5009,ardac
RU1108,Хилок,Khilok,Zabaykalsky Krai,RU,51.3628,110.458,ardac
RU1109,Краснокаменск,Krasnokamensk,Zabaykalsky Krai,RU,50.097,118.0413,ardac
RU1110,Могоча,Mogocha,Zabaykalsky Krai,RU,53.7363,119.7625,ardac
RU1111,Нерчинск,Nerchinsk,Zabaykalsky Krai,RU,51.9769,116.5883,ardac
RU1112,Петровск-Забайкальский,Petrovsk-Zabaykalsky,Zabaykalsky Krai,RU,51.2752,108.8545,ardac
RU1113,Шилка,Shilka,Zabaykalsky Krai,RU,51.8516,116.0259,ardac
RU1114,Сретенск,Sretensk,Zabaykalsky Krai,RU,52.2432,117.6955,ardac
