id,name,alt_name,region,country,latitude,longitude
SK1,Abbey,,Saskatchewan,CA,50.7369,-108.76
SK2,Aberdeen,,Saskatchewan,CA,52.327,-106.288
SK3,Aberfeldy,,Saskatchewan,CA,53.25,-109.883
SK4,Abernethy,,Saskatchewan,CA,50.7474,-103.416
SK5,Admiral,,Saskatchewan,CA,49.7134,-108.006
SK6,Air Ronge,,Saskatchewan,CA,55.0833,-105.31700000000001
SK7,Alameda,,Saskatchewan,CA,49.2667,-102.28299999999999
SK8,Albertville,,Saskatchewan,CA,53.3963,-105.541
SK9,Alice Beach,,Saskatchewan,CA,50.9257,-105.165
SK10,Alida,,Saskatchewan,CA,49.388999999999996,-101.874
SK11,Allan,,Saskatchewan,CA,51.8952,-106.053
SK12,Alta Vista,,Saskatchewan,CA,50.8035,-104.96799999999999
SK13,Alticane,,Saskatchewan,CA,52.9015,-107.48100000000001
SK14,Alvena,,Saskatchewan,CA,52.5176,-106.02
SK15,Amazon,,Saskatchewan,CA,51.55,-105.45
SK16,Amsterdam,,Saskatchewan,CA,51.7488,-102.46
SK17,Aneroid,,Saskatchewan,CA,49.7167,-107.3
SK18,Annaheim,,Saskatchewan,CA,52.32,-104.818
SK19,Antler,,Saskatchewan,CA,49.5675,-101.458
SK20,Aquadeo,,Saskatchewan,CA,53.1319,-108.42
SK21,Arborfield,,Saskatchewan,CA,53.1061,-103.661
SK22,Archerwill,,Saskatchewan,CA,52.43899999999999,-103.859
SK23,Arcola,,Saskatchewan,CA,49.6377,-102.492
SK24,Ardill,,Saskatchewan,CA,49.9377,-105.844
SK25,Arlington Beach,,Saskatchewan,CA,51.2479,-105.23100000000001
SK26,Armit,,Saskatchewan,CA,52.8333,-101.78299999999999
SK27,Armley,,Saskatchewan,CA,53.1167,-104.03299999999999
SK28,Arran,,Saskatchewan,CA,51.8833,-101.71700000000001
SK29,Asquith,,Saskatchewan,CA,52.1336,-107.226
SK30,Assiniboia,,Saskatchewan,CA,49.6305,-105.98700000000001
SK31,Atwater,,Saskatchewan,CA,50.7768,-102.227
SK32,Auburnton,,Saskatchewan,CA,49.4048,-102.07700000000001
SK33,Avonlea,,Saskatchewan,CA,50.0156,-105.056
SK34,Aylesbury,,Saskatchewan,CA,50.9395,-105.69200000000001
SK35,Aylsham,,Saskatchewan,CA,53.1937,-103.805
SK36,B-Say-Tah,,Saskatchewan,CA,50.7868,-103.85799999999999
SK37,Badgerville,,Saskatchewan,CA,51.6336,-101.912
SK38,Balcarres,,Saskatchewan,CA,50.8035,-103.546
SK39,Baldwinton,,Saskatchewan,CA,52.7888,-109.256
SK40,Balgonie,,Saskatchewan,CA,50.4893,-104.265
SK41,Balone Beach,,Saskatchewan,CA,52.6679,-105.602
SK42,Bangor,,Saskatchewan,CA,50.8073,-102.34200000000001
SK43,Bankend,,Saskatchewan,CA,51.5098,-103.848
SK44,Bapaume,,Saskatchewan,CA,53.3833,-107.67399999999999
SK45,Barrier Ford,,Saskatchewan,CA,52.5405,-103.706
SK46,Battleford,,Saskatchewan,CA,52.7382,-108.30799999999999
SK47,Bayard,,Saskatchewan,CA,50.0204,-105.289
SK48,Beacon Hill,,Saskatchewan,CA,54.3546,-109.654
SK49,Beadle,,Saskatchewan,CA,51.4671,-109.00399999999999
SK50,Bear Creek,,Saskatchewan,CA,56.2975,-108.936
SK51,Beardy's 97 and Okemasis' 96,,Saskatchewan,CA,52.8129,-106.3484
SK52,Beatty,,Saskatchewan,CA,52.9001,-104.805
SK53,Beaubier,,Saskatchewan,CA,49.1263,-104.07799999999999
SK54,Beauval,,Saskatchewan,CA,55.1472,-107.611
SK55,Beaver Creek,,Saskatchewan,CA,51.9729,-106.669
SK56,Beaver Flat,,Saskatchewan,CA,50.6604,-107.656
SK57,Beechy,,Saskatchewan,CA,50.8833,-107.383
SK58,Belbutte,,Saskatchewan,CA,53.3667,-107.81700000000001
SK59,Belle Plaine,,Saskatchewan,CA,50.3945,-105.156
SK60,Bellegarde,,Saskatchewan,CA,49.5308,-101.54899999999999
SK61,Bengough,,Saskatchewan,CA,49.396,-105.12700000000001
SK62,Benson,,Saskatchewan,CA,49.4551,-103.00399999999999
SK63,Bertwell,,Saskatchewan,CA,52.5886,-102.545
SK64,Bethune,,Saskatchewan,CA,50.7129,-105.20700000000001
SK65,Beverley,,Saskatchewan,CA,50.2685,-107.98
SK66,Bienfait,,Saskatchewan,CA,49.1423,-102.805
SK67,Big Beaver,,Saskatchewan,CA,49.1006,-105.171
SK68,Big Island Lake,,Saskatchewan,CA,54.4290769,-109.6600491
SK69,Big River,,Saskatchewan,CA,53.8348,-107.03399999999999
SK70,Big Shell,,Saskatchewan,CA,53.2004,-107.12899999999999
SK71,Biggar,,Saskatchewan,CA,52.058,-107.985
SK72,Birch Hills,,Saskatchewan,CA,52.983000000000004,-105.435
SK73,Birch Narrows,,Saskatchewan,CA,56.4703,-108.689
SK74,Bird's Point,,Saskatchewan,CA,50.5465,-102.368
SK75,Birmingham,,Saskatchewan,CA,50.9735,-102.93799999999999
SK76,Birsay,,Saskatchewan,CA,51.0976,-106.98100000000001
SK77,Bjorkdale,,Saskatchewan,CA,52.7107,-103.646
SK78,Black Lake,,Saskatchewan,CA,59.1333,-105.6
SK79,Black Point,,Saskatchewan,CA,56.3667,-109.45
SK80,Bladworth,,Saskatchewan,CA,51.3669,-106.137
SK81,Blaine Lake,,Saskatchewan,CA,52.8302,-106.881
SK82,Blumenheim,,Saskatchewan,CA,52.3896,-106.417
SK83,Blumenhof,,Saskatchewan,CA,50.0229,-107.7
SK84,Blumenthal,,Saskatchewan,CA,52.4818,-106.37700000000001
SK85,Bodmin,,Saskatchewan,CA,53.7544,-106.986
SK86,Boharm,,Saskatchewan,CA,50.4,-105.71700000000001
SK87,Borden,,Saskatchewan,CA,52.4056,-107.238
SK88,Brabant Lake,,Saskatchewan,CA,56.1167,-103.75
SK89,Bracken,,Saskatchewan,CA,49.1782,-108.096
SK90,Bradwell,,Saskatchewan,CA,51.9477,-106.23200000000001
SK91,Brancepeth,,Saskatchewan,CA,53.001999999999995,-105.262
SK92,Bredenbury,,Saskatchewan,CA,50.9435,-102.04899999999999
SK93,Brewer,,Saskatchewan,CA,50.9871502,-102.72730849999999
SK94,Briercrest,,Saskatchewan,CA,50.1667,-105.26700000000001
SK95,Broadview,,Saskatchewan,CA,50.3793,-102.58
SK96,Brock,,Saskatchewan,CA,51.4421,-108.72
SK97,Broderick,,Saskatchewan,CA,51.4883,-106.919
SK98,Brownlee,,Saskatchewan,CA,50.7371,-106.01799999999999
SK99,Bruno,,Saskatchewan,CA,52.2632,-105.524
SK100,Buchanan,,Saskatchewan,CA,51.7,-102.75
SK101,Buena Vista,,Saskatchewan,CA,50.7821,-104.94200000000001
SK102,Buffalo Narrows,,Saskatchewan,CA,55.8661,-108.48899999999999
SK103,Bulyea,,Saskatchewan,CA,50.9854,-104.863
SK104,Burgis Beach,,Saskatchewan,CA,51.5431,-102.62200000000001
SK105,Burr,,Saskatchewan,CA,52.042,105.135
SK106,Burstall,,Saskatchewan,CA,50.6559,-109.90799999999999
SK107,Bushell Park,,Saskatchewan,CA,50.3396,-105.552
SK108,Cabri,,Saskatchewan,CA,50.6194,-108.461
SK109,Cadillac,,Saskatchewan,CA,49.7259,-107.73700000000001
SK110,Calder,,Saskatchewan,CA,51.1579,-101.749
SK111,Camp Dundurn,,Saskatchewan,CA,51.8522,-106.555
SK112,Camsell Portage,,Saskatchewan,CA,59.6093,-109.264
SK113,Cana,,Saskatchewan,CA,50.8854,-102.64299999999999
SK114,Candiac,,Saskatchewan,CA,50.2111,-103.259
SK115,Candle Lake,,Saskatchewan,CA,53.7517,-105.25200000000001
SK116,Cando,,Saskatchewan,CA,52.3731,-108.215
SK117,Cannington Lake,,Saskatchewan,CA,49.7838,-102.162
SK118,Canoe Lake 165,,Saskatchewan,CA,54.1018,-108.085
SK119,Canoe Narrows,,Saskatchewan,CA,55.1634,-108.15700000000001
SK120,Canora,,Saskatchewan,CA,51.6333,-102.43299999999999
SK121,Cantuar,,Saskatchewan,CA,50.383,-108.009
SK122,Canwood,,Saskatchewan,CA,53.3616,-106.604
SK123,Carievale,,Saskatchewan,CA,49.1743,-101.624
SK124,Carlea,,Saskatchewan,CA,53.15,-103.9
SK125,Carlyle,,Saskatchewan,CA,49.6333,-102.26700000000001
SK126,Carlyle Lake Resort,,Saskatchewan,CA,49.7418,-102.274
SK127,Carmel,,Saskatchewan,CA,52.2248,-105.34899999999999
SK128,Carmichael,,Saskatchewan,CA,50.0455,-108.648
SK129,Carnduff,,Saskatchewan,CA,49.1749,-101.794
SK130,Caron,,Saskatchewan,CA,50.4582,-105.874
SK131,Caronport,,Saskatchewan,CA,50.458999999999996,-105.815
SK132,Carrot River,,Saskatchewan,CA,53.2833,-103.583
SK133,Carry The Kettle,,Saskatchewan,CA,50.3522,-103.46799999999999
SK134,Casa Rio,,Saskatchewan,CA,52.0275,-106.646
SK135,Cedar Villa Estates,,Saskatchewan,CA,52.0965,-106.772
SK136,Cedoux,,Saskatchewan,CA,49.8833,-103.867
SK137,Central Butte,,Saskatchewan,CA,50.7976,-106.507
SK138,Ceylon,,Saskatchewan,CA,49.4587,-104.601
SK139,Chamberlain,,Saskatchewan,CA,50.85,-105.56700000000001
SK140,Chaplin,,Saskatchewan,CA,50.4616,-106.65799999999999
SK141,Chelan,,Saskatchewan,CA,52.6105,-103.39299999999999
SK142,Chitek Lake,,Saskatchewan,CA,53.7538,-107.73100000000001
SK143,Choiceland,,Saskatchewan,CA,53.4924,-104.484
SK144,Chorney Beach,,Saskatchewan,CA,51.8064,-103.553
SK145,Chortitz,,Saskatchewan,CA,50.1056,-107.645
SK146,Christopher Lake,,Saskatchewan,CA,53.5402,-105.791
SK147,Churchbridge,,Saskatchewan,CA,50.8977,-101.891
SK148,Clair,,Saskatchewan,CA,52.0222,-104.07700000000001
SK149,Clavet,,Saskatchewan,CA,51.9957,-106.374
SK150,Claybank,,Saskatchewan,CA,50.0455,-105.23299999999999
SK151,Clearwater River,,Saskatchewan,CA,56.5296,-109.492
SK152,Clearwater River,,Saskatchewan,CA,56.0486,-108.72399999999999
SK153,Clemenceau,,Saskatchewan,CA,52.6652,-102.527
SK154,Climax,,Saskatchewan,CA,49.2077,-108.38799999999999
SK155,Clouston,,Saskatchewan,CA,53.1,-105.85
SK156,Cluff Lake,,Saskatchewan,CA,58.3653,-109.531
SK157,Cochin,,Saskatchewan,CA,53.0823,-108.337
SK158,Coderre,,Saskatchewan,CA,50.1333,-106.383
SK159,Codette,,Saskatchewan,CA,53.2815,-104.02799999999999
SK160,Cole Bay,,Saskatchewan,CA,55.0974,-108.322
SK161,Colesdale Park,,Saskatchewan,CA,50.9523,-105.148
SK162,Coleville,,Saskatchewan,CA,51.7105,-109.24600000000001
SK163,Colfax,,Saskatchewan,CA,49.9445,-103.98200000000001
SK164,Colgate,,Saskatchewan,CA,49.3993,-103.89200000000001
SK165,Colonsay,,Saskatchewan,CA,51.9775,-105.87
SK166,Congress,,Saskatchewan,CA,49.7539,-106.021
SK167,Conquest,,Saskatchewan,CA,51.5306,-107.24
SK168,Consul,,Saskatchewan,CA,49.2946,-109.52
SK169,Corning,,Saskatchewan,CA,49.9582,-102.971
SK170,Coronach,,Saskatchewan,CA,49.1114,-105.516
SK171,Coteau Beach,,Saskatchewan,CA,51.1663,-106.825
SK172,Cowessess 73,,Saskatchewan,CA,50.5106,-102.654
SK173,Craik,,Saskatchewan,CA,51.05,-105.81700000000001
SK174,Crane Valley,,Saskatchewan,CA,49.757,-105.527
SK175,Craven,,Saskatchewan,CA,50.7084,-104.81
SK176,Cree Lake,,Saskatchewan,CA,57.3562,-106.834
SK177,Creelman,,Saskatchewan,CA,49.818000000000005,-103.31
SK178,Creighton,,Saskatchewan,CA,54.75,-101.9
SK179,Crooked River,,Saskatchewan,CA,52.8551,-103.73299999999999
SK180,Crutwell,,Saskatchewan,CA,53.2193,-106.069
SK181,Crystal Bay-Sunset,,Saskatchewan,CA,53.5426,-108.867
SK182,Crystal Lake,,Saskatchewan,CA,51.85,-102.43299999999999
SK183,Crystal Springs,,Saskatchewan,CA,52.8079,-105.36399999999999
SK184,Cudsaskwa Beach,,Saskatchewan,CA,52.6491,-105.637
SK185,Cudworth,,Saskatchewan,CA,52.4915,-105.73299999999999
SK186,Cumberland House,,Saskatchewan,CA,53.9538,-102.26899999999999
SK187,Cupar,,Saskatchewan,CA,50.9465,-104.212
SK188,Cut Knife,,Saskatchewan,CA,52.745,-109.01799999999999
SK189,D'Arcy,,Saskatchewan,CA,51.4667,-108.53299999999999
SK190,Dafoe,,Saskatchewan,CA,51.7544,-104.52600000000001
SK191,Dalmeny,,Saskatchewan,CA,52.3423,-106.773
SK192,Dana,,Saskatchewan,CA,52.2884,-105.705
SK193,Danbury,,Saskatchewan,CA,52.055,-102.265
SK194,Darlings Beach,,Saskatchewan,CA,49.9791,-107.925
SK195,Davidson,,Saskatchewan,CA,51.2633,-105.98899999999999
SK196,Davin,,Saskatchewan,CA,50.3836,-104.109
SK197,Davis,,Saskatchewan,CA,53.1104,-105.67200000000001
SK198,Day Star,,Saskatchewan,CA,51.5076,-104.223
SK199,Day's Beach,,Saskatchewan,CA,53.0502,-108.335
SK200,Debden,,Saskatchewan,CA,53.5265,-106.881
SK201,Deer Valley,,Saskatchewan,CA,50.5929,-104.885
SK202,Delisle,,Saskatchewan,CA,51.9267,-107.134
SK203,Delmas,,Saskatchewan,CA,52.9289,-108.603
SK204,Demaine,,Saskatchewan,CA,50.8905,-107.259
SK205,Denare Beach,,Saskatchewan,CA,54.6575,-102.081
SK206,Denholm,,Saskatchewan,CA,52.6572,-108.01
SK207,Denzil,,Saskatchewan,CA,52.2278,-109.649
SK208,Deschambault Lake,,Saskatchewan,CA,54.9107,-103.374
SK209,Descharme Lake,,Saskatchewan,CA,57.1043,-109.212
SK210,Dilke,,Saskatchewan,CA,50.8667,-105.25
SK211,Dillon,,Saskatchewan,CA,55.9278,-108.931
SK212,Dinsmore,,Saskatchewan,CA,51.3332,-107.444
SK213,Disley,,Saskatchewan,CA,50.6402,-105.051
SK214,Dodsland,,Saskatchewan,CA,51.7997,-108.836
SK215,Dollard,,Saskatchewan,CA,49.6167,-108.583
SK216,Domremy,,Saskatchewan,CA,52.7886,-105.729
SK217,Donavon,,Saskatchewan,CA,51.8,-107.133
SK218,Dore Lake,,Saskatchewan,CA,54.6209,-107.40899999999999
SK219,Dorintosh,,Saskatchewan,CA,54.3527,-108.625
SK220,Drake,,Saskatchewan,CA,51.7468,-105.012
SK221,Drinkwater,,Saskatchewan,CA,50.2967,-105.13600000000001
SK222,Dubuc,,Saskatchewan,CA,50.6838,-102.476
SK223,Duck Lake,,Saskatchewan,CA,52.8117,-106.227
SK224,Duff,,Saskatchewan,CA,50.8741,-103.09100000000001
SK225,Dunblane,,Saskatchewan,CA,51.2023,-106.88
SK226,Dundurn,,Saskatchewan,CA,51.8093,-106.507
SK227,Dunfermline,,Saskatchewan,CA,52.1339,-107.039
SK228,Dunkirk,,Saskatchewan,CA,50.0333,-105.71700000000001
SK229,Duperow,,Saskatchewan,CA,51.97,-108.243
SK230,Duval,,Saskatchewan,CA,51.1572,-104.991
SK231,Dysart,,Saskatchewan,CA,50.9472,-104.036
SK232,Eagle Ridge,,Saskatchewan,CA,52.1611,-106.492
SK233,Earl Grey,,Saskatchewan,CA,50.9342,-104.71
SK234,Eastend,,Saskatchewan,CA,49.5167,-108.81700000000001
SK235,Eatonia,,Saskatchewan,CA,51.2234,-109.39
SK236,Ebenezer,,Saskatchewan,CA,51.3696,-102.447
SK237,Echo Bay,,Saskatchewan,CA,53.2167,-107.133
SK238,Edam,,Saskatchewan,CA,53.1876,-108.76899999999999
SK239,Edenwold,,Saskatchewan,CA,50.6333,-104.25
SK240,Edgeley,,Saskatchewan,CA,50.6377,-103.995
SK241,Elbow,,Saskatchewan,CA,51.1212,-106.596
SK242,Elbow Lake,,Saskatchewan,CA,52.4927,-101.71600000000001
SK243,Eldersley,,Saskatchewan,CA,52.8602,-103.818
SK244,Eldorado,,Saskatchewan,CA,59.5516,-108.514
SK245,Elfros,,Saskatchewan,CA,51.7418,-103.86399999999999
SK246,Elrose,,Saskatchewan,CA,51.2,-108.03299999999999
SK247,Elstow,,Saskatchewan,CA,51.9874,-106.05799999999999
SK248,Emma Lake,,Saskatchewan,CA,53.562,-105.87200000000001
SK249,Endeavour,,Saskatchewan,CA,52.1609,-102.65700000000001
SK250,Englefeld,,Saskatchewan,CA,52.162,-104.655
SK251,English River,,Saskatchewan,CA,55.9169,-107.723
SK252,Ernfold,,Saskatchewan,CA,50.4462,-106.89200000000001
SK253,Erwood,,Saskatchewan,CA,52.8582,-102.18700000000001
SK254,Esk,,Saskatchewan,CA,51.8167,-104.85
SK255,Espeseth Cove,,Saskatchewan,CA,50.5508,-102.4
SK256,Esterhazy,,Saskatchewan,CA,50.6551,-102.074
SK257,Estevan,,Saskatchewan,CA,49.1333,-102.98299999999999
SK258,Estlin,,Saskatchewan,CA,50.2512,-104.52600000000001
SK259,Eston,,Saskatchewan,CA,51.15,-108.75
SK260,Ethelton,,Saskatchewan,CA,52.7866,-104.932
SK261,Etomami,,Saskatchewan,CA,52.7312,-102.319
SK262,Etters Beach,,Saskatchewan,CA,51.233999999999995,-105.289
SK263,Evergreen Acres,,Saskatchewan,CA,53.5162,-108.661
SK264,Evergreen Brightsand,,Saskatchewan,CA,53.6144,-108.835
SK265,Evesham,,Saskatchewan,CA,52.3911,-109.844
SK266,Eyebrow,,Saskatchewan,CA,50.8,-106.15
SK267,Fairholme,,Saskatchewan,CA,53.4277,-108.54
SK268,Fairlight,,Saskatchewan,CA,49.8749,-101.68
SK269,Fairy Glen,,Saskatchewan,CA,53.0348,-104.538
SK270,Fenton,,Saskatchewan,CA,53.0161,-105.586
SK271,Fenwood,,Saskatchewan,CA,51.0125,-103.04700000000001
SK272,Ferland,,Saskatchewan,CA,49.4489,-106.95100000000001
SK273,Fielding,,Saskatchewan,CA,52.5184,-107.55
SK274,Fife Lake,,Saskatchewan,CA,49.1949,-105.729
SK275,Fillmore,,Saskatchewan,CA,49.8795,-103.434
SK276,Findlater,,Saskatchewan,CA,50.7885,-105.402
SK277,Fishing Lake,,Saskatchewan,CA,51.8625,-103.63600000000001
SK278,Fiske,,Saskatchewan,CA,51.4833,-108.4
SK279,Flaxcombe,,Saskatchewan,CA,51.4785,-109.601
SK280,Fleming,,Saskatchewan,CA,50.0735,-101.508
SK281,Flying Dust,,Saskatchewan,CA,54.1402,-108.399
SK282,Foam Lake,,Saskatchewan,CA,51.6429,-103.53
SK283,Fond-du-Lac,,Saskatchewan,CA,59.3214,-107.189
SK284,Forget,,Saskatchewan,CA,49.65,-102.867
SK285,Fort Qu'Appelle,,Saskatchewan,CA,50.7669,-103.79
SK286,Fort San,,Saskatchewan,CA,50.7879,-103.804
SK287,Fort Walsh,,Saskatchewan,CA,49.5667,-109.883
SK288,Fosston,,Saskatchewan,CA,52.1902,-103.81200000000001
SK289,Fox Valley,,Saskatchewan,CA,50.4656,-109.48100000000001
SK290,Francis,,Saskatchewan,CA,50.1,-103.867
SK291,Frenchman Butte,,Saskatchewan,CA,53.5907,-109.633
SK292,Frobisher,,Saskatchewan,CA,49.2092,-102.426
SK293,Frontier,,Saskatchewan,CA,49.206,-108.56299999999999
SK294,Fulda,,Saskatchewan,CA,52.35,-105.21700000000001
SK295,Furdale,,Saskatchewan,CA,52.0781,-106.68799999999999
SK296,Furness,,Saskatchewan,CA,53.1167,-109.96700000000001
SK297,Gainsborough,,Saskatchewan,CA,49.1791,-101.449
SK298,Garrick,,Saskatchewan,CA,53.4917,-104.338
SK299,Garson Lake,,Saskatchewan,CA,56.3127,-109.956
SK300,Gerald,,Saskatchewan,CA,50.6662,-101.794
SK301,Gibbs,,Saskatchewan,CA,50.9037,-104.866
SK302,Girvin,,Saskatchewan,CA,51.1585,-105.912
SK303,Gladmar,,Saskatchewan,CA,49.1641,-104.45299999999999
SK304,Glaslyn,,Saskatchewan,CA,53.3577,-108.353
SK305,Glen Ewen,,Saskatchewan,CA,49.2077,-102.01299999999999
SK306,Glen Harbour,,Saskatchewan,CA,50.8899,-105.09299999999999
SK307,Glenavon,,Saskatchewan,CA,50.1961,-103.139
SK308,Glenbain,,Saskatchewan,CA,49.8443,-107.021
SK309,Glenside,,Saskatchewan,CA,51.4536,-106.807
SK310,Glentworth,,Saskatchewan,CA,49.4241,-106.68299999999999
SK311,Glidden,,Saskatchewan,CA,51.2398,-109.16799999999999
SK312,Golden Prairie,,Saskatchewan,CA,50.2213,-109.631
SK313,Good Spirit Acres,,Saskatchewan,CA,51.4833,-102.68299999999999
SK314,Goodeve,,Saskatchewan,CA,51.0609,-103.182
SK315,Goodsoil,,Saskatchewan,CA,54.3998,-109.23100000000001
SK316,Goodwater,,Saskatchewan,CA,49.3959,-103.705
SK317,Gordon 86,,Saskatchewan,CA,51.2735,-104.303
SK318,Gouldtown,,Saskatchewan,CA,50.6167,-107.21700000000001
SK319,Govan,,Saskatchewan,CA,51.3107,-104.993
SK320,Grand Coulee,,Saskatchewan,CA,50.4333,-104.81700000000001
SK321,Grandora,,Saskatchewan,CA,52.1144,-106.98
SK322,Grandview Beach,,Saskatchewan,CA,50.8747,-105.104
SK323,Grasswood,,Saskatchewan,CA,52.0573,-106.647
SK324,Gravelbourg,,Saskatchewan,CA,49.8771,-106.552
SK325,Gray,,Saskatchewan,CA,50.1717,-104.445
SK326,Grayson,,Saskatchewan,CA,50.7202,-102.64399999999999
SK327,Green Lake,,Saskatchewan,CA,54.2908,-107.792
SK328,Greenfeld,,Saskatchewan,CA,52.4365,-106.639
SK329,Greenstreet,,Saskatchewan,CA,53.4614,-109.815
SK330,Greig Lake,,Saskatchewan,CA,54.4433,-108.693
SK331,Grenfell,,Saskatchewan,CA,50.4114,-102.931
SK332,Griffin,,Saskatchewan,CA,49.6667,-103.43299999999999
SK333,Gronlid,,Saskatchewan,CA,53.1016,-104.464
SK334,Gruenthal,,Saskatchewan,CA,52.4634,-106.51899999999999
SK335,Guernsey,,Saskatchewan,CA,51.8708,-105.186
SK336,Gull Lake,,Saskatchewan,CA,50.0954,-108.485
SK337,Hafford,,Saskatchewan,CA,52.7258,-107.353
SK338,Hagen,,Saskatchewan,CA,52.9384,-105.557
SK339,Hague,,Saskatchewan,CA,52.5111,-106.417
SK340,Halbrite,,Saskatchewan,CA,49.4897,-103.557
SK341,Handel,,Saskatchewan,CA,52.0635,-108.694
SK342,Hanley,,Saskatchewan,CA,51.6297,-106.43700000000001
SK343,Harris,,Saskatchewan,CA,51.7348,-107.58
SK344,Hatchet Lake,,Saskatchewan,CA,58.119,-103.13600000000001
SK345,Hawarden,,Saskatchewan,CA,51.4149,-106.59899999999999
SK346,Hazel Dell,,Saskatchewan,CA,51.977,-102.977
SK347,Hazenmore,,Saskatchewan,CA,49.6874,-107.137
SK348,Hazlet,,Saskatchewan,CA,50.4007,-108.595
SK349,Hendon,,Saskatchewan,CA,52.0885,-103.829
SK350,Henribourg,,Saskatchewan,CA,53.3947,-105.62700000000001
SK351,Hepburn,,Saskatchewan,CA,52.5229,-106.729
SK352,Herbert,,Saskatchewan,CA,50.4277,-107.221
SK353,Herschel,,Saskatchewan,CA,51.6383,-108.35600000000001
SK354,Heward,,Saskatchewan,CA,49.7376,-103.15
SK355,High Tor,,Saskatchewan,CA,52.4667,-103.3
SK356,Hillmond,,Saskatchewan,CA,53.4278,-109.697
SK357,Hirsch,,Saskatchewan,CA,49.1782,-102.59299999999999
SK358,Hitchcock,,Saskatchewan,CA,49.224,-103.124
SK359,Hitchcock Bay,,Saskatchewan,CA,51.0472,-106.867
SK360,Hodgeville,,Saskatchewan,CA,50.1134,-106.962
SK361,Hoey,,Saskatchewan,CA,52.8679,-105.796
SK362,Holbein,,Saskatchewan,CA,53.2275,-106.20200000000001
SK363,Holdfast,,Saskatchewan,CA,50.9602,-105.41799999999999
SK364,Hoosier,,Saskatchewan,CA,51.6341,-109.73700000000001
SK365,Horizon,,Saskatchewan,CA,49.5193,-105.229
SK366,Horseshoe Bay,,Saskatchewan,CA,53.61666700000001,-108.640556
SK367,Hubbard,,Saskatchewan,CA,51.129,-103.369
SK368,Hudson Bay,,Saskatchewan,CA,52.8556,-102.389
SK369,Humboldt,,Saskatchewan,CA,52.2,-105.124
SK370,Hume,,Saskatchewan,CA,49.6667,-103.617
SK371,Hyas,,Saskatchewan,CA,51.8943,-102.259
SK372,Ibstone,,Saskatchewan,CA,52.5667,-108.3
SK373,Île-à-la-Crosse,,Saskatchewan,CA,55.4493,-107.904
SK374,Illerbrun,,Saskatchewan,CA,49.9333,-108.35
SK375,Imperial,,Saskatchewan,CA,51.3466,-105.434
SK376,Indian Head,,Saskatchewan,CA,50.5333,-103.667
SK377,Indian Point - Golden Sands,,Saskatchewan,CA,53.5897,-108.59899999999999
SK378,Invermay,,Saskatchewan,CA,51.8067,-103.156
SK379,Island View,,Saskatchewan,CA,50.9731,-105.161
SK380,Ituna,,Saskatchewan,CA,51.1698,-103.49700000000001
SK381,James Smith,,Saskatchewan,CA,53.1025,-104.87100000000001
SK382,Jameson,,Saskatchewan,CA,50.405,-104.287
SK383,Jans Bay,,Saskatchewan,CA,55.1506,-108.09899999999999
SK384,Jansen,,Saskatchewan,CA,51.7865,-104.715
SK385,Jasmin,,Saskatchewan,CA,51.2281,-103.646
SK386,Kahkewistahaw,,Saskatchewan,CA,50.4928,-102.53299999999999
SK387,Kamsack,,Saskatchewan,CA,51.5626,-101.898
SK388,Kamsack Beach,,Saskatchewan,CA,51.6335,-101.65100000000001
SK389,Kandahar,,Saskatchewan,CA,51.7589,-104.361
SK390,Kannata Valley,,Saskatchewan,CA,50.7833,-104.9
SK391,Katepwa Beach,,Saskatchewan,CA,50.696999999999996,-103.62700000000001
SK392,Katepwa South,,Saskatchewan,CA,50.6617,-103.64
SK393,Kawacatoose,,Saskatchewan,CA,51.4775,-104.399
SK394,Kayville,,Saskatchewan,CA,49.7264,-105.15
SK395,Keatley,,Saskatchewan,CA,52.8,-107.46700000000001
SK396,Kedleston Beach,,Saskatchewan,CA,50.8167,-105.06700000000001
SK397,Keeler,,Saskatchewan,CA,50.6833,-105.883
SK398,Kelliher,,Saskatchewan,CA,51.2666,-103.734
SK399,Kelso,,Saskatchewan,CA,49.9659,-101.95200000000001
SK400,Kelvington,,Saskatchewan,CA,52.1617,-103.525
SK401,Kenaston,,Saskatchewan,CA,51.5019,-106.26700000000001
SK402,Kendal,,Saskatchewan,CA,50.255,-103.615
SK403,Kennedy,,Saskatchewan,CA,50.0134,-102.34899999999999
SK404,Kenosee Lake,,Saskatchewan,CA,49.8334,-102.285
SK405,Kenosee Park,,Saskatchewan,CA,49.8339,-102.318
SK406,Kerrobert,,Saskatchewan,CA,51.9167,-109.133
SK407,Ketchen,,Saskatchewan,CA,51.9947,-102.821
SK408,Key Lake,,Saskatchewan,CA,57.2226,-105.65
SK409,Khedive,,Saskatchewan,CA,49.6167,-104.51700000000001
SK410,Killaly,,Saskatchewan,CA,50.7566,-102.837
SK411,Kilwinning,,Saskatchewan,CA,53.0998,-106.661
SK412,Kincaid,,Saskatchewan,CA,49.6716,-107.005
SK413,Kindersley,,Saskatchewan,CA,51.47,-109.15700000000001
SK414,Kinistin Saulteaux,,Saskatchewan,CA,52.6083,-104.225
SK415,Kinistino,,Saskatchewan,CA,52.9522,-105.029
SK416,Kinley,,Saskatchewan,CA,52.0678,-107.427
SK417,Kipling,,Saskatchewan,CA,50.1,-102.633
SK418,Kisbey,,Saskatchewan,CA,49.65,-102.667
SK419,Kivimaa-Moonlight Bay,,Saskatchewan,CA,53.6036,-108.665
SK420,Kopp's Kove,,Saskatchewan,CA,53.5289,-108.69200000000001
SK421,Kronau,,Saskatchewan,CA,50.3047,-104.294
SK422,Krydor,,Saskatchewan,CA,52.7884,-107.075
SK423,Kuroki,,Saskatchewan,CA,51.8694,-103.485
SK424,Kyle,,Saskatchewan,CA,50.8319,-108.038
SK425,Kylemore,,Saskatchewan,CA,51.9071,-103.641
SK426,La Loche,,Saskatchewan,CA,56.4858,-109.434
SK427,La Ronge,,Saskatchewan,CA,55.111999999999995,-105.3
SK428,La Ronge,,Saskatchewan,CA,55.1072,-105.28
SK429,Lac Vert,,Saskatchewan,CA,52.5035,-104.493
SK430,Lady Lake,,Saskatchewan,CA,52.0268,-102.626
SK431,Lafleche,,Saskatchewan,CA,49.7052,-106.574
SK432,Laird,,Saskatchewan,CA,52.7147,-106.589
SK433,Lajord,,Saskatchewan,CA,50.2394,-104.147
SK434,Lake Alma,,Saskatchewan,CA,49.1447,-104.197
SK435,Lake Lenore,,Saskatchewan,CA,52.3969,-104.98299999999999
SK436,Lampman,,Saskatchewan,CA,49.3818,-102.756
SK437,Lancer,,Saskatchewan,CA,50.8,-108.883
SK438,Landis,,Saskatchewan,CA,52.2,-108.45
SK439,Lang,,Saskatchewan,CA,49.9194,-104.37100000000001
SK440,Langbank,,Saskatchewan,CA,50.0491,-102.295
SK441,Langenburg,,Saskatchewan,CA,50.8429,-101.7
SK442,Langham,,Saskatchewan,CA,52.3609,-106.965
SK443,Lanigan,,Saskatchewan,CA,51.85,-105.03299999999999
SK444,Lanz Point,,Saskatchewan,CA,53.0294,-108.28
SK445,Laporte,,Saskatchewan,CA,51.2145,-109.512
SK446,Lashburn,,Saskatchewan,CA,53.1269,-109.613
SK447,Laura,,Saskatchewan,CA,51.848,-107.281
SK448,Leacross,,Saskatchewan,CA,53.05,-104.05
SK449,Leader,,Saskatchewan,CA,50.8888,-109.54
SK450,Leask,,Saskatchewan,CA,53.0211,-106.741
SK451,Lebret,,Saskatchewan,CA,50.7571,-103.704
SK452,Lemberg,,Saskatchewan,CA,50.7281,-103.204
SK453,Leoville,,Saskatchewan,CA,53.6333,-107.55
SK454,Leross,,Saskatchewan,CA,51.2886,-103.87
SK455,Leroy,,Saskatchewan,CA,52.0007,-104.738
SK456,Leslie,,Saskatchewan,CA,51.6965,-103.713
SK457,Leslie Beach,,Saskatchewan,CA,51.8159,-103.56299999999999
SK458,Lestock,,Saskatchewan,CA,51.3124,-103.98
SK459,Liberty,,Saskatchewan,CA,51.1419,-105.444
SK460,Limerick,,Saskatchewan,CA,49.6534,-106.26700000000001
SK461,Lintlaw,,Saskatchewan,CA,52.0645,-103.244
SK462,Lipton,,Saskatchewan,CA,50.9012,-103.84899999999999
SK463,Lisieux,,Saskatchewan,CA,49.2785,-105.975
SK464,Little Black Bear,,Saskatchewan,CA,51.0002,-103.348
SK465,Little Fishing Lake,,Saskatchewan,CA,53.8591,-109.565
SK466,Little Pine Indian Reserve 116,,Saskatchewan,CA,51.354179200000004,-110.63544309999999
SK467,Little Swan River,,Saskatchewan,CA,52.4013,-102.165
SK468,Livelong,,Saskatchewan,CA,53.4485,-108.704
SK469,Lockwood,,Saskatchewan,CA,51.65,-105.01700000000001
SK470,Lone Rock,,Saskatchewan,CA,53.049,-109.87899999999999
SK471,Loon Lake,,Saskatchewan,CA,54.0265,-109.156
SK472,Loreburn,,Saskatchewan,CA,51.2309,-106.59899999999999
SK473,Love,,Saskatchewan,CA,53.486999999999995,-104.165
SK474,Loverna,,Saskatchewan,CA,51.655,-109.99
SK475,Lucky Lake,,Saskatchewan,CA,50.9833,-107.133
SK476,Lumsden,,Saskatchewan,CA,50.6466,-104.868
SK477,Lumsden Beach,,Saskatchewan,CA,50.7629,-104.902
SK478,Luseland,,Saskatchewan,CA,52.0813,-109.39
SK479,Macdowall,,Saskatchewan,CA,53.0169,-106.015
SK480,Macklin,,Saskatchewan,CA,52.3333,-109.93700000000001
SK481,MacNutt,,Saskatchewan,CA,51.0839,-101.604
SK482,Macoun,,Saskatchewan,CA,49.315,-103.26299999999999
SK483,Macrorie,,Saskatchewan,CA,51.3261,-107.085
SK484,Maidstone,,Saskatchewan,CA,53.0894,-109.288
SK485,Main Centre,,Saskatchewan,CA,50.5822,-107.344
SK486,Major,,Saskatchewan,CA,51.8724,-109.61399999999999
SK487,Makwa,,Saskatchewan,CA,54.0059,-108.906
SK488,Makwa Sahgaiehcan,,Saskatchewan,CA,54.038999999999994,-109.161
SK489,Manitou Beach,,Saskatchewan,CA,51.7167,-105.43299999999999
SK490,Mankota,,Saskatchewan,CA,49.4199,-107.071
SK491,Manor,,Saskatchewan,CA,49.6053,-102.085
SK492,Mantario,,Saskatchewan,CA,51.2602,-109.695
SK493,Maple Creek,,Saskatchewan,CA,49.9064,-109.48
SK494,Marcelin,,Saskatchewan,CA,52.926,-106.794
SK495,Marchwell,,Saskatchewan,CA,50.8013,-101.57600000000001
SK496,Marengo,,Saskatchewan,CA,51.4794,-109.78299999999999
SK497,Margo,,Saskatchewan,CA,51.8251,-103.337
SK498,Markinch,,Saskatchewan,CA,50.9396,-104.36200000000001
SK499,Marquis,,Saskatchewan,CA,50.6195,-105.719
SK500,Marsden,,Saskatchewan,CA,52.8393,-109.822
SK501,Marshall,,Saskatchewan,CA,53.1935,-109.77799999999999
SK502,Martensville,,Saskatchewan,CA,52.2922,-106.65799999999999
SK503,Martinson's Beach,,Saskatchewan,CA,53.1,-108.43299999999999
SK504,Maryfield,,Saskatchewan,CA,49.8369,-101.52600000000001
SK505,Marysburg,,Saskatchewan,CA,52.318204200000004,-105.0935486
SK506,Mayfair,,Saskatchewan,CA,52.9833,-107.6
SK507,Maymont,,Saskatchewan,CA,52.5628,-107.70700000000001
SK508,Mazenod,,Saskatchewan,CA,49.8627,-106.21700000000001
SK509,McCord,,Saskatchewan,CA,49.428000000000004,-106.83
SK510,McGee,,Saskatchewan,CA,51.5029,-108.251
SK511,McKague,,Saskatchewan,CA,52.6151,-103.941
SK512,McLean,,Saskatchewan,CA,50.5167,-104.06700000000001
SK513,McMahon,,Saskatchewan,CA,50.0757,-107.56299999999999
SK514,McTaggart,,Saskatchewan,CA,49.7303,-104.01100000000001
SK515,Meacham,,Saskatchewan,CA,52.1075,-105.76
SK516,Meadow Lake,,Saskatchewan,CA,54.1266,-108.434
SK517,Meath Park,,Saskatchewan,CA,53.4425,-105.369
SK518,Medstead,,Saskatchewan,CA,53.299,-108.08
SK519,Mehan,,Saskatchewan,CA,51.2986,-102.455
SK520,Melfort,,Saskatchewan,CA,52.8594,-104.61
SK521,Melville,,Saskatchewan,CA,50.9332,-102.804
SK522,Mendham,,Saskatchewan,CA,50.7727,-109.664
SK523,Meota,,Saskatchewan,CA,53.0358,-108.454
SK524,Mervin,,Saskatchewan,CA,53.3341,-108.874
SK525,Meskanaw,,Saskatchewan,CA,52.7814,-105.08
SK526,Metinota,,Saskatchewan,CA,53.0317,-108.399
SK527,Meyronne,,Saskatchewan,CA,49.6695,-106.838
SK528,Michel Village,,Saskatchewan,CA,56.0126,-109.113
SK529,Midale,,Saskatchewan,CA,49.3971,-103.41
SK530,Middle Lake,,Saskatchewan,CA,52.4813,-105.305
SK531,Mikado,,Saskatchewan,CA,51.6088,-102.27
SK532,Milden,,Saskatchewan,CA,51.4873,-107.52
SK533,Mildred,,Saskatchewan,CA,53.35,-107.333
SK534,Milestone,,Saskatchewan,CA,49.9931,-104.51700000000001
SK535,Ministik Beach,,Saskatchewan,CA,51.6378,-101.625
SK536,Minowukaw Beach,,Saskatchewan,CA,53.778999999999996,-105.16
SK537,Minton,,Saskatchewan,CA,49.165,-104.583
SK538,Missinipe,,Saskatchewan,CA,55.6,-104.76700000000001
SK539,Mistatim,,Saskatchewan,CA,52.8719,-103.359
SK540,Mistawasis,,Saskatchewan,CA,53.1833,-106.8
SK541,Mistusinne,,Saskatchewan,CA,51.0635,-106.521
SK542,Mohr's Beach,,Saskatchewan,CA,50.8808,-105.088
SK543,Mont Nebo,,Saskatchewan,CA,53.2833,-106.85
SK544,Montmartre,,Saskatchewan,CA,50.2197,-103.45
SK545,Montreal Lake,,Saskatchewan,CA,54.0456,-105.773
SK546,Moose Bay,,Saskatchewan,CA,50.6132,-102.685
SK547,Moose Jaw,,Saskatchewan,CA,50.4,-105.53299999999999
SK548,Moose Range,,Saskatchewan,CA,53.2333,-103.7
SK549,Moosomin,,Saskatchewan,CA,50.141999999999996,-101.67
SK550,Moosomin,,Saskatchewan,CA,50.1444,-101.667
SK551,Morse,,Saskatchewan,CA,50.4159,-107.04
SK552,Mortlach,,Saskatchewan,CA,50.4547,-106.068
SK553,Mosquito-Grizzly Bear's Head-Lean Man,,Saskatchewan,CA,52.4905,-108.211
SK554,Mossbank,,Saskatchewan,CA,49.9392,-105.96600000000001
SK555,Mozart,,Saskatchewan,CA,51.7756,-103.994
SK556,Muenster,,Saskatchewan,CA,52.191,-104.99700000000001
SK557,Mullingar,,Saskatchewan,CA,53.0848,-107.663
SK558,Murray Point,,Saskatchewan,CA,53.607,-105.927
SK559,Muscowpetung,,Saskatchewan,CA,50.7793,-104.285
SK560,Muskoday,,Saskatchewan,CA,53.0943,-105.484
SK561,Muskowekwan,,Saskatchewan,CA,51.3225,-104.0
SK562,Naicam,,Saskatchewan,CA,52.4176,-104.49600000000001
SK563,Neilburg,,Saskatchewan,CA,52.8387,-109.624
SK564,Nekaneet,,Saskatchewan,CA,49.7657,-109.277
SK565,Nesslin Lake,,Saskatchewan,CA,53.93,-106.786
SK566,Netherhill,,Saskatchewan,CA,51.4701,-108.85600000000001
SK567,Neuanlage,,Saskatchewan,CA,52.4532,-106.463
SK568,Neudorf,,Saskatchewan,CA,50.711999999999996,-103.015
SK569,Neuhorst,,Saskatchewan,CA,52.4009,-106.57700000000001
SK570,Neville,,Saskatchewan,CA,49.9667,-107.633
SK571,Nipawin,,Saskatchewan,CA,53.3613,-104.014
SK572,Nokomis,,Saskatchewan,CA,51.5086,-105.01
SK573,Norquay,,Saskatchewan,CA,51.8833,-102.083
SK574,North Battleford,,Saskatchewan,CA,52.7782,-108.292
SK575,North Colesdale Park,,Saskatchewan,CA,50.9579,-105.15
SK576,North Grove,,Saskatchewan,CA,50.6969,-105.56299999999999
SK577,North Portal,,Saskatchewan,CA,49.0046,-102.54899999999999
SK578,North Shore Fishing Lake,,Saskatchewan,CA,51.8487,-103.515
SK579,North Weyburn,,Saskatchewan,CA,49.6922,-103.80799999999999
SK580,Northminster,,Saskatchewan,CA,53.3667,-109.93299999999999
SK581,Northside,,Saskatchewan,CA,53.5115,-105.766
SK582,Nut Mountain,,Saskatchewan,CA,52.1271,-103.38
SK583,Oakshela,,Saskatchewan,CA,50.3946,-102.762
SK584,Ocean Man,,Saskatchewan,CA,49.851000000000006,-103.021
SK585,Ochapowace,,Saskatchewan,CA,50.475,-102.39200000000001
SK586,Odessa,,Saskatchewan,CA,50.2833,-103.78299999999999
SK587,Ogema,,Saskatchewan,CA,49.5747,-104.915
SK588,Okanese,,Saskatchewan,CA,50.925,-103.384
SK589,Okla,,Saskatchewan,CA,52.0117022,-103.1183436
SK590,One Arrow 95,,Saskatchewan,CA,52.7348,-106.029
SK591,Onion Lake,,Saskatchewan,CA,53.7082,-109.958
SK592,Orcadia,,Saskatchewan,CA,51.2764,-102.613
SK593,Orkney,,Saskatchewan,CA,49.1438,-107.911
SK594,Ormiston,,Saskatchewan,CA,49.7385,-105.39299999999999
SK595,Osage,,Saskatchewan,CA,49.9568,-103.579
SK596,Osler,,Saskatchewan,CA,52.3679,-106.537
SK597,Otthon,,Saskatchewan,CA,51.0979,-102.598
SK598,Ottman - Murray Beach,,Saskatchewan,CA,51.818000000000005,-103.47200000000001
SK599,Oungre,,Saskatchewan,CA,49.1458,-103.79899999999999
SK600,Outlook,,Saskatchewan,CA,51.4891,-107.06200000000001
SK601,Outram,,Saskatchewan,CA,49.1449,-103.324
SK602,Oxbow,,Saskatchewan,CA,49.2305,-102.17200000000001
SK603,Paddockwood,,Saskatchewan,CA,53.5078,-105.561
SK604,Pakwaw Lake,,Saskatchewan,CA,53.4773,-102.65299999999999
SK605,Palmer,,Saskatchewan,CA,49.8599,-106.354
SK606,Palo,,Saskatchewan,CA,52.1667,-108.3
SK607,Pambrun,,Saskatchewan,CA,49.9333,-107.45
SK608,Pangman,,Saskatchewan,CA,49.6465,-104.662
SK609,Paradise Hill,,Saskatchewan,CA,53.5378,-109.458
SK610,Parkbeg,,Saskatchewan,CA,50.45399999999999,-106.26899999999999
SK611,Parkland Beach,,Saskatchewan,CA,53.5514,-108.694
SK612,Parkside,,Saskatchewan,CA,53.1656,-106.536
SK613,Parkview,,Saskatchewan,CA,50.6172,-105.458
SK614,Parry,,Saskatchewan,CA,49.7887,-104.72
SK615,Pasqua Lake,,Saskatchewan,CA,50.7361,-103.98
SK616,Pasqua Lake,,Saskatchewan,CA,50.7928,-103.961
SK617,Paswegin,,Saskatchewan,CA,51.9939,-103.965
SK618,Pathlow,,Saskatchewan,CA,52.7157,-104.805
SK619,Patuanak,,Saskatchewan,CA,55.8964,-107.705
SK620,Paynton,,Saskatchewan,CA,53.0139,-108.936
SK621,Pebble Baye,,Saskatchewan,CA,53.1915,-107.009
SK622,Peebles,,Saskatchewan,CA,50.1593,-102.949
SK623,Peepeekisis,,Saskatchewan,CA,50.8693,-103.329
SK624,Peerless,,Saskatchewan,CA,54.3474,-109.23
SK625,Peesane,,Saskatchewan,CA,52.8682,-103.6
SK626,Pelican Cove,,Saskatchewan,CA,53.1668,-107.054
SK627,Pelican Lake 191C,,Saskatchewan,CA,53.7251,-107.73899999999999
SK628,Pelican Narrows,,Saskatchewan,CA,55.1667,-102.93299999999999
SK629,Pelican Point,,Saskatchewan,CA,53.0506,-108.318
SK630,Pelican Pointe,,Saskatchewan,CA,50.8038,-105.031
SK631,Pelly,,Saskatchewan,CA,51.8562,-101.929
SK632,Pemmican Portage,,Saskatchewan,CA,53.9333,-102.28299999999999
SK633,Pennant,,Saskatchewan,CA,50.5333,-108.23299999999999
SK634,Pense,,Saskatchewan,CA,50.4167,-104.98299999999999
SK635,Penzance,,Saskatchewan,CA,51.0591,-105.439
SK636,Percival,,Saskatchewan,CA,50.3636,-102.40899999999999
SK637,Perdue,,Saskatchewan,CA,52.0544,-107.544
SK638,Périgord,,Saskatchewan,CA,52.3474,-103.566
SK639,Peter Ballantyne,,Saskatchewan,CA,55.175,-102.906
SK640,Peterson,,Saskatchewan,CA,52.188,-105.681
SK641,Phillips Grove,,Saskatchewan,CA,53.8697,-106.935
SK642,Piapot,,Saskatchewan,CA,49.989,-109.12100000000001
SK643,Pierceland,,Saskatchewan,CA,54.3393,-109.78200000000001
SK644,Pike Lake,,Saskatchewan,CA,51.9116,-106.818
SK645,Pilger,,Saskatchewan,CA,52.4252,-105.26799999999999
SK646,Pilot Butte,,Saskatchewan,CA,50.481,-104.42
SK647,Pinehouse,,Saskatchewan,CA,55.5194,-106.574
SK648,Pleasantdale,,Saskatchewan,CA,52.5779,-104.506
SK649,Plenty,,Saskatchewan,CA,51.7829,-108.646
SK650,Plunkett,,Saskatchewan,CA,51.9079,-105.445
SK651,Ponteix,,Saskatchewan,CA,49.7458,-107.48899999999999
SK652,Pontrilas,,Saskatchewan,CA,53.2167,-104.03299999999999
SK653,Porcupine Plain,,Saskatchewan,CA,52.5989,-103.255
SK654,Poundmaker,,Saskatchewan,CA,52.8959,-108.97399999999999
SK655,Powm Beach,,Saskatchewan,CA,53.5734,-108.704
SK656,Prairie River,,Saskatchewan,CA,52.8618,-102.993
SK657,Preeceville,,Saskatchewan,CA,51.9558,-102.666
SK658,Prelate,,Saskatchewan,CA,50.8537,-109.404
SK659,Primate,,Saskatchewan,CA,52.2632,-109.823
SK660,Prince,,Saskatchewan,CA,52.9624,-108.367
SK661,Prince Albert,,Saskatchewan,CA,53.1988,-105.765
SK662,Prongua,,Saskatchewan,CA,52.7437,-108.546
SK663,Prud'homme,,Saskatchewan,CA,52.3384,-105.89
SK664,Punnichy,,Saskatchewan,CA,51.3714,-104.29700000000001
SK665,Qu'Appelle,,Saskatchewan,CA,50.5434,-103.876
SK666,Quill Lake,,Saskatchewan,CA,52.0713,-104.25299999999999
SK667,Quinton,,Saskatchewan,CA,51.38399999999999,-104.404
SK668,Rabbit Lake,,Saskatchewan,CA,53.1449,-107.76700000000001
SK669,Radisson,,Saskatchewan,CA,52.4615,-107.39200000000001
SK670,Radville,,Saskatchewan,CA,49.4613,-104.3
SK671,Rama,,Saskatchewan,CA,51.7574,-103.00200000000001
SK672,Ranger,,Saskatchewan,CA,53.6100853,-107.6979207
SK673,Rapid View,,Saskatchewan,CA,54.15,-108.81700000000001
SK674,Raymore,,Saskatchewan,CA,51.4098,-104.527
SK675,Red Deer Hill,,Saskatchewan,CA,53.0226,-105.805
SK676,Red Earth,,Saskatchewan,CA,53.4861,-102.86200000000001
SK677,Red Jacket,,Saskatchewan,CA,50.2101,-101.79
SK678,Red Pheasant,,Saskatchewan,CA,52.4606,-108.17
SK679,Redvers,,Saskatchewan,CA,49.5733,-101.698
SK680,Regina,,Saskatchewan,CA,50.45,-104.617
SK681,Regina Beach,,Saskatchewan,CA,50.7905,-104.98100000000001
SK682,Renown,,Saskatchewan,CA,51.6333,-105.55
SK683,Reserve,,Saskatchewan,CA,52.4701,-102.64399999999999
SK684,Rex,,Saskatchewan,CA,53.45,-109.93299999999999
SK685,Rhein,,Saskatchewan,CA,51.3528,-102.19
SK686,Rheinfeld,,Saskatchewan,CA,50.1167,-107.56700000000001
SK687,Rheinland,,Saskatchewan,CA,52.4174,-106.505
SK688,Riceton,,Saskatchewan,CA,50.1112,-104.319
SK689,Richard,,Saskatchewan,CA,52.6929,-107.70299999999999
SK690,Richardson,,Saskatchewan,CA,50.3833,-104.45
SK691,Richmound,,Saskatchewan,CA,50.4547,-109.756
SK692,Ridgedale,,Saskatchewan,CA,53.0563,-104.152
SK693,Riverhurst,,Saskatchewan,CA,50.9025,-106.867
SK694,Riversedge,,Saskatchewan,CA,52.2222,-106.553
SK695,Riverside Estates,,Saskatchewan,CA,52.0473,-106.70100000000001
SK696,Robsart,,Saskatchewan,CA,49.3833,-109.28299999999999
SK697,Rocanville,,Saskatchewan,CA,50.3833,-101.7
SK698,Roche Percee,,Saskatchewan,CA,49.0667,-102.8
SK699,Rockglen,,Saskatchewan,CA,49.1833,-105.95
SK700,Rockhaven,,Saskatchewan,CA,52.6715,-108.87
SK701,Rokeby,,Saskatchewan,CA,51.1333,-102.333
SK702,Rose Valley,,Saskatchewan,CA,52.2929,-103.811
SK703,Rosenhof,,Saskatchewan,CA,50.2054,-107.571
SK704,Rosetown,,Saskatchewan,CA,51.5571,-107.984
SK705,Rosthern,,Saskatchewan,CA,52.6667,-106.333
SK706,Rouleau,,Saskatchewan,CA,50.1898,-104.902
SK707,Ruby Beach,,Saskatchewan,CA,52.9665,-102.348
SK708,Ruddell,,Saskatchewan,CA,52.6051,-107.85799999999999
SK709,Runnymede,,Saskatchewan,CA,51.4791,-101.70100000000001
SK710,Rush Lake,,Saskatchewan,CA,50.4052,-107.399
SK711,Ruthilda,,Saskatchewan,CA,51.8921,-108.46600000000001
SK712,Sakimay,,Saskatchewan,CA,50.5273,-102.79299999999999
SK713,Saltcoats,,Saskatchewan,CA,51.0431,-102.163
SK714,Salvador,,Saskatchewan,CA,52.1681,-109.509
SK715,Sand Point Beach,,Saskatchewan,CA,50.6944,-105.581
SK716,Sandy Bay,,Saskatchewan,CA,55.5227,-102.303
SK717,Sandy Beach,,Saskatchewan,CA,50.7225,-103.655
SK718,Sarnia Beach,,Saskatchewan,CA,50.9955,-105.225
SK719,Saskatchewan Beach,,Saskatchewan,CA,50.7955,-104.927
SK720,Saskatoon,,Saskatchewan,CA,52.1307,-106.65899999999999
SK721,Saulteaux 159,,Saskatchewan,CA,53.1227,-108.337
SK722,Sceptre,,Saskatchewan,CA,50.8622,-109.26700000000001
SK723,Schoenfeld,,Saskatchewan,CA,50.0889,-107.699
SK724,Scott,,Saskatchewan,CA,52.3667,-108.833
SK725,Scout Lake,,Saskatchewan,CA,49.3646,-106.0
SK726,Sedley,,Saskatchewan,CA,50.1686,-104.014
SK727,Semans,,Saskatchewan,CA,51.4064,-104.729
SK728,Senlac,,Saskatchewan,CA,52.4918,-109.70700000000001
SK729,Shackleton,,Saskatchewan,CA,50.6849,-108.605
SK730,Shamrock,,Saskatchewan,CA,50.1607,-106.624
SK731,Shaunavon,,Saskatchewan,CA,49.65,-108.417
SK732,Sheho,,Saskatchewan,CA,51.5883,-103.214
SK733,Shell Lake,,Saskatchewan,CA,53.3062,-107.06299999999999
SK734,Shellbrook,,Saskatchewan,CA,53.2232,-106.385
SK735,Shields,,Saskatchewan,CA,51.8214,-106.41799999999999
SK736,Shipman,,Saskatchewan,CA,53.4758,-104.98200000000001
SK737,Silton,,Saskatchewan,CA,50.8075,-104.91
SK738,Silver Park,,Saskatchewan,CA,52.665,-104.523
SK739,Simmie,,Saskatchewan,CA,49.943999999999996,-108.105
SK740,Simpson,,Saskatchewan,CA,51.4486,-105.444
SK741,Sintaluta,,Saskatchewan,CA,50.479,-103.449
SK742,Sled Lake,,Saskatchewan,CA,54.428000000000004,-107.321
SK743,Sleepy Hollow,,Saskatchewan,CA,53.0631,-108.321
SK744,Smeaton,,Saskatchewan,CA,53.4923,-104.806
SK745,Smiley,,Saskatchewan,CA,51.6319,-109.47
SK746,Smoky Burn,,Saskatchewan,CA,53.3667,-103.133
SK747,Snowden,,Saskatchewan,CA,53.4916,-104.678
SK748,Sonningdale,,Saskatchewan,CA,52.3833,-107.68299999999999
SK749,Sorenson's Beach,,Saskatchewan,CA,50.8364,-105.057
SK750,South Lake,,Saskatchewan,CA,50.6763,-105.56299999999999
SK751,Southend Reindeer,,Saskatchewan,CA,56.3266,-103.23899999999999
SK752,Southey,,Saskatchewan,CA,50.9401,-104.499
SK753,Sovereign,,Saskatchewan,CA,51.5167,-107.71700000000001
SK754,Spalding,,Saskatchewan,CA,52.3288,-104.495
SK755,Speers,,Saskatchewan,CA,52.7083,-107.55799999999999
SK756,Spiritwood,,Saskatchewan,CA,53.364,-107.51899999999999
SK757,Spring Bay,,Saskatchewan,CA,50.9361,-105.13600000000001
SK758,Spring Valley,,Saskatchewan,CA,49.9432,-105.40299999999999
SK759,Springfeld,,Saskatchewan,CA,50.1419,-107.734
SK760,Springside,,Saskatchewan,CA,51.345,-102.742
SK761,Springside,,Saskatchewan,CA,51.3465,-102.743
SK762,Springwater,,Saskatchewan,CA,51.9727,-108.37799999999999
SK763,Spruce Bay,,Saskatchewan,CA,53.2069,-107.69200000000001
SK764,Spruce Home,,Saskatchewan,CA,53.3941,-105.76700000000001
SK765,Spruce Lake,,Saskatchewan,CA,53.5425,-109.088
SK766,Spy Hill,,Saskatchewan,CA,50.6022,-101.685
SK767,St. Benedict,,Saskatchewan,CA,52.5683,-105.39399999999999
SK768,St. Brieux,,Saskatchewan,CA,52.6356,-104.89200000000001
SK769,St. Cyr Lake,,Saskatchewan,CA,54.2167,-108.06700000000001
SK770,St. George's Hill,,Saskatchewan,CA,55.8769,-108.961
SK771,St. Gregor,,Saskatchewan,CA,52.1776,-104.82700000000001
SK772,St. Isidore-de-Bellevue,,Saskatchewan,CA,52.7843,-105.92200000000001
SK773,St. Joseph's,,Saskatchewan,CA,50.4966,-104.18
SK774,St. Louis,,Saskatchewan,CA,52.9152,-105.81200000000001
SK775,St. Walburg,,Saskatchewan,CA,53.6326,-109.198
SK776,Stalwart,,Saskatchewan,CA,51.2339,-105.44200000000001
SK777,Stanley Mission,,Saskatchewan,CA,55.4147,-104.566
SK778,Star Blanket 83,,Saskatchewan,CA,50.9615786,-103.5139042
SK779,Star City,,Saskatchewan,CA,52.8625,-104.33200000000001
SK780,Starblanket,,Saskatchewan,CA,53.3683,-106.913
SK781,Steen,,Saskatchewan,CA,52.6805,-103.52600000000001
SK782,Stenen,,Saskatchewan,CA,51.9002,-102.38
SK783,Stewart Valley,,Saskatchewan,CA,50.5978,-107.805
SK784,Stockholm,,Saskatchewan,CA,50.661,-102.302
SK785,Stony Beach,,Saskatchewan,CA,50.4715,-105.163
SK786,Stony Rapids,,Saskatchewan,CA,59.254,-105.837
SK787,Stornoway,,Saskatchewan,CA,51.2944,-102.03399999999999
SK788,Storthoaks,,Saskatchewan,CA,49.3894,-101.601
SK789,Stoughton,,Saskatchewan,CA,49.6797,-103.027
SK790,Stranraer,,Saskatchewan,CA,51.7082,-108.485
SK791,Strasbourg,,Saskatchewan,CA,51.0708,-104.958
SK792,Strongfield,,Saskatchewan,CA,51.3338,-106.596
SK793,Sturgeon Lake,,Saskatchewan,CA,53.4101,-105.991
SK794,Sturgeon Landing,,Saskatchewan,CA,54.2698,-101.82700000000001
SK795,Sturgis,,Saskatchewan,CA,51.9371,-102.53299999999999
SK796,Success,,Saskatchewan,CA,50.4596,-108.079
SK797,Summerberry,,Saskatchewan,CA,50.4167,-103.1
SK798,Summerfield Beach,,Saskatchewan,CA,53.0401,-108.30799999999999
SK799,Sun Valley,,Saskatchewan,CA,50.6544,-105.53
SK800,Sunset Beach,,Saskatchewan,CA,50.6021,-102.666
SK801,Sunset Cove,,Saskatchewan,CA,50.8111,-105.00299999999999
SK802,Sunset View Beach,,Saskatchewan,CA,53.5491,-108.62299999999999
SK803,Swan Plain,,Saskatchewan,CA,52.115,-102.054
SK804,Swanson,,Saskatchewan,CA,51.7,-107.15
SK805,Sweetgrass,,Saskatchewan,CA,52.7626,-108.713
SK806,Swift Current,,Saskatchewan,CA,50.2844,-107.791
SK807,Sylvania,,Saskatchewan,CA,52.6941,-104.00299999999999
SK808,Tadmore,,Saskatchewan,CA,51.8341,-102.479
SK809,Tangleflags,,Saskatchewan,CA,53.4833,-109.633
SK810,Tantallon,,Saskatchewan,CA,50.5349,-101.84100000000001
SK811,Taylor Beach,,Saskatchewan,CA,50.6907,-103.654
SK812,Tessier,,Saskatchewan,CA,51.8078,-107.429
SK813,The Key 65,,Saskatchewan,CA,51.7829,-102.115
SK814,Theodore,,Saskatchewan,CA,51.4257,-102.921
SK815,Thode,,Saskatchewan,CA,51.7881,-106.44200000000001
SK816,Thunderchild,,Saskatchewan,CA,53.4576,-108.87
SK817,Timber Bay,,Saskatchewan,CA,54.1583,-105.678
SK818,Tisdale,,Saskatchewan,CA,52.85,-104.05
SK819,Tobin Lake,,Saskatchewan,CA,53.5167,-103.73299999999999
SK820,Togo,,Saskatchewan,CA,51.4025,-101.58200000000001
SK821,Tompkins,,Saskatchewan,CA,50.0626,-108.79700000000001
SK822,Torquay,,Saskatchewan,CA,49.1409,-103.491
SK823,Tramping Lake,,Saskatchewan,CA,52.1333,-108.95
SK824,Tregarva,,Saskatchewan,CA,50.6034,-104.709
SK825,Tribune,,Saskatchewan,CA,49.2484,-103.824
SK826,Trossachs,,Saskatchewan,CA,49.6371,-104.22399999999999
SK827,Truax,,Saskatchewan,CA,49.903999999999996,-104.946
SK828,Tuffnell,,Saskatchewan,CA,51.6421,-103.37100000000001
SK829,Tugaske,,Saskatchewan,CA,50.8737,-106.287
SK830,Turnor Lake,,Saskatchewan,CA,56.4601,-108.72
SK831,Turtle Lake South Bay,,Saskatchewan,CA,53.5122,-108.705
SK832,Turtleford,,Saskatchewan,CA,53.3887,-108.958
SK833,Tuxford,,Saskatchewan,CA,50.5761,-105.58
SK834,Tway,,Saskatchewan,CA,52.7376,-105.439
SK835,Tyvan,,Saskatchewan,CA,50.0334,-103.71799999999999
SK836,Uhl's Bay,,Saskatchewan,CA,50.9843,-105.141
SK837,Unity,,Saskatchewan,CA,52.4398,-109.15799999999999
SK838,Uranium City,,Saskatchewan,CA,59.5667,-108.617
SK839,Usherville,,Saskatchewan,CA,52.2314,-102.65700000000001
SK840,Val Marie,,Saskatchewan,CA,49.2457,-107.728
SK841,Valparaiso,,Saskatchewan,CA,52.8513,-104.186
SK842,Vanguard,,Saskatchewan,CA,49.9059,-107.29899999999999
SK843,Vanscoy,,Saskatchewan,CA,52.0019,-106.97399999999999
SK844,Vanstone,,Saskatchewan,CA,51.2111,-102.617
SK845,Vantage,,Saskatchewan,CA,49.8424,-106.031
SK846,Vawn,,Saskatchewan,CA,53.106,-108.664
SK847,Venn,,Saskatchewan,CA,51.6167,-105.3
SK848,Veregin,,Saskatchewan,CA,51.5833,-102.083
SK849,Vibank,,Saskatchewan,CA,50.3354,-103.947
SK850,Viscount,,Saskatchewan,CA,51.9464,-105.648
SK851,Vonda,,Saskatchewan,CA,52.3236,-106.096
SK852,Wadena,,Saskatchewan,CA,51.9471,-103.796
SK853,Wahpeton Dakota,,Saskatchewan,CA,53.2742,-105.90299999999999
SK854,Wakaw,,Saskatchewan,CA,52.6489,-105.74
SK855,Wakaw Lake,,Saskatchewan,CA,52.6364,-105.64399999999999
SK856,Waldeck,,Saskatchewan,CA,50.358999999999995,-107.595
SK857,Waldheim,,Saskatchewan,CA,52.6188,-106.65299999999999
SK858,Waldron,,Saskatchewan,CA,50.8519,-102.515
SK859,Wapella,,Saskatchewan,CA,50.2615,-101.97
SK860,Warman,,Saskatchewan,CA,52.3186,-106.57799999999999
SK861,Wartime,,Saskatchewan,CA,51.2136,-108.193
SK862,Waseca,,Saskatchewan,CA,53.1002,-109.471
SK863,Waskesiu Lake,,Saskatchewan,CA,53.92,-106.079
SK864,Waterhen Lake,,Saskatchewan,CA,54.5167,-108.417
SK865,Watrous,,Saskatchewan,CA,51.6768,-105.464
SK866,Watson,,Saskatchewan,CA,52.1264,-104.522
SK867,Wauchope,,Saskatchewan,CA,49.5964,-101.904
SK868,Wawota,,Saskatchewan,CA,49.9057,-102.023
SK869,Webb,,Saskatchewan,CA,50.1833,-108.2
SK870,Wee Too Beach,,Saskatchewan,CA,50.9354,-105.17
SK871,Weekes,,Saskatchewan,CA,52.5697,-102.87100000000001
SK872,Weirdale,,Saskatchewan,CA,53.4475,-105.238
SK873,Weldon,,Saskatchewan,CA,53.0088,-105.14299999999999
SK874,Welwyn,,Saskatchewan,CA,50.325,-101.515
SK875,West End,,Saskatchewan,CA,50.5492,-102.415
SK876,Westview,,Saskatchewan,CA,50.9309,-102.85799999999999
SK877,Weyakwin,,Saskatchewan,CA,54.4314,-105.803
SK878,Weyburn,,Saskatchewan,CA,49.6667,-103.85
SK879,White Bear,,Saskatchewan,CA,50.8796,-108.219
SK880,White City,,Saskatchewan,CA,50.4409,-104.368
SK881,White Fox,,Saskatchewan,CA,53.45,-104.083
SK882,Whitebeech,,Saskatchewan,CA,52.0558,-101.704
SK883,Whitecap,,Saskatchewan,CA,51.8731,-106.70100000000001
SK884,Whitewood,,Saskatchewan,CA,50.3333,-102.26700000000001
SK885,Wilcox,,Saskatchewan,CA,50.0982,-104.72200000000001
SK886,Wilkie,,Saskatchewan,CA,52.4082,-108.706
SK887,Willmar,,Saskatchewan,CA,49.4816,-102.476
SK888,Willow Bunch,,Saskatchewan,CA,49.3922,-105.633
SK889,Willowbrook,,Saskatchewan,CA,51.2047,-102.79700000000001
SK890,Wimmer,,Saskatchewan,CA,52.095,-104.399
SK891,Windthorst,,Saskatchewan,CA,50.1085,-102.836
SK892,Wiseton,,Saskatchewan,CA,51.3137,-107.649
SK893,Wishart,,Saskatchewan,CA,51.548,-103.98299999999999
SK894,Witchekan Lake,,Saskatchewan,CA,53.5005,-107.596
SK895,Wollaston Lake,,Saskatchewan,CA,58.165251899999994,-103.7879148
SK896,Wolseley,,Saskatchewan,CA,50.4235,-103.272
SK897,Wood Mountain,,Saskatchewan,CA,49.3709,-106.383
SK898,Wroxton,,Saskatchewan,CA,51.2267,-101.88600000000001
SK899,Wymark,,Saskatchewan,CA,50.1101,-107.736
SK900,Wynyard,,Saskatchewan,CA,51.7667,-104.18299999999999
SK901,Yarbo,,Saskatchewan,CA,50.7,-101.93299999999999
SK902,Yellow Creek,,Saskatchewan,CA,52.75,-105.25
SK903,Yellow Grass,,Saskatchewan,CA,49.8041,-104.161
SK904,Yorkton,,Saskatchewan,CA,51.2098,-102.449
SK905,Young,,Saskatchewan,CA,51.7677,-105.743
SK906,Zealandia,,Saskatchewan,CA,51.6155,-107.743
SK907,Zelma,,Saskatchewan,CA,51.8424,-105.905
SK908,Zeneta,,Saskatchewan,CA,50.7333,-102.06700000000001
SK909,Zenon Park,,Saskatchewan,CA,53.0659,-103.756
