id,name,alt_name,region,country,latitude,longitude,tags,km_distance_to_ocean,is_coastal,ocean_lat1,ocean_lon1
SE1,Abbekås,,Skåne,SE,55.399274,13.600275,ardac,0.6,True,55.3399,13.6942
SE2,Abborrberget,,Värmland,SE,59.712128,14.202896,ardac,164.5,False,60.6446,16.9823
SE3,Alberga,,Örebro,SE,59.456204,14.88012,ardac,117.3,False,58.836,17.0166
SE4,Alby,,Gotland,SE,57.819483,18.956528,ardac,2.2,True,57.7563,19.0476
SE5,Alfta,,Gävleborg,SE,61.345719,16.000104,ardac,59.0,True,61.2406,17.0714
SE6,Algutsrum,,Kalmar,SE,56.679426,16.529795,ardac,6.6,True,56.6321,16.3401
SE7,Alingsås,,Västra Götaland,SE,57.980745,12.45817,ardac,39.2,True,57.7758,11.9659
SE8,Allerum,,Skåne,SE,56.128579,12.668427,ardac,3.9,True,55.9137,12.7545
SE9,Almunge,,Uppsala,SE,59.877306,18.046123,ardac,36.8,True,60.1068,18.5295
SE10,Alsike,,Uppsala,SE,59.756626,17.763587,ardac,39.0,True,59.3478,18.3975
SE11,Alstad,,Skåne,SE,55.454374,13.209501,ardac,10.2,True,55.4022,13.03
SE12,Alsterbro,,Kalmar,SE,56.940257,15.913943,ardac,32.0,True,56.7101,16.2663
SE13,Alster,,Värmland,SE,59.398117,13.608431,ardac,131.7,False,59.2285,10.9627
SE14,Alstermo,,Kronoberg,SE,56.974271,15.65268,ardac,47.6,True,56.5758,16.2644
SE15,Alunda,,Uppsala,SE,60.066453,18.078071,ardac,23.6,True,60.1406,18.5247
SE16,Alvesta,,Kronoberg,SE,56.863826,14.44793,ardac,79.4,True,56.1698,14.7503
SE17,Alvhem,,Uppsala,SE,59.749985,17.761835,ardac,38.4,True,59.3412,18.3956
SE18,Alvik,,Stockholm,SE,59.3334,17.9803,ardac,6.6,True,59.2527,18.3793
SE19,Alvik,,Norrbotten,SE,65.566667,21.783333,ardac,4.8,True,65.5012,21.8916
SE20,Ambjörnarp,,Västra Götaland,SE,57.421314,13.294558,ardac,70.4,True,56.9127,12.4969
SE21,Ammenäs,,Västra Götaland,SE,58.311395,11.818407,ardac,0.7,True,58.2572,11.6268
SE22,Anderslöv,,Skåne,SE,55.438877,13.318682,ardac,10.7,True,55.3868,13.1391
SE23,Anderstorp,,Jönköping,SE,57.282982,13.636821,ardac,81.3,True,56.7824,12.5534
SE24,Aneby,,Jönköping,SE,57.874561,14.75443,ardac,98.9,True,57.8948,16.6275
SE25,Angelstad,,Kronoberg,SE,56.827591,13.763888,ardac,57.8,True,56.7968,12.7248
SE26,Angered,,Västra Götaland,SE,57.813166,12.118917,ardac,16.9,True,57.7594,11.9295
SE27,Ankarsrum,,Kalmar,SE,57.700892,16.334361,ardac,13.8,True,57.6395,16.4296
SE28,Ankarsvik,,Västernorrland,SE,62.373596,17.40904,ardac,2.3,True,62.3112,17.5157
SE29,Anneberg,,Halland,SE,57.539118,12.110653,ardac,9.2,True,57.4854,11.9227
SE30,Annelöv,,Skåne,SE,55.836544,13.019732,ardac,5.9,True,55.7841,12.8387
SE31,Antnäs,,Norrbotten,SE,65.552552,21.842872,ardac,2.0,True,65.487,21.9509
SE32,Aplared,,Västra Götaland,SE,57.650125,13.067945,ardac,63.8,True,57.6178,11.716
SE33,Arboga,,Västmanland,SE,59.394187,15.839664,ardac,83.9,True,58.8088,17.0593
SE34,Arbrå,,Gävleborg,SE,61.473088,16.374964,ardac,38.3,True,61.3814,17.1267
SE35,Ardala,,Västra Götaland,SE,58.362007,13.338056,ardac,85.4,True,58.18,11.6556
SE36,Arentorp,,Västra Götaland,SE,58.241915,12.873894,ardac,58.0,True,58.2076,11.5001
SE37,Arild,,Skåne,SE,56.273819,12.572109,ardac,4.2,True,56.3715,12.6805
SE38,Arjeplog,,Norrbotten,SE,66.380715,17.106845,ardac,104.9,False,67.1962,14.6839
SE39,Arkelstorp,,Skåne,SE,56.173923,14.289774,ardac,19.7,True,55.9483,14.6449
SE40,Arninge,,Stockholm,SE,59.464709,18.129501,ardac,1.0,True,59.402,18.2261
SE41,Arnö,,Södermanland,SE,56.180854,15.586153,ardac,0.2,True,56.1201,15.6789
SE42,Arrie,,Skåne,SE,55.515525,13.085134,ardac,8.2,True,55.4566,13.1801
SE43,Arvidsjaur,,Norrbotten,SE,65.656995,19.345614,ardac,96.5,True,65.4505,21.6749
SE44,Arvidsvik,,Västra Götaland,SE,57.888471,11.591697,ardac,5.2,True,57.8306,11.695
SE45,Arvika,,Värmland,SE,59.654355,12.591622,ardac,92.8,True,59.304,11.1516
SE46,Askeby,,Östergötland,SE,58.406696,15.871683,ardac,30.4,True,58.3182,16.5602
SE47,Askersby,,Örebro,SE,59.14896,15.474376,ardac,69.2,True,58.8631,17.0506
SE48,Askersund,,Örebro,SE,58.8355,14.925755,ardac,76.1,True,58.3859,16.7602
SE49,Asmundtorp,,Skåne,SE,55.885595,12.947194,ardac,5.0,True,55.833,12.766
SE50,Aspeboda,,Dalarna,SE,60.560042,15.491874,ardac,94.1,True,60.74,17.2349
SE51,Asperö,,Västra Götaland,SE,57.646285,11.800211,ardac,2.5,True,57.5882,11.9025
SE52,Aspås,,Jämtland,SE,63.365034,14.4847,ardac,158.4,False,62.4026,17.4931
SE53,Avan,,Norrbotten,SE,66.109133,22.300143,ardac,27.5,True,65.7067,22.6332
SE54,Avesta,,Dalarna,SE,60.146955,16.182699,ardac,81.9,True,60.5078,17.3172
SE55,Axvall,,Västra Götaland,SE,58.389166,13.574769,ardac,99.4,True,58.2139,11.5944
SE56,Backaryd,,Blekinge,SE,56.347209,15.154482,ardac,18.3,True,56.2867,15.2483
SE57,Backa,,Gävleborg,SE,60.660842,17.076742,ardac,7.0,True,60.5988,17.1786
SE58,Backe,,Västernorrland,SE,62.273599,17.143122,ardac,14.0,True,62.195,17.581
SE59,Baggetorp,,Örebro,SE,58.905277,14.608042,ardac,96.0,True,58.2898,16.717
SE60,Baldersnäs,,Västra Götaland,SE,58.962705,12.277522,ardac,48.5,True,58.9222,10.8765
SE61,Ballingslöv,,Skåne,SE,56.214274,13.846578,ardac,42.6,True,55.8338,14.1879
SE62,Balsby,,Skåne,SE,56.075362,14.21103,ardac,15.9,True,55.8499,14.5657
SE63,Bammarboda,,Stockholm,SE,59.506469,18.468463,ardac,1.8,True,59.4435,18.5646
SE64,Bankekind,,Östergötland,SE,58.36145,15.853222,ardac,35.1,True,58.273,16.541
SE65,Bankeryd,,Jönköping,SE,57.863142,14.127853,ardac,131.2,False,57.7005,11.8817
SE66,Bara,,Gotland,SE,57.588491,18.610915,ardac,9.6,True,57.5255,18.7021
SE67,Barkarö,,Västmanland,SE,59.555793,16.504193,ardac,78.8,True,58.8416,17.0859
SE68,Barsebäck,,Skåne,SE,55.771661,12.956365,ardac,1.4,True,55.8753,12.7867
SE69,Barsebäckshamn,,Skåne,SE,55.755836,12.905884,ardac,1.0,True,55.8594,12.7362
SE70,Baskemölla,,Skåne,SE,55.591541,14.315296,ardac,1.2,True,55.5317,14.4086
SE71,Bastuträsk,,Västerbotten,SE,64.021139,19.347257,ardac,51.4,True,63.4916,19.304
SE72,Beddingestrand,,Skåne,SE,55.360633,13.425184,ardac,1.3,True,55.3014,13.5193
SE73,Bengtsfors,,Västra Götaland,SE,59.011644,12.245549,ardac,46.5,True,58.9686,11.1444
SE74,Bengtsheden,,Dalarna,SE,60.700717,15.870233,ardac,72.0,True,60.7525,16.954
SE75,Bensbyn,,Norrbotten,SE,65.639826,22.239665,ardac,1.9,True,65.5459,22.715
SE76,Bergagård,,Halland,SE,56.981516,12.5775,ardac,11.9,True,56.9284,12.3916
SE77,Berga,,Kalmar,SE,57.216667,16.033333,ardac,25.7,True,57.4531,16.4677
SE78,Berga,,Östergötland,SE,58.598056,16.252222,ardac,2.8,True,58.3668,16.6179
SE79,Bergby,,Gävleborg,SE,60.929064,17.041003,ardac,6.7,True,60.8509,17.4612
SE80,Bergeforsen,,Västernorrland,SE,62.526318,17.373982,ardac,1.9,True,62.464,17.4812
SE81,Berg,,Jämtland,SE,62.689571,14.356633,ardac,155.2,False,62.3538,17.4535
SE82,Berghem,,Gävleborg,SE,61.546404,16.981166,ardac,5.3,True,61.3127,17.3735
SE83,Bergkvara,,Kalmar,SE,56.39075,16.070362,ardac,3.5,True,56.3296,16.1629
SE84,Berg,,Jämtland,SE,62.689571,14.356633,ardac,155.2,False,62.3538,17.4535
SE85,Bergnäset,,Norrbotten,SE,65.568224,22.110145,ardac,1.5,True,65.5025,22.2176
SE86,Bergshammar,,Södermanland,SE,58.741404,16.912554,ardac,6.8,True,58.8352,17.0404
SE87,Bergshamra,,Stockholm,SE,59.639531,18.656496,ardac,0.5,True,59.5765,18.7526
SE88,Bergsjö,,Gävleborg,SE,61.983775,17.058369,ardac,15.8,True,61.9054,17.4925
SE89,Bergströmshusen,,Skåne,SE,55.67668,13.17336,ardac,7.1,True,55.4683,12.9812
SE90,Bergsviken,,Norrbotten,SE,65.307803,21.390501,ardac,1.5,True,65.2426,21.4987
SE91,Bergsäng,,Värmland,SE,60.111842,13.567442,ardac,159.3,False,59.3128,11.1555
SE92,Bergvik,,Gävleborg,SE,61.255352,16.832544,ardac,15.6,True,61.1778,17.2575
SE93,Berg,,Jämtland,SE,62.689571,14.356633,ardac,155.2,False,62.3538,17.4535
SE94,Bestorp,,Östergötland,SE,58.233475,15.733218,ardac,48.1,True,58.2869,16.7416
SE95,Betsede,,Stockholm,SE,59.329785,18.431584,ardac,1.2,True,59.2669,18.5273
SE96,Bettna,,Södermanland,SE,58.907255,16.638713,ardac,28.5,True,58.8305,17.0359
SE97,Bie,,Södermanland,SE,59.08786,16.21166,ardac,46.6,True,58.8419,16.882
SE98,Billdal,,Västra Götaland,SE,57.576997,11.942625,ardac,2.8,True,57.523,11.7547
SE99,Billeberga,,Skåne,SE,55.882914,12.999087,ardac,7.1,True,55.8304,12.8179
SE100,Billinge,,Skåne,SE,55.962529,13.331781,ardac,29.1,True,55.9171,12.872
SE101,Billingsfors,,Västra Götaland,SE,58.983173,12.246167,ardac,46.6,True,58.9401,11.1459
SE102,Billsta,,Västernorrland,SE,63.322877,18.514495,ardac,13.6,True,63.1042,18.5768
SE103,Birka,,Stockholm,SE,59.332728,17.544941,ardac,19.4,True,59.098,17.9094
SE104,Bjurholm,,Västerbotten,SE,63.964237,18.979487,ardac,50.6,True,63.5695,19.3364
SE105,Bjursås,,Dalarna,SE,60.737604,15.45019,ardac,95.1,True,60.6066,17.1343
SE106,Bjuv,,Skåne,SE,56.084298,12.91673,ardac,14.1,True,56.0254,13.0133
SE107,Bjärlöv,,Skåne,SE,56.112944,14.087109,ardac,24.0,True,55.8878,14.4428
SE108,Bjärnum,,Skåne,SE,56.290441,13.711422,ardac,53.5,True,55.9407,12.9434
SE109,Bjärred,,Skåne,SE,55.722186,13.021643,ardac,0.9,True,55.8259,12.8524
SE110,Bjärsjölagård,,Skåne,SE,55.723107,13.689776,ardac,31.8,True,55.4991,14.0443
SE111,Bjästa,,Västernorrland,SE,63.203875,18.500273,ardac,4.4,True,63.1407,18.6074
SE112,Björbo,,Dalarna,SE,60.456683,14.727251,ardac,137.5,False,60.6161,17.0916
SE113,Björboholm,,Västra Götaland,SE,57.873579,12.32805,ardac,30.7,True,57.6681,11.838
SE114,Björke,,Gävleborg,SE,60.765938,17.191293,ardac,5.3,True,60.7038,17.2933
SE115,Björketorp,,Västra Götaland,SE,57.426156,12.523757,ardac,25.2,True,57.3819,11.7583
SE116,Björklinge,,Uppsala,SE,60.029136,17.551431,ardac,50.3,True,60.45,17.4449
SE117,Björkskatan,,Norrbotten,SE,65.61585,22.177784,ardac,1.0,True,65.3958,22.2141
SE118,Björkvik,,Södermanland,SE,58.839772,16.513832,ardac,21.7,True,58.7634,16.9105
SE119,Björköby,,Jönköping,SE,57.519216,14.905918,ardac,96.6,True,57.3964,16.4449
SE120,Björkö,,Kalmar,SE,57.86431,16.65667,ardac,3.0,True,57.8027,16.7517
SE121,Björna,,Västernorrland,SE,63.735842,18.449723,ardac,51.8,True,63.6329,19.2519
SE122,Björneborg,,Skåne,SE,55.486245,13.385036,ardac,13.2,True,55.4343,13.2051
SE123,Björnlunda,,Södermanland,SE,59.066026,17.159785,ardac,25.3,True,58.9878,17.5576
SE124,Björnås,,Västernorrland,SE,62.902228,18.346429,ardac,2.9,True,62.8392,18.4529
SE125,Björnänge,,Gävleborg,SE,61.302995,17.035888,ardac,3.5,True,61.241,17.1398
SE126,Björsäter,,Västra Götaland,SE,58.658272,13.699112,ardac,112.0,False,58.1719,11.6885
SE127,Blackstalund,,Uppsala,SE,59.963056,17.382621,ardac,62.2,True,60.3326,18.2116
SE128,Bleket,,Västra Götaland,SE,57.95325,11.570375,ardac,0.8,True,57.8954,11.6739
SE129,Blentarp,,Skåne,SE,55.584158,13.59908,ardac,18.4,True,55.5165,13.9684
SE130,Blidsberg,,Västra Götaland,SE,57.930513,13.493323,ardac,96.7,True,57.7505,11.8299
SE131,Blidö,,Stockholm,SE,59.614538,18.901464,ardac,1.7,True,59.5513,18.9971
SE132,Blombacka,,Värmland,SE,59.606125,13.801258,ardac,149.3,False,59.2836,11.1334
SE133,Blomstermåla,,Kalmar,SE,56.98457,16.328683,ardac,6.6,True,56.9089,16.7064
SE134,Blåsmark,,Norrbotten,SE,65.265284,21.292715,ardac,7.7,True,65.1741,21.7648
SE135,Blötberget,,Dalarna,SE,60.126774,15.058789,ardac,133.0,False,60.6082,17.1561
SE136,Bockara,,Kalmar,SE,57.261836,16.065139,ardac,24.4,True,57.3426,16.473
SE137,Bodafors,,Jönköping,SE,57.505262,14.703379,ardac,108.8,False,57.3708,16.5303
SE138,Boda,,Uppsala,SE,59.661106,16.894597,ardac,69.2,True,58.9286,17.7699
SE139,Boden,,Norrbotten,SE,65.8275,21.69641,ardac,11.5,True,65.7073,22.5472
SE140,Boliden,,Västerbotten,SE,64.867048,20.387333,ardac,31.3,True,64.9085,21.2779
SE141,Bollebygd,,Västra Götaland,SE,57.744516,12.583187,ardac,39.6,True,57.7006,11.811
SE142,Bollnäs,,Gävleborg,SE,61.318303,16.396793,ardac,37.6,True,61.2265,17.1448
SE143,Bollstabruk,,Västernorrland,SE,62.997142,17.675724,ardac,1.0,True,62.8984,18.4609
SE144,Bonäs,,Dalarna,SE,61.071555,14.485861,ardac,143.2,False,60.7518,17.1121
SE145,Borensberg,,Östergötland,SE,58.565658,15.280218,ardac,52.8,True,58.297,16.5378
SE146,Borggård,,Östergötland,SE,58.730203,15.55899,ardac,37.6,True,58.3178,16.4955
SE147,Borgholm,,Kalmar,SE,56.879927,16.656137,ardac,0.8,True,56.9739,16.7766
SE148,Borgstena,,Västra Götaland,SE,57.883805,13.013169,ardac,67.9,True,57.6906,11.9369
SE149,Borlänge,,Dalarna,SE,60.485642,15.423456,ardac,99.4,True,60.6664,17.1622
SE150,Borrby,,Skåne,SE,55.458033,14.180885,ardac,5.3,True,55.3983,14.2741
SE151,Bor,,Jönköping,SE,57.117835,14.156708,ardac,94.1,True,56.2584,14.7282
SE152,Borås,,Västra Götaland,SE,57.721083,12.94074,ardac,60.3,True,57.6837,11.8775
SE153,Bosnäs,,Västra Götaland,SE,57.668333,12.844263,ardac,52.5,True,57.6302,11.7827
SE154,Botsmark,,Västerbotten,SE,64.253403,20.246195,ardac,37.0,True,64.0107,20.6466
SE155,Bottnaryd,,Jönköping,SE,57.769513,13.826133,ardac,110.8,False,57.7544,11.8857
SE156,Bovallstrand,,Västra Götaland,SE,58.474747,11.318806,ardac,1.6,True,58.4171,11.4242
SE157,Boxholm,,Östergötland,SE,58.132595,15.127738,ardac,81.0,True,58.0069,16.6917
SE158,Brantevik,,Skåne,SE,55.515199,14.345963,ardac,0.5,True,55.4553,14.4391
SE159,Brastad,,Västra Götaland,SE,58.382006,11.485181,ardac,3.6,True,58.3274,11.2937
SE160,Braås,,Kronoberg,SE,57.059792,15.048356,ardac,84.5,True,56.4957,15.926
SE161,Bredared,,Västra Götaland,SE,57.805782,12.902985,ardac,59.5,True,57.7681,11.8373
SE162,Bredaryd,,Jönköping,SE,57.174104,13.738937,ardac,78.7,True,56.8306,12.6682
SE163,Bredbyn,,Västernorrland,SE,62.198527,17.230967,ardac,14.3,True,62.1363,17.3374
SE164,Bredsand,,Västernorrland,SE,62.342022,17.372269,ardac,0.3,True,62.2797,17.4789
SE165,Bredviken,,Västernorrland,SE,62.481596,16.46089,ardac,45.0,True,62.3727,17.5697
SE166,Broaryd,,Jönköping,SE,57.120231,13.258352,ardac,52.1,True,56.762,12.7617
SE167,Broby,,Uppsala,SE,59.864782,17.825286,ardac,48.0,True,60.0764,18.6166
SE168,Brokind,,Östergötland,SE,58.218153,15.681462,ardac,51.6,True,58.272,16.6893
SE169,Bromölla,,Skåne,SE,56.076158,14.468173,ardac,4.4,True,56.0059,14.8406
SE170,Brottby,,Stockholm,SE,59.560959,18.238716,ardac,9.5,True,59.4795,18.6397
SE171,Bro,,Gotland,SE,57.669298,18.472247,ardac,8.8,True,57.7615,18.6001
SE172,Brunna,,Dalarna,SE,60.262222,16.010129,ardac,80.4,True,60.6244,17.1467
SE173,Brunnsberg,,Dalarna,SE,61.207716,14.119674,ardac,160.6,False,61.1905,17.1469
SE174,Brunn,,Västra Götaland,SE,57.800682,13.369513,ardac,86.9,True,57.7755,11.7198
SE175,Bruzaholm,,Jönköping,SE,57.642463,15.27197,ardac,73.5,True,57.5299,16.526
SE176,Brålanda,,Västra Götaland,SE,58.563312,12.35074,ardac,37.1,True,58.2053,11.5478
SE177,Bräcke,,Jämtland,SE,62.752127,15.41987,ardac,102.9,False,62.4481,17.511
SE178,Bräkne-Hoby,,Blekinge,SE,56.22856,15.11694,ardac,5.2,True,56.1681,15.2105
SE179,Brändön,,Norrbotten,SE,65.695381,22.336566,ardac,0.7,True,65.6295,22.444
SE180,Brännland,,Västerbotten,SE,64.65833,18.453399,ardac,124.9,False,63.6024,19.3278
SE181,Brännö,,Västra Götaland,SE,57.643783,11.771863,ardac,4.2,True,57.5858,11.8742
SE182,Brösarp,,Skåne,SE,55.724581,14.104728,ardac,5.7,True,55.6649,14.1987
SE183,Bua,,Halland,SE,57.237037,12.122481,ardac,0.4,True,57.1833,11.936
SE184,Buerås,,Halland,SE,57.423823,11.968179,ardac,2.6,True,57.3699,11.781
SE185,Bullmark,,Västerbotten,SE,64.028582,20.483959,ardac,19.3,True,63.964,20.5897
SE186,Bunkeflostrand,,Skåne,SE,55.553362,12.915588,ardac,0.7,True,55.4945,13.0109
SE187,Bureå,,Västerbotten,SE,64.617984,21.200493,ardac,2.2,True,64.7075,21.3701
SE188,Burgsvik,,Gotland,SE,57.033211,18.276696,ardac,1.1,True,56.9705,18.3671
SE189,Burlövs egnahem,,Skåne,SE,55.635827,13.101915,ardac,3.5,True,55.7397,12.9332
SE190,Burseryd,,Jönköping,SE,57.375451,14.789713,ardac,101.9,False,57.4097,16.3497
SE191,Burträsk,,Västerbotten,SE,64.519004,20.655786,ardac,28.7,True,64.7391,21.2424
SE192,Buskhyttan,,Södermanland,SE,58.665071,16.942079,ardac,0.8,True,58.7588,17.0697
SE193,Butbro,,Östergötland,SE,58.716322,15.834455,ardac,22.0,True,58.3166,16.4724
SE194,Bygdeå,,Västerbotten,SE,64.061088,20.853516,ardac,3.0,True,63.9963,20.9585
SE195,Bygdsiljum,,Västerbotten,SE,64.350669,20.505061,ardac,31.1,True,63.9525,20.8453
SE196,Byske,,Västerbotten,SE,64.954508,21.205751,ardac,1.8,True,64.8894,21.3131
SE197,Bålsta,,Uppsala,SE,59.56821,17.529364,ardac,32.6,True,59.3158,18.1994
SE198,Bårslöv,,Skåne,SE,56.011964,12.801899,ardac,3.5,True,55.9532,12.8985
SE199,Båstad,,Skåne,SE,56.426789,12.860715,ardac,2.4,True,56.3741,12.6771
SE200,Båtskärsnäs,,Norrbotten,SE,65.780928,23.422138,ardac,0.9,True,65.7144,23.5272
SE201,Bäckaskog,,Skåne,SE,56.044299,14.33426,ardac,8.3,True,55.9844,14.4286
SE202,Bäckebo,,Kalmar,SE,56.88922,16.065362,ardac,22.7,True,56.6587,16.4164
SE203,Bäckefors,,Västra Götaland,SE,58.806127,12.159969,ardac,46.6,True,58.4469,11.3534
SE204,Bäckhammar,,Värmland,SE,59.158939,14.190986,ardac,128.9,False,58.3797,16.5903
SE205,Bälgviken,,Södermanland,SE,59.249827,16.460741,ardac,64.5,True,58.847,17.1008
SE206,Bälinge,,Norrbotten,SE,65.633333,21.933333,ardac,1.7,True,65.5403,22.4096
SE207,Bälinge,,Uppsala,SE,59.948845,17.542984,ardac,55.6,True,60.3174,18.3734
SE208,Bärby,,Uppsala,SE,59.856685,17.817504,ardac,47.7,True,60.0684,18.6086
SE209,Bäsna,,Dalarna,SE,60.541131,15.207791,ardac,109.8,False,60.7245,16.9483
SE210,Böle,,Norrbotten,SE,65.386151,21.322539,ardac,1.8,True,65.2949,21.7966
SE211,Bönan,,Gävleborg,SE,60.736131,17.303216,ardac,1.1,True,60.6739,17.4049
SE212,Charlottenberg,,Värmland,SE,59.88396,12.30492,ardac,86.9,True,59.2153,11.1544
SE213,Dala-Floda,,Dalarna,SE,60.507692,14.79673,ardac,132.7,False,60.6659,17.1651
SE214,Dalarö,,Stockholm,SE,59.133518,18.405239,ardac,0.9,True,59.0707,18.5005
SE215,Dalby,,Skåne,SE,55.664663,13.346158,ardac,18.0,True,55.4565,13.1531
SE216,Dalsjöfors,,Västra Götaland,SE,57.721698,13.106962,ardac,69.2,True,57.6898,11.7523
SE217,Dals Långed,,Västra Götaland,SE,58.925905,12.306382,ardac,50.6,True,58.5705,11.1973
SE218,Dals Rostock,,Västra Götaland,SE,58.714085,12.355654,ardac,49.8,True,58.5155,11.2581
SE219,Dalstorp,,Västra Götaland,SE,57.605573,13.511657,ardac,87.4,True,57.5822,11.8705
SE220,Dalum,,Västra Götaland,SE,57.900296,13.464924,ardac,94.3,True,57.7199,11.803
SE221,Danholn,,Dalarna,SE,60.619545,15.792959,ardac,76.8,True,60.6564,17.1896
SE222,Danmark,,Västra Götaland,SE,57.949937,11.54931,ardac,0.6,True,57.8921,11.6529
SE223,Dannemora,,Uppsala,SE,60.203273,17.859906,ardac,24.9,True,60.2782,18.3079
SE224,Dannike,,Västra Götaland,SE,57.688771,13.227561,ardac,74.3,True,57.6581,11.874
SE225,Degeberga,,Skåne,SE,55.837151,14.089263,ardac,7.7,True,55.7774,14.1835
SE226,Degerfors,,Örebro,SE,59.153172,14.429411,ardac,116.5,False,58.8367,16.9133
SE227,Degerhamn,,Kalmar,SE,56.355521,16.411009,ardac,1.2,True,56.2941,16.5029
SE228,Deje,,Värmland,SE,59.605939,13.463648,ardac,131.8,False,59.2749,11.1037
SE229,Delsbo,,Gävleborg,SE,61.800127,16.555886,ardac,32.0,True,61.7074,17.3148
SE230,Dingle,,Västra Götaland,SE,58.527657,11.578637,ardac,7.3,True,58.4731,11.3863
SE231,Dingtuna,,Västmanland,SE,59.572402,16.388665,ardac,85.3,True,58.8587,16.973
SE232,Diseröd,,Västra Götaland,SE,57.924606,12.028827,ardac,15.6,True,57.7144,11.8312
SE233,Diö,,Kronoberg,SE,56.639381,14.221131,ardac,61.0,True,56.2476,14.8422
SE234,Djupekås,,Blekinge,SE,56.070682,14.721403,ardac,1.6,True,56.0105,14.8152
SE235,Djura,,Dalarna,SE,60.612263,15.00547,ardac,119.9,False,60.6272,17.0321
SE236,Djurås,,Dalarna,SE,60.560541,15.130313,ardac,113.7,False,60.7294,17.1878
SE237,Djurön,,Östergötland,SE,58.629273,16.347165,ardac,0.7,True,58.3978,16.7126
SE238,Djurö,,Västra Götaland,SE,58.863797,13.470505,ardac,109.5,False,58.2176,11.4452
SE239,Docksta,,Västernorrland,SE,63.05732,18.327456,ardac,2.1,True,62.9943,18.4345
SE240,Domsten,,Skåne,SE,56.119693,12.607308,ardac,0.4,True,56.0667,12.4255
SE241,Donsö,,Västra Götaland,SE,57.601575,11.803462,ardac,3.9,True,57.5435,11.9057
SE242,Dorotea,,Västerbotten,SE,64.46396,16.114733,ardac,178.9,False,63.6233,19.2272
SE243,Drag,,Kalmar,SE,56.779433,16.420263,ardac,0.5,True,56.8736,16.5398
SE244,Drottningholm,,Stockholm,SE,59.324925,17.887332,ardac,11.6,True,59.1071,17.9484
SE245,Drottningskär,,Halland,SE,57.501139,11.926259,ardac,0.4,True,57.4471,11.7387
SE246,Drängsmark,,Västerbotten,SE,64.917969,20.954582,ardac,8.3,True,64.853,21.0624
SE247,Dunö,,Kalmar,SE,56.634091,16.265794,ardac,1.5,True,56.5728,16.3585
SE248,Duvesjön,,Västra Götaland,SE,57.953185,12.018631,ardac,14.6,True,57.7429,11.8209
SE249,Dvärsätt,,Jämtland,SE,63.302411,14.473199,ardac,160.3,False,62.3403,17.4759
SE250,Dyvelsten,,Värmland,SE,59.514042,13.438148,ardac,126.4,False,59.3391,11.0895
SE251,Dösjebro,,Skåne,SE,55.819977,13.030453,ardac,6.6,True,55.7675,12.8495
SE252,Eda Glasbruk,,Värmland,SE,59.921335,12.263376,ardac,84.8,True,59.2524,11.1125
SE253,Edane,,Värmland,SE,59.62982,12.822921,ardac,101.5,False,59.2845,11.077
SE254,Ed,,Västra Götaland,SE,58.912582,11.934013,ardac,30.0,True,58.8649,11.1373
SE255,Edeby,,Uppsala,SE,59.811901,17.775823,ardac,44.1,True,59.403,18.4105
SE256,Edsbro,,Stockholm,SE,59.895128,18.492378,ardac,18.7,True,59.8129,18.8966
SE257,Edsbruk,,Kalmar,SE,58.019577,16.467459,ardac,3.3,True,57.9581,16.5632
SE258,Edsbyn,,Gävleborg,SE,61.377442,15.818175,ardac,68.9,True,61.2581,17.2126
SE259,Edsta,,Gävleborg,SE,61.77377,17.00371,ardac,8.9,True,61.6956,17.4351
SE260,Edsvalla,,Värmland,SE,59.436975,13.210344,ardac,111.3,False,59.2582,10.8683
SE261,Eggby,,Västra Götaland,SE,58.433965,13.645112,ardac,103.8,False,58.2597,11.6619
SE262,Ekeby-Almby,,Örebro,SE,59.258469,15.336875,ardac,83.6,True,58.8185,16.8885
SE263,Ekeby,,Skåne,SE,56.016667,12.95,ardac,12.4,True,55.9641,12.7682
SE264,Ekeby,,Örebro,SE,59.166667,15.266667,ardac,78.7,True,58.8678,17.145
SE265,Ekeby,,Stockholm,SE,59.183333,17.633333,ardac,2.2,True,59.1037,18.0314
SE266,Ekedalen,,Uppsala,SE,59.990706,17.299305,ardac,60.6,True,60.5507,17.5381
SE267,Ekenässjön,,Jönköping,SE,57.491838,15.020954,ardac,89.9,True,57.3677,16.5585
SE268,Ekerö,,Stockholm,SE,59.355591,17.622421,ardac,20.9,True,59.1206,17.9866
SE269,Ekerö sommarstad,,Stockholm,SE,59.276032,17.7345,ardac,12.7,True,59.0408,18.0972
SE270,Eket,,Västra Götaland,SE,58.057464,13.803066,ardac,114.3,False,57.7293,11.8317
SE271,Ekshärad,,Värmland,SE,60.174282,13.493761,ardac,156.4,False,59.2174,11.0743
SE272,Eksjö,,Jönköping,SE,57.667443,14.973559,ardac,89.6,True,57.5437,16.5185
SE273,Ekskogen,,Stockholm,SE,59.641435,18.231124,ardac,18.4,True,59.56,18.633
SE274,Eksund,,Östergötland,SE,58.585982,16.091887,ardac,6.9,True,58.3407,16.7539
SE275,Ekängen,,Stockholm,SE,59.307174,17.752373,ardac,16.3,True,59.0719,18.1152
SE276,Eldsberga,,Halland,SE,56.597933,12.985408,ardac,5.0,True,56.7075,12.5287
SE277,Ellös,,Västra Götaland,SE,58.17997,11.468747,ardac,3.2,True,58.1222,11.5731
SE278,Emmaboda,,Kalmar,SE,56.630833,15.540661,ardac,40.5,True,56.5575,15.9164
SE279,Emmaljunga,,Skåne,SE,56.399826,13.649232,ardac,45.8,True,56.0497,12.8796
SE280,Emsfors,,Skåne,SE,56.210123,14.096059,ardac,31.0,True,55.985,14.4526
SE281,Emtunga,,Västra Götaland,SE,58.255237,12.999074,ardac,65.4,True,58.2222,11.6246
SE282,Enbacka,,Dalarna,SE,60.411803,15.612191,ardac,91.9,True,60.6062,17.033
SE283,Eneryda,,Kronoberg,SE,56.703808,14.338377,ardac,64.3,True,56.1556,14.9394
SE284,Enhagen-Ekbacken,,Västmanland,SE,59.56562,16.53183,ardac,78.1,True,58.8513,17.1131
SE285,Enköping,,Uppsala,SE,59.635611,17.077856,ardac,58.6,True,59.3499,18.3593
SE286,Enstaberga,,Södermanland,SE,58.751468,16.854532,ardac,10.1,True,58.8453,16.9822
SE287,Enviken,,Stockholm,SE,59.623668,18.629259,ardac,2.2,True,59.5606,18.7254
SE288,Enånger,,Gävleborg,SE,61.547469,17.002246,ardac,4.2,True,61.3137,17.3944
SE289,Eriksmåla,,Kalmar,SE,56.73684,15.473637,ardac,48.0,True,56.4949,16.1082
SE290,Eringsboda,,Blekinge,SE,56.440125,15.362501,ardac,28.3,True,56.2236,15.4343
SE291,Ersmark,,Västerbotten,SE,64.848388,20.898183,ardac,6.9,True,64.9382,21.0683
SE292,Ersmark,,Västerbotten,SE,64.85,20.9,ardac,6.8,True,64.9398,21.0701
SE293,Ersnäs,,Norrbotten,SE,65.529052,21.794633,ardac,2.8,True,65.4635,21.9027
SE294,Eskilstuna,,Södermanland,SE,59.371737,16.505147,ardac,69.7,True,58.8132,17.1153
SE295,Eslöv,,Skåne,SE,55.837495,13.303626,ardac,22.0,True,55.7919,12.8453
SE296,Evertsberg,,Dalarna,SE,61.135109,13.959032,ardac,170.1,False,61.1055,17.2997
SE297,Everöd,,Skåne,SE,55.899331,14.097671,ardac,9.5,True,55.8396,14.1921
SE298,Fagerhult,,Jönköping,SE,57.816667,13.933333,ardac,118.6,False,57.6468,11.9819
SE299,Fagerhult,,Kalmar,SE,57.15,15.666667,ardac,48.2,True,57.3741,16.3857
SE300,Fagerhult,,Västra Götaland,SE,58.416667,12.016667,ardac,11.7,True,58.2101,11.521
SE301,Fagersanna,,Örebro,SE,59.135612,15.2762,ardac,75.9,True,58.8366,17.1528
SE302,Fagersta,,Västmanland,SE,60.003862,15.790605,ardac,108.5,False,60.5079,17.2627
SE303,Fagerås,,Värmland,SE,59.160306,12.877854,ardac,84.7,True,59.131,10.8619
SE304,Falerum,,Östergötland,SE,58.143713,16.206315,ardac,24.0,True,58.0683,16.5961
SE305,Falkenberg,,Halland,SE,57.012893,12.711883,ardac,19.9,True,56.8037,12.5153
SE306,Falköping,,Västra Götaland,SE,58.164693,13.493855,ardac,94.7,True,57.6719,11.8043
SE307,Falla,,Östergötland,SE,58.682822,15.74651,ardac,25.7,True,58.2692,16.6797
SE308,Falun,,Dalarna,SE,60.607006,15.632305,ardac,85.7,True,60.6455,17.0282
SE309,Fanbyn,,Västernorrland,SE,62.408973,16.579451,ardac,39.3,True,62.316,17.3531
SE310,Farhult,,Skåne,SE,56.215028,12.712529,ardac,1.0,True,56.0001,12.7985
SE311,Fegen,,Halland,SE,57.104094,13.032551,ardac,41.0,True,56.745,12.5383
SE312,Fellingsbro,,Örebro,SE,59.434397,15.589001,ardac,93.0,True,58.8359,17.1135
SE313,Fengersfors,,Västra Götaland,SE,58.994944,12.463962,ardac,59.1,True,58.9563,11.0614
SE314,Figeholm,,Kalmar,SE,57.376711,16.552266,ardac,0.7,True,57.3152,16.6463
SE315,Filipstad,,Värmland,SE,59.713548,14.168031,ardac,166.0,False,60.6467,16.9466
SE316,Filsbäck,,Västra Götaland,SE,58.490767,13.245936,ardac,81.7,True,58.1512,11.5512
SE317,Finja,,Skåne,SE,56.167568,13.689776,ardac,47.3,True,55.9739,12.9361
SE318,Finkarby,,Stockholm,SE,59.224838,17.308238,ardac,21.0,True,58.9907,17.6732
SE319,Finnerödja,,Örebro,SE,58.92854,14.44113,ardac,106.0,False,58.3156,16.5544
SE320,Finspång,,Östergötland,SE,58.70773,15.775864,ardac,24.8,True,58.2939,16.7093
SE321,Finsta,,Stockholm,SE,59.736929,18.492091,ardac,14.0,True,59.6547,18.8945
SE322,Fiskebäckskil,,Västra Götaland,SE,58.245646,11.456629,ardac,2.7,True,58.1879,11.5612
SE323,Fisksätra,,Stockholm,SE,59.292196,18.253788,ardac,2.2,True,59.2294,18.3497
SE324,Fjugesta,,Örebro,SE,59.173408,14.870949,ardac,96.6,True,58.8648,17.0527
SE325,Fjälkinge,,Skåne,SE,56.043385,14.275847,ardac,10.7,True,55.9737,14.6483
SE326,Fjällbacka,,Västra Götaland,SE,58.598754,11.28278,ardac,1.0,True,58.5411,11.3886
SE327,Fjärdhundra,,Uppsala,SE,59.77607,16.917936,ardac,74.2,True,60.4762,17.4961
SE328,Fjärås kyrkby,,Halland,SE,57.460032,12.17238,ardac,6.4,True,57.4104,11.6957
SE329,Fjärås station,,Halland,SE,57.438054,12.155869,ardac,4.3,True,57.3844,11.9683
SE330,Flen,,Södermanland,SE,59.056782,16.5893,ardac,42.5,True,58.8246,16.9573
SE331,Fleninge,,Skåne,SE,56.108335,12.791536,ardac,8.6,True,56.0496,12.8884
SE332,Flerohopp,,Kalmar,SE,56.822755,15.87684,ardac,30.1,True,56.5927,16.2284
SE333,Fliseryd,,Kalmar,SE,57.124107,16.263129,ardac,13.4,True,57.0486,16.6423
SE334,Floby,,Västra Götaland,SE,58.138443,13.336221,ardac,85.7,True,58.1128,11.6713
SE335,Flurkmark,,Västerbotten,SE,63.982403,20.2366,ardac,22.3,True,63.8945,20.6912
SE336,Flygsfors,,Kalmar,SE,56.839391,15.779186,ardac,36.0,True,56.4539,16.1066
SE337,Flyinge,,Skåne,SE,55.753452,13.368546,ardac,20.8,True,55.5453,13.1749
SE338,Flädie,,Skåne,SE,55.725269,13.071982,ardac,3.0,True,55.8291,12.9029
SE339,Folkärna,,Dalarna,SE,60.152841,16.314388,ardac,76.7,True,60.5126,17.4505
SE340,Fornåsa,,Östergötland,SE,58.479116,15.227964,ardac,57.8,True,58.3666,16.5111
SE341,Fors,,Västernorrland,SE,62.338615,17.026972,ardac,17.4,True,62.2603,17.4661
SE342,Forsbacka,,Gävleborg,SE,60.615339,16.89498,ardac,18.1,True,60.7091,17.0303
SE343,Forserum,,Jönköping,SE,57.699733,14.472352,ardac,117.8,False,57.5543,16.5989
SE344,Forshaga,,Värmland,SE,59.529061,13.482603,ardac,129.4,False,59.3548,11.1327
SE345,Forsheda,,Jönköping,SE,57.167855,13.830136,ardac,82.0,True,56.8251,12.7587
SE346,Forssjö,,Södermanland,SE,58.955414,16.292684,ardac,32.0,True,58.8647,16.9908
SE347,Forsvik,,Västerbotten,SE,65.055692,17.251008,ardac,181.8,False,64.942,21.0479
SE348,Fotö,,Västra Götaland,SE,57.670081,11.654583,ardac,4.4,True,57.6122,11.7572
SE349,Fredriksberg västra,,Västra Götaland,SE,58.590937,14.088724,ardac,121.7,False,58.2812,16.5371
SE350,Fredriksberg östra,,Västra Götaland,SE,58.590937,14.088724,ardac,121.7,False,58.2812,16.5371
SE351,Fredriksdal,,Skåne,SE,56.057533,12.726913,ardac,1.9,True,55.9988,12.8237
SE352,Fredriksfors,,Gävleborg,SE,61.787858,16.612753,ardac,28.7,True,61.6948,17.3712
SE353,Freluga,,Gävleborg,SE,61.327525,16.296974,ardac,43.0,True,61.2203,17.3667
SE354,Fridlevstad,,Blekinge,SE,56.269795,15.542106,ardac,7.3,True,56.209,15.6351
SE355,Friggesund,,Gävleborg,SE,61.896424,16.54626,ardac,36.7,True,61.8037,17.3075
SE356,Frillesås,,Halland,SE,57.31728,12.176746,ardac,2.1,True,57.1073,11.9815
SE357,Frinnaryd,,Jönköping,SE,57.934088,14.820862,ardac,95.0,True,57.7978,16.6685
SE358,Fristad,,Västra Götaland,SE,57.823881,13.010019,ardac,66.1,True,57.787,11.9437
SE359,Fritsla,,Västra Götaland,SE,57.551873,12.786593,ardac,44.2,True,57.5133,11.7284
SE360,Främmestad,,Västra Götaland,SE,58.233322,12.666292,ardac,45.7,True,58.1937,11.5884
SE361,Frändefors,,Västra Götaland,SE,58.500056,12.278243,ardac,29.4,True,58.1416,11.4774
SE362,Fränsta,,Västernorrland,SE,62.499123,16.170082,ardac,60.1,True,62.3758,17.6135
SE363,Frödinge,,Kalmar,SE,57.699586,16.005047,ardac,31.7,True,57.6248,16.3906
SE364,Frösakull,,Halland,SE,56.668435,12.739596,ardac,2.4,True,56.7718,12.5655
SE365,Frövi,,Örebro,SE,59.466198,15.365069,ardac,101.9,False,58.8701,16.8947
SE366,Funbo,,Uppsala,SE,59.856784,17.856577,ardac,46.9,True,60.0683,18.6479
SE367,Funäsdalen,,Jämtland,SE,62.546067,12.542015,ardac,130.9,False,63.4512,9.6228
SE368,Furuby,,Kronoberg,SE,56.853366,15.031764,ardac,74.1,True,56.4452,15.929
SE369,Furudal,,Dalarna,SE,61.169946,15.135453,ardac,106.7,False,61.1826,17.1971
SE370,Furulund,,Skåne,SE,55.776234,13.091198,ardac,7.3,True,55.8801,12.9219
SE371,Furusjö,,Jönköping,SE,57.93029,13.960971,ardac,123.8,False,57.7649,11.7116
SE372,Furuvik,,Gävleborg,SE,60.652738,17.329966,ardac,1.9,True,60.5905,17.4314
SE373,Fågelfors,,Kalmar,SE,57.20738,15.843661,ardac,37.2,True,57.4305,16.5649
SE374,Fågelmara,,Blekinge,SE,56.260068,15.947508,ardac,4.8,True,56.199,16.0399
SE375,Fågelsta,,Västerbotten,SE,64.23542,16.298217,ardac,154.8,False,63.1399,18.2622
SE376,Fågelvikshöjden,,Stockholm,SE,59.280596,18.447797,ardac,1.9,True,59.2177,18.5434
SE377,Fåker,,Jämtland,SE,62.991929,14.577169,ardac,152.3,False,62.3398,17.6237
SE378,Fårbo,,Kalmar,SE,57.383971,16.484591,ardac,3.8,True,57.4781,16.6064
SE379,Fårösund,,Gotland,SE,57.863033,19.05089,ardac,0.1,True,57.7998,19.1419
SE380,Färgelanda,,Västra Götaland,SE,58.613536,12.005882,ardac,28.4,True,58.5663,11.2158
SE381,Färila,,Gävleborg,SE,61.798149,15.843765,ardac,68.8,True,61.8341,17.2926
SE382,Färjestaden,,Kalmar,SE,56.65171,16.472174,ardac,2.0,True,56.6043,16.2827
SE383,Färlöv,,Skåne,SE,56.072127,14.085975,ardac,21.0,True,55.8564,14.1642
SE384,Föllinge,,Jämtland,SE,63.672285,14.615961,ardac,157.2,False,64.6171,11.6467
SE385,Förslöv,,Skåne,SE,56.353279,12.817391,ardac,5.3,True,56.4568,12.6449
SE386,Gagnef,,Dalarna,SE,60.456909,14.866827,ardac,130.0,False,60.6296,16.9165
SE387,Gamleby,,Kalmar,SE,57.899823,16.408256,ardac,0.9,True,57.8384,16.5038
SE388,Gammelgården,,Norrbotten,SE,65.881964,23.041193,ardac,9.4,True,65.6618,23.0705
SE389,Gantofta,,Skåne,SE,55.987462,12.801964,ardac,2.7,True,55.9287,12.8985
SE390,Garpenberg,,Dalarna,SE,60.311671,16.195085,ardac,68.9,True,60.6882,17.0196
SE391,Garphyttan,,Örebro,SE,59.302204,14.949523,ardac,102.3,False,58.8366,17.1069
SE392,Gemla,,Kronoberg,SE,56.870036,14.648903,ardac,78.3,True,56.1756,14.9478
SE393,Genarp,,Skåne,SE,55.599519,13.399529,ardac,22.6,True,55.5476,13.2191
SE394,Genevad,,Halland,SE,56.569084,13.032883,ardac,6.5,True,56.5225,12.5662
SE395,Gessie Villastad,,Skåne,SE,55.4974,12.956839,ardac,2.8,True,55.4385,13.052
SE396,Gesunda,,Dalarna,SE,60.887017,14.550466,ardac,141.9,False,60.722,17.1955
SE397,Getinge,,Halland,SE,56.820129,12.732667,ardac,8.2,True,56.7673,12.5474
SE398,Getterön,,Halland,SE,57.120002,12.212379,ardac,1.3,True,57.0664,12.0263
SE399,Gideå,,Västernorrland,SE,63.479403,18.976834,ardac,15.4,True,63.5712,19.1325
SE400,Gimo,,Uppsala,SE,60.167736,18.188617,ardac,12.5,True,60.2603,18.3257
SE401,Gislaved,,Jönköping,SE,57.293072,13.492229,ardac,75.5,True,56.7857,12.6947
SE402,Gissebo,,Jönköping,SE,57.838341,14.272612,ardac,127.7,False,57.8516,16.4352
SE403,Gistad,,Östergötland,SE,58.458106,15.927406,ardac,23.9,True,58.3693,16.6168
SE404,Gladö kvarn,,Stockholm,SE,59.1909,17.98233,ardac,14.1,True,59.1283,18.0785
SE405,Glanshammar,,Örebro,SE,59.318326,15.400557,ardac,86.8,True,58.8776,16.954
SE406,Glava,,Värmland,SE,59.554853,12.560902,ardac,84.6,True,59.3606,11.1304
SE407,Glemmingebro,,Skåne,SE,55.451134,14.023794,ardac,5.1,True,55.3915,14.1173
SE408,Glimåkra,,Skåne,SE,56.303711,14.133828,ardac,37.0,True,56.2243,14.7887
SE409,Glommen,,Halland,SE,56.932469,12.364506,ardac,1.1,True,56.874,12.4641
SE410,Glommersträsk,,Norrbotten,SE,65.260836,19.635022,ardac,76.7,True,64.7933,21.0775
SE411,Glumslöv,,Skåne,SE,55.941698,12.810486,ardac,1.1,True,55.8829,12.9069
SE412,Glömminge,,Kalmar,SE,56.718267,16.534881,ardac,7.2,True,56.6709,16.345
SE413,Gnarp,,Gävleborg,SE,62.048928,17.254518,ardac,9.4,True,61.9867,17.3604
SE414,Gnesta,,Södermanland,SE,59.048663,17.312548,ardac,17.4,True,58.97,17.7098
SE415,Gnosjö,,Jönköping,SE,57.358565,13.788214,ardac,93.7,True,56.703,12.6895
SE416,Gonäs,,Dalarna,SE,60.147715,15.092607,ardac,130.2,False,60.6286,17.1917
SE417,Gottne,,Västernorrland,SE,63.430935,18.424791,ardac,25.2,True,63.0568,18.4435
SE418,Granby,,Stockholm,SE,59.657562,17.632342,ardac,35.1,True,59.4046,18.3033
SE419,Granö,,Stockholm,SE,59.561506,18.76409,ardac,1.2,True,59.4984,18.8598
SE420,Graversfors,,Östergötland,SE,58.696832,16.150096,ardac,5.8,True,58.7625,16.8737
SE421,Grebbestad,,Västra Götaland,SE,58.691937,11.253141,ardac,2.4,True,58.637,11.0604
SE422,Grebo,,Östergötland,SE,58.302142,15.871671,ardac,37.1,True,58.3693,16.5867
SE423,Grevie,,Skåne,SE,55.622487,13.197019,ardac,9.7,True,55.5703,13.0167
SE424,Grillby,,Uppsala,SE,59.625462,17.259092,ardac,49.0,True,59.3565,18.2356
SE425,Grimslöv,,Kronoberg,SE,56.738893,14.542548,ardac,64.6,True,56.2006,14.8618
SE426,Grimstorp,,Jönköping,SE,57.499859,14.442429,ardac,124.4,False,57.355,16.5577
SE427,Grimsås,,Västra Götaland,SE,57.484848,13.551954,ardac,86.9,True,56.9835,12.4638
SE428,Gripenberg,,Jönköping,SE,57.993278,14.853253,ardac,93.5,True,57.8708,16.4122
SE429,Grisslehamn,,Stockholm,SE,60.098176,18.805852,ardac,0.7,True,60.035,18.9029
SE430,Gropen,,Örebro,SE,59.162062,14.830566,ardac,97.7,True,58.8541,17.012
SE431,Grums,,Värmland,SE,59.398724,13.034648,ardac,100.5,False,59.2152,11.0001
SE432,Grundsund,,Västra Götaland,SE,58.213364,11.419244,ardac,5.9,True,58.1556,11.5238
SE433,Grycksbo,,Dalarna,SE,60.68929,15.487599,ardac,93.0,True,60.7136,17.2031
SE434,Grytgöl,,Östergötland,SE,58.801861,15.555081,ardac,40.8,True,58.3895,16.4935
SE435,Grythyttan,,Örebro,SE,59.705624,14.536707,ardac,151.0,False,60.6472,17.0093
SE436,Gryt,,Örebro,SE,59.213739,15.258451,ardac,82.8,True,58.7594,17.1079
SE437,Gråbo,,Västra Götaland,SE,57.838561,12.299197,ardac,27.0,True,57.7894,11.8174
SE438,Gräddö,,Stockholm,SE,59.764168,19.032137,ardac,2.4,True,59.7008,19.1279
SE439,Gräfsnäs,,Västra Götaland,SE,58.08105,12.492747,ardac,38.5,True,57.7239,11.699
SE440,Grängesberg,,Dalarna,SE,60.075164,15.006748,ardac,138.4,False,60.7131,17.1337
SE441,Grängesberg västra,,Dalarna,SE,60.075164,15.006748,ardac,138.4,False,60.7131,17.1337
SE442,Gränna,,Jönköping,SE,58.025058,14.467314,ardac,116.6,False,57.8794,16.6126
SE443,Gränum,,Blekinge,SE,56.229872,14.606554,ardac,9.6,True,56.1592,14.9802
SE444,Grästorp,,Västra Götaland,SE,58.328806,12.625973,ardac,43.6,True,58.1325,11.5386
SE445,Grödby,,Skåne,SE,56.08296,14.52236,ardac,3.7,True,55.867,14.5982
SE446,Gualöv,,Skåne,SE,56.048191,14.419841,ardac,4.1,True,55.9882,14.5141
SE447,Gubbo,,Uppsala,SE,60.360709,17.463489,ardac,19.6,True,60.4704,17.2857
SE448,Gudhem,,Västra Götaland,SE,58.226917,13.567102,ardac,98.7,True,57.735,11.8736
SE449,Gullbrandstorp,,Halland,SE,56.702952,12.735216,ardac,4.2,True,56.8063,12.5609
SE450,Gullbranna,,Halland,SE,56.590329,12.947142,ardac,2.7,True,56.694,12.7739
SE451,Gulleråsen,,Dalarna,SE,61.059703,15.18558,ardac,106.2,False,61.0717,17.2402
SE452,Gullringen,,Kalmar,SE,57.800057,15.717278,ardac,43.0,True,57.8681,16.4221
SE453,Gullspång,,Västra Götaland,SE,58.92537,14.130022,ardac,123.1,False,58.3032,16.5436
SE454,Gunnarskog,,Värmland,SE,59.813528,12.572332,ardac,102.1,False,59.3064,11.1207
SE455,Gunnebo,,Kalmar,SE,57.722421,16.527503,ardac,3.3,True,57.8165,16.6506
SE456,Gunsta,,Uppsala,SE,59.854163,17.833642,ardac,47.1,True,60.0658,18.6247
SE457,Gusselby,,Örebro,SE,59.645375,15.218535,ardac,123.4,False,58.7245,16.9973
SE458,Gustavsberg,,Stockholm,SE,59.325623,18.388514,ardac,2.5,True,59.2628,18.4843
SE459,Gusum,,Östergötland,SE,58.273342,16.501596,ardac,10.4,True,58.3675,16.6266
SE460,Gyttorp,,Örebro,SE,59.504923,14.966624,ardac,118.3,False,58.7278,17.0732
SE461,Gånghester,,Västra Götaland,SE,57.701552,13.023595,ardac,63.7,True,57.6648,11.9608
SE462,Gårdby,,Kalmar,SE,56.604353,16.642559,ardac,2.7,True,56.5571,16.4531
SE463,Gårdskär,,Värmland,SE,59.223892,14.059119,ardac,138.9,False,59.2223,11.1265
SE464,Gårdstånga,,Skåne,SE,55.764195,13.322496,ardac,18.5,True,55.556,13.1291
SE465,Gåvsta,,Uppsala,SE,59.94269,17.87557,ardac,41.1,True,60.1541,18.6691
SE466,Gäddede,,Jämtland,SE,64.502789,14.146139,ardac,100.5,False,65.1135,12.1622
SE467,Gällivare,,Norrbotten,SE,67.135243,20.660484,ardac,161.7,False,65.6755,22.4949
SE468,Gällstad,,Västra Götaland,SE,57.669055,13.433189,ardac,85.0,True,57.6447,11.7893
SE469,Gällö,,Jämtland,SE,62.918379,15.249429,ardac,117.4,False,62.4441,17.6498
SE470,Gängletorp,,Blekinge,SE,56.170836,15.73994,ardac,1.6,True,56.1099,15.8324
SE471,Gärds Köpinge,,Skåne,SE,55.946387,14.156024,ardac,9.2,True,55.7306,14.2336
SE472,Gärsnäs,,Skåne,SE,55.545916,14.185333,ardac,10.3,True,55.4861,14.2788
SE473,Gävle,,Gävleborg,SE,60.675013,17.146701,ardac,2.9,True,60.6129,17.2485
SE474,Göta,,Västra Götaland,SE,57.712516,12.927321,ardac,59.1,True,57.675,11.8643
SE475,Göteborg,,Västra Götaland,SE,57.707232,11.967017,ardac,2.6,True,57.6533,11.7784
SE476,Götene,,Västra Götaland,SE,58.528062,13.492122,ardac,96.6,True,58.1951,11.498
SE477,Götlunda,,Västmanland,SE,59.354146,15.667716,ardac,83.0,True,58.7703,16.8888
SE478,Habo,,Jönköping,SE,57.975174,14.065819,ardac,130.9,False,57.6551,11.8055
SE479,Hackås,,Jämtland,SE,62.923938,14.518695,ardac,152.7,False,62.4288,17.5983
SE480,Haga,,Västra Götaland,SE,57.698352,11.955813,ardac,2.0,True,57.6444,11.7672
SE481,Hagby,,Uppsala,SE,59.800636,17.376211,ardac,56.6,True,59.3756,18.3189
SE482,Hagfors,,Värmland,SE,60.087994,13.646585,ardac,163.4,False,59.2927,10.9298
SE483,Hagge,,Dalarna,SE,60.124551,15.281262,ardac,122.4,False,60.6186,17.0665
SE484,Hagryd-Dala,,Halland,SE,57.530203,11.976054,ardac,3.4,True,57.4763,11.7883
SE485,Hakkas,,Norrbotten,SE,66.916458,21.566148,ardac,122.7,False,65.6605,22.6784
SE486,Hallabro,,Blekinge,SE,56.390162,15.102686,ardac,22.5,True,56.1738,15.1758
SE487,Halla Heberg,,Halland,SE,57.465284,11.988166,ardac,2.8,True,57.4114,11.8007
SE488,Hallen,,Västra Götaland,SE,57.716959,12.388543,ardac,27.8,True,57.6681,11.9082
SE489,Hallsberg,,Örebro,SE,58.993131,15.32773,ardac,63.5,True,58.8646,16.9288
SE490,Hallstahammar,,Västmanland,SE,59.613448,16.230161,ardac,95.4,True,58.7295,17.0868
SE491,Hallstavik,,Stockholm,SE,60.05176,18.597017,ardac,2.6,True,60.1439,18.7347
SE492,Halltorp,,Kalmar,SE,56.499708,16.103074,ardac,4.0,True,56.4385,16.1958
SE493,Halmstad,,Halland,SE,56.673982,12.857482,ardac,2.4,True,56.7775,12.6837
SE494,Halvarsgårdarna,,Dalarna,SE,60.40596,15.386742,ardac,103.8,False,60.7429,17.1549
SE495,Hamburgsund,,Västra Götaland,SE,58.553609,11.273685,ardac,1.1,True,58.496,11.3794
SE496,Hammar,,Skåne,SE,56.031989,14.204713,ardac,12.5,True,55.8162,14.2822
SE497,Hammarby,,Uppsala,SE,59.819391,17.782188,ardac,44.7,True,59.4105,18.4169
SE498,Hammar,,Skåne,SE,56.031989,14.204713,ardac,12.5,True,55.8162,14.2822
SE499,Hammarslund,,Skåne,SE,56.017863,14.193314,ardac,12.0,True,55.9485,14.5657
SE500,Hammarstrand,,Jämtland,SE,63.108577,16.355842,ardac,69.2,True,62.6718,17.7469
SE501,Hammenhög,,Skåne,SE,55.503246,14.152144,ardac,8.5,True,55.4435,14.2455
SE502,Hammerdal,,Jämtland,SE,63.582469,15.354173,ardac,135.2,False,63.0693,18.4864
SE503,Hampetorp,,Örebro,SE,59.140068,15.668353,ardac,61.8,True,58.8675,16.9431
SE504,Hanaskog,,Skåne,SE,56.159064,14.093411,ardac,27.8,True,55.9339,14.4495
SE505,Haparanda,,Norrbotten,SE,65.835667,24.135721,ardac,1.9,True,65.7687,24.2392
SE506,Harads,,Norrbotten,SE,66.088515,20.944173,ardac,55.3,True,65.5084,21.5999
SE507,Hara,,Jämtland,SE,63.039251,14.462705,ardac,159.7,False,62.3893,17.5164
SE508,Harbo,,Uppsala,SE,60.108367,17.209961,ardac,50.7,True,60.513,17.4131
SE509,Hargshamn,,Uppsala,SE,60.167768,18.484925,ardac,0.9,True,60.1048,18.5828
SE510,Harkie,,Västmanland,SE,59.53189,16.714112,ardac,67.4,True,58.8325,16.9921
SE511,Harlösa,,Skåne,SE,55.717611,13.52561,ardac,29.6,True,55.4941,13.881
SE512,Harmånger,,Gävleborg,SE,61.92763,17.217365,ardac,6.7,True,61.8654,17.3229
SE513,Harplinge,,Halland,SE,56.744347,12.724915,ardac,5.0,True,56.6915,12.54
SE514,Hassela,,Gävleborg,SE,62.108258,16.711467,ardac,37.9,True,62.0147,17.4773
SE515,Hasselfors,,Örebro,SE,59.083459,14.65499,ardac,101.4,False,58.763,17.1319
SE516,Hasslarp,,Skåne,SE,56.137304,12.813448,ardac,10.2,True,55.9223,12.8988
SE517,Hasslö,,Blekinge,SE,56.109771,15.465959,ardac,4.8,True,56.0491,15.5587
SE518,Hasslöv,,Halland,SE,56.413086,13.006068,ardac,8.6,True,56.5227,12.5516
SE519,Havdhem,,Gotland,SE,57.1616,18.332037,ardac,5.0,True,57.1169,18.1376
SE520,Haverdal,,Halland,SE,56.728083,12.671424,ardac,1.4,True,56.8256,12.7814
SE521,Heberg,,Halland,SE,56.88082,12.628135,ardac,6.6,True,56.8222,12.7272
SE522,Heby,,Uppsala,SE,60.066453,17.007221,ardac,60.8,True,60.627,17.2417
SE523,Hedared,,Västra Götaland,SE,57.808591,12.752778,ardac,50.8,True,57.7657,11.979
SE524,Hede,,Västra Götaland,SE,57.500563,12.54157,ardac,28.5,True,57.4564,11.7745
SE525,Hedekas,,Västra Götaland,SE,58.644993,11.780037,ardac,24.1,True,58.4375,11.2825
SE526,Hedemora,,Dalarna,SE,60.278599,15.987029,ardac,80.3,True,60.641,17.1239
SE527,Hedenäset,,Norrbotten,SE,66.235517,23.677934,ardac,45.0,True,65.8306,23.9914
SE528,Hedeskoga,,Skåne,SE,55.451182,13.797324,ardac,2.9,True,55.3917,13.8911
SE529,Hedesunda,,Gävleborg,SE,60.394025,17.006446,ardac,31.3,True,60.4716,17.455
SE530,Hedkärra,,Västmanland,SE,59.97604,15.743986,ardac,112.5,False,60.4805,17.2141
SE531,Hedlunda,,Västerbotten,SE,64.020241,19.902091,ardac,36.4,True,63.7784,20.3024
SE532,Helgered,,Västra Götaland,SE,57.696493,12.255842,ardac,19.8,True,57.6471,11.776
SE533,Helsingborg,,Skåne,SE,56.044198,12.704068,ardac,0.4,True,55.9855,12.8009
SE534,Hemavan,,Västerbotten,SE,65.815277,15.08528,ardac,68.5,True,66.2736,13.3892
SE535,Hemmingsmark,,Norrbotten,SE,65.222951,21.282341,ardac,10.2,True,65.1318,21.7537
SE536,Hemse,,Gotland,SE,57.240149,18.380019,ardac,10.1,True,57.1955,18.1851
SE537,Hemsjö,,Västra Götaland,SE,57.844528,12.4772,ardac,36.5,True,57.6437,11.6959
SE538,Henån,,Västra Götaland,SE,58.236163,11.679338,ardac,1.0,True,58.1818,11.4884
SE539,Herrljunga,,Västra Götaland,SE,58.009184,13.157048,ardac,78.3,True,57.665,11.7765
SE540,Herrskog,,Västernorrland,SE,62.9166,18.027686,ardac,5.4,True,62.8538,18.1349
SE541,Herräng,,Stockholm,SE,60.129473,18.647286,ardac,2.1,True,60.0664,18.7448
SE542,Herstadberg,,Östergötland,SE,58.628076,16.175319,ardac,0.2,True,58.397,16.5418
SE543,Hestra,,Jönköping,SE,57.446111,13.594167,ardac,88.5,True,56.9451,12.5066
SE544,Hestra,,Östergötland,SE,57.95,15.066667,ardac,80.5,True,57.8251,16.6231
SE545,Hillared,,Västra Götaland,SE,57.633198,13.161683,ardac,68.4,True,57.6019,11.8102
SE546,Hillerstorp,,Jönköping,SE,57.314476,13.891287,ardac,95.7,True,56.8218,12.5191
SE547,Hillsta och Se,,Västernorrland,SE,62.427959,17.415109,ardac,1.9,True,62.3656,17.5219
SE548,Himle,,Halland,SE,57.073175,12.36675,ardac,6.2,True,57.0198,12.1807
SE549,Hindås,,Västra Götaland,SE,57.702816,12.451188,ardac,31.5,True,57.6542,11.971
SE550,Hishult,,Halland,SE,56.428253,13.312204,ardac,24.9,True,56.3886,12.5656
SE551,Hissjö,,Västerbotten,SE,63.939518,20.156303,ardac,21.6,True,63.8752,20.2624
SE552,Hissmofors,,Jämtland,SE,63.319726,14.458035,ardac,158.9,False,62.3579,17.4629
SE553,Hittarp,,Skåne,SE,56.098331,12.638806,ardac,2.7,True,56.0397,12.7359
SE554,Hjo,,Västra Götaland,SE,58.268521,14.280176,ardac,117.9,False,58.2813,16.4684
SE555,Hjorted,,Kalmar,SE,57.62059,16.30301,ardac,13.0,True,57.5592,16.3981
SE556,Hjortkvarn,,Örebro,SE,58.90056,15.434484,ardac,52.4,True,58.7708,17.031
SE557,Hjortnäs,,Dalarna,SE,60.794918,14.967465,ardac,120.4,False,60.6545,16.9722
SE558,Hjortsberga,,Kronoberg,SE,56.914297,14.453907,ardac,84.8,True,56.2202,14.7566
SE559,Hjälmared,,Halland,SE,57.541825,12.151121,ardac,10.6,True,57.4881,11.9631
SE560,Hjälm,,Västra Götaland,SE,58.086516,11.601715,ardac,2.2,True,58.0286,11.7056
SE561,Hjältevad,,Jönköping,SE,57.6291,15.343187,ardac,70.2,True,57.5158,16.5966
SE562,Hjärnarp,,Skåne,SE,56.316862,12.917843,ardac,6.9,True,56.4205,12.7458
SE563,Hjärsås,,Skåne,SE,56.207866,14.147964,ardac,28.5,True,55.9826,14.5042
SE564,Hjärtum,,Västra Götaland,SE,58.180071,12.108522,ardac,13.5,True,58.1302,11.6225
SE565,Hjärup,,Skåne,SE,55.669848,13.139972,ardac,5.0,True,55.7737,12.9713
SE566,Hofors,,Gävleborg,SE,60.48547,16.453538,ardac,46.3,True,60.7048,17.2509
SE567,Hofterup,,Skåne,SE,55.798332,12.976774,ardac,2.5,True,55.7458,12.796
SE568,Hogstad,,Östergötland,SE,58.330768,15.026194,ardac,74.9,True,58.3618,16.6277
SE569,Hogstorp,,Västra Götaland,SE,58.396473,11.757787,ardac,5.9,True,58.1858,11.5591
SE570,Hok,,Jönköping,SE,57.51721,14.274435,ardac,127.6,False,57.375,16.3914
SE571,Holmeja,,Skåne,SE,55.554932,13.273687,ardac,17.3,True,55.5028,13.0936
SE572,Holm,,Västernorrland,SE,62.679578,16.52976,ardac,46.6,True,62.4145,17.6065
SE573,Holmsjö,,Blekinge,SE,56.420251,15.538952,ardac,23.7,True,56.3469,15.9127
SE574,Holmsund,,Västerbotten,SE,63.708173,20.373003,ardac,1.0,True,63.6437,20.4779
SE575,Holsbybrunn,,Jönköping,SE,57.437279,15.199514,ardac,78.6,True,57.4811,16.474
SE576,Holsljunga,,Västra Götaland,SE,57.413322,12.973595,ardac,51.3,True,57.0591,12.1895
SE577,Horda,,Jönköping,SE,57.037367,14.258215,ardac,94.8,True,56.1775,14.8263
SE578,Horla,,Västra Götaland,SE,57.967728,12.72825,ardac,55.3,True,57.7683,11.9429
SE579,Horndal,,Dalarna,SE,60.291412,16.402185,ardac,61.9,True,60.6667,17.2286
SE580,Horn,,Västra Götaland,SE,58.523834,13.892761,ardac,119.5,False,58.2006,11.5998
SE581,Horred,,Västra Götaland,SE,57.358548,12.472959,ardac,20.5,True,57.1537,11.9889
SE582,Hortlax,,Norrbotten,SE,65.280143,21.403477,ardac,3.3,True,65.2149,21.5116
SE583,Hoting,,Jämtland,SE,64.115163,16.202508,ardac,145.5,False,63.1766,18.2053
SE584,Hova,,Västra Götaland,SE,58.85782,14.217518,ardac,116.5,False,58.3898,16.6538
SE585,Hoverberg,,Jämtland,SE,62.811151,14.442336,ardac,153.2,False,62.3177,17.5121
SE586,Hovid,,Västernorrland,SE,62.471505,17.40085,ardac,3.6,True,62.4092,17.5078
SE587,Hovmantorp,,Kronoberg,SE,56.789422,15.134665,ardac,67.0,True,56.2613,15.1663
SE588,Hovsta,,Örebro,SE,59.34657,15.227392,ardac,95.2,True,58.737,17.0529
SE589,Huaröd,,Skåne,SE,55.840368,13.96827,ardac,15.2,True,55.7716,14.3393
SE590,Hudiksvall,,Gävleborg,SE,61.728273,17.104708,ardac,1.8,True,61.8219,17.2456
SE591,Hultafors,,Västra Götaland,SE,57.695803,12.734457,ardac,48.2,True,57.6528,11.9631
SE592,Hult,,Östergötland,SE,58.536157,15.690562,ardac,30.2,True,58.2786,16.6493
SE593,Hultsfred,,Kalmar,SE,57.394793,15.775161,ardac,43.9,True,57.4626,16.4724
SE594,Hulu,,Jönköping,SE,57.16119,14.924104,ardac,92.7,True,57.3496,16.5024
SE595,Hummelsta,,Uppsala,SE,59.625723,16.948556,ardac,64.9,True,59.3412,18.2307
SE596,Hunnebostrand,,Västra Götaland,SE,58.441239,11.301082,ardac,2.4,True,58.3836,11.4064
SE597,Hunnestad,,Halland,SE,57.100656,12.355766,ardac,7.1,True,57.0473,12.1696
SE598,Hurva,,Skåne,SE,55.796007,13.438365,ardac,26.6,True,55.7509,12.9804
SE599,Husum,,Västernorrland,SE,63.333385,19.161944,ardac,1.6,True,63.2487,19.6098
SE600,Hybo,,Gävleborg,SE,61.79721,16.193829,ardac,50.7,True,61.8463,17.3158
SE601,Hyllinge,,Skåne,SE,56.105325,12.869367,ardac,12.2,True,56.0465,12.9661
SE602,Hyltebruk,,Halland,SE,56.999572,13.239955,ardac,43.9,True,56.7975,12.7563
SE603,Hyssna,,Västra Götaland,SE,57.555518,12.53943,ardac,30.7,True,57.5114,11.7713
SE604,Håbo-Tibble kyrkby,,Stockholm,SE,59.587032,17.661931,ardac,28.0,True,59.334,18.3314
SE605,Håga,,Uppsala,SE,59.838302,17.57615,ardac,52.5,True,59.4119,18.5174
SE606,Håksberg,,Dalarna,SE,60.185035,15.204186,ardac,122.8,False,60.6801,16.9916
SE607,Hållsta,,Jämtland,SE,63.002228,14.963202,ardac,134.6,False,62.3765,17.337
SE608,Hånger,,Västra Götaland,SE,58.262814,13.521134,ardac,96.1,True,57.7704,11.8266
SE609,Häggenås,,Jämtland,SE,63.390779,14.89369,ardac,148.5,False,62.4376,17.5581
SE610,Häljarp,,Skåne,SE,55.851545,12.915209,ardac,1.5,True,55.7989,12.7343
SE611,Hällaryd,,Jönköping,SE,57.339693,14.568146,ardac,114.9,False,57.3629,16.4142
SE612,Hällberga,,Södermanland,SE,59.319095,16.597212,ardac,63.0,True,58.7756,16.9063
SE613,Hällbybrunn,,Södermanland,SE,59.390145,16.424177,ardac,74.8,True,58.8319,17.0359
SE614,Hällefors,,Örebro,SE,59.78295,14.522491,ardac,158.1,False,60.7248,17.0006
SE615,Hälleforsnäs,,Södermanland,SE,59.151383,16.500051,ardac,54.0,True,58.7484,17.138
SE616,Hällekis,,Västra Götaland,SE,58.630563,13.437862,ardac,96.7,True,58.1404,11.4324
SE617,Hällestad,,Västra Götaland,SE,58.107593,13.270394,ardac,82.3,True,57.7646,11.8851
SE618,Hällesåker,,Västra Götaland,SE,57.599574,12.189499,ardac,16.5,True,57.55,11.711
SE619,Hällevadsholm,,Västra Götaland,SE,58.578554,11.543153,ardac,12.8,True,58.524,11.3506
SE620,Hällevik,,Blekinge,SE,56.013781,14.696968,ardac,0.7,True,55.9536,14.7907
SE621,Hällingsjö,,Västra Götaland,SE,57.618286,12.435963,ardac,28.7,True,57.5696,11.9569
SE622,Hällnäs,,Västerbotten,SE,64.307651,19.623205,ardac,67.8,True,63.8887,20.3238
SE623,Hälsö,,Västra Götaland,SE,57.734884,11.652415,ardac,3.5,True,57.677,11.7552
SE624,Häradsbygden,,Dalarna,SE,60.702229,15.047116,ardac,117.1,False,60.7165,17.0793
SE625,Härad,,Södermanland,SE,59.361288,16.901567,ardac,48.4,True,58.9565,17.5386
SE626,Härnösand,,Västernorrland,SE,62.632308,17.937991,ardac,1.9,True,62.5696,18.0444
SE627,Härryda,,Västra Götaland,SE,57.669189,12.295911,ardac,22.5,True,57.62,11.8164
SE628,Härslöv,,Skåne,SE,55.932406,12.876023,ardac,4.4,True,55.8736,12.9723
SE629,Hässleholm,,Skåne,SE,56.157986,13.765332,ardac,42.8,True,55.7777,14.107
SE630,Hästhagen,,Gävleborg,SE,60.680797,16.826887,ardac,19.7,True,60.6189,16.9293
SE631,Hästholmen,,Blekinge,SE,56.085896,15.756573,ardac,3.0,True,56.025,15.8489
SE632,Hästveda,,Skåne,SE,56.284508,13.936391,ardac,44.0,True,55.8942,14.5549
SE633,Hästängen,,Örebro,SE,59.233846,14.537957,ardac,116.0,False,58.7597,16.9955
SE634,Höganäs,,Skåne,SE,56.200856,12.551584,ardac,1.4,True,56.1477,12.3695
SE635,Högboda,,Värmland,SE,59.556837,13.053804,ardac,108.5,False,59.217,11.0053
SE636,Höggeröd,,Västra Götaland,SE,58.000793,11.655793,ardac,1.4,True,57.9464,11.4661
SE637,Högsby,,Kalmar,SE,57.113119,15.880439,ardac,34.6,True,57.3501,16.3126
SE638,Högsjö,,Västernorrland,SE,62.789753,17.8214,ardac,4.3,True,62.7271,17.9286
SE639,Högsäter,,Västra Götaland,SE,58.651104,12.055453,ardac,33.4,True,58.4477,11.2589
SE640,Hökerum,,Västra Götaland,SE,57.838663,13.286221,ardac,82.6,True,57.6522,11.9189
SE641,Hökåsen,,Västra Götaland,SE,57.752535,12.990957,ardac,63.9,True,57.7155,11.9268
SE642,Hököpinge,,Skåne,SE,55.493338,13.008787,ardac,2.9,True,55.4344,13.1038
SE643,Höllviken,,Skåne,SE,55.413762,12.963231,ardac,1.4,True,55.3549,13.0582
SE644,Hölö,,Stockholm,SE,59.025492,17.535552,ardac,4.6,True,58.9632,17.6321
SE645,Hönö,,Västra Götaland,SE,57.690313,11.65205,ardac,3.3,True,57.6324,11.7547
SE646,Hörby,,Skåne,SE,55.854013,13.66333,ardac,34.4,True,55.7771,14.3117
SE647,Hörja,,Skåne,SE,56.205668,13.59975,ardac,48.0,True,56.0115,12.8457
SE648,Hörnefors,,Västerbotten,SE,63.627856,19.914096,ardac,1.5,True,63.5637,20.0197
SE649,Hörvik,,Blekinge,SE,56.040496,14.76519,ardac,1.0,True,55.9803,14.8589
SE650,Höviksnäs,,Västra Götaland,SE,58.033244,11.74835,ardac,0.3,True,57.979,11.5583
SE651,Höör,,Skåne,SE,55.933291,13.545383,ardac,40.3,True,55.857,14.1953
SE652,Idkerberget,,Dalarna,SE,60.380512,15.233008,ardac,112.8,False,60.7194,16.9982
SE653,Idre,,Dalarna,SE,61.858427,12.716846,ardac,199.4,False,63.2354,9.1779
SE654,Igelfors,,Östergötland,SE,58.845527,15.696952,ardac,36.6,True,58.7285,16.9917
SE655,Igelstorp,,Västra Götaland,SE,58.398704,13.978407,ardac,123.0,False,58.2334,11.6998
SE656,Iggesund,,Gävleborg,SE,61.642963,17.078121,ardac,1.3,True,61.7366,17.2186
SE657,Ilsbo,,Gävleborg,SE,61.858634,17.050985,ardac,15.4,True,61.7803,17.4834
SE658,Immeln,,Skåne,SE,56.206054,14.248948,ardac,24.1,True,55.9805,14.6046
SE659,Indal,,Västernorrland,SE,62.609679,17.020301,ardac,20.8,True,62.3756,17.4253
SE660,Ingared,,Västra Götaland,SE,57.85042,12.458476,ardac,35.8,True,57.6455,11.968
SE661,Ingatorp,,Västra Götaland,SE,58.262271,13.548443,ardac,97.7,True,57.7702,11.8536
SE662,Ingelstad,,Kronoberg,SE,56.740857,14.929001,ardac,62.2,True,56.2128,14.9635
SE663,Ingelsträde,,Skåne,SE,56.185135,12.632973,ardac,4.5,True,56.1321,12.4509
SE664,Innertavle,,Västerbotten,SE,63.813807,20.419065,ardac,4.3,True,63.7493,20.5242
SE665,Insjön,,Dalarna,SE,60.679419,15.092323,ardac,114.7,False,60.693,17.1231
SE666,Inskogen,,Södermanland,SE,58.687827,17.044937,ardac,2.1,True,58.6259,17.1414
SE667,Irsta,,Västmanland,SE,59.602556,16.693707,ardac,73.3,True,58.8713,17.5718
SE668,Johannesudd,,Stockholm,SE,59.551617,18.030971,ardac,11.7,True,59.3156,18.3944
SE669,Johannishus,,Blekinge,SE,56.226857,15.420548,ardac,5.0,True,56.1662,15.5137
SE670,Johansfors,,Halland,SE,56.838673,12.97944,ardac,22.1,True,56.7919,12.5095
SE671,Jokkmokk,,Norrbotten,SE,66.605853,19.837931,ardac,131.7,False,65.4647,21.8192
SE672,Jonsered,,Västra Götaland,SE,57.746978,12.17126,ardac,15.6,True,57.6933,11.9821
SE673,Jonslund,,Örebro,SE,59.151973,15.32261,ardac,75.3,True,58.8678,16.9002
SE674,Jonstorp,,Jönköping,SE,58.012524,14.59063,ardac,109.2,False,57.8793,16.4431
SE675,Jordbro,,Stockholm,SE,59.142399,18.131791,ardac,5.1,True,59.0797,18.2276
SE676,Jukkasjärvi,,Norrbotten,SE,67.850378,20.605304,ardac,130.2,False,68.2807,17.1643
SE677,Jung,,Uppsala,SE,59.691678,17.043493,ardac,63.2,True,59.4063,18.3273
SE678,Junosuando,,Norrbotten,SE,67.428291,22.511417,ardac,168.8,False,65.7631,22.6175
SE679,Junsele,,Västernorrland,SE,63.798958,16.92177,ardac,97.6,True,63.2011,18.2923
SE680,Juoksengi,,Norrbotten,SE,66.55764,23.832344,ardac,80.9,True,65.8455,23.9794
SE681,Jäderfors,,Gävleborg,SE,60.662727,16.697894,ardac,27.0,True,60.7413,17.1494
SE682,Jälla,,Uppsala,SE,59.90485,17.716677,ardac,50.6,True,60.1171,18.5082
SE683,Jämjö,,Blekinge,SE,56.190848,15.840349,ardac,3.3,True,56.1299,15.9327
SE684,Jämshög,,Blekinge,SE,56.241287,14.531979,ardac,13.8,True,56.1709,14.9058
SE685,Jämtön,,Norrbotten,SE,65.853761,22.498201,ardac,1.0,True,65.7878,22.6058
SE686,Järavallen,,Skåne,SE,55.79271,12.950475,ardac,0.8,True,55.8964,12.7807
SE687,Järbo,,Gävleborg,SE,60.71993,16.597216,ardac,32.4,True,60.6431,17.0158
SE688,Järlåsa,,Uppsala,SE,59.886907,17.200555,ardac,70.3,True,60.4471,17.4369
SE689,Järna,,Stockholm,SE,59.083333,17.566667,ardac,2.8,True,59.0039,17.9638
SE690,Järna,,Dalarna,SE,60.55,14.35,ardac,156.4,False,60.7004,17.0355
SE691,Järnforsen,,Kalmar,SE,57.408473,15.621071,ardac,53.2,True,57.463,16.6068
SE692,Järpen,,Jämtland,SE,63.348376,13.463668,ardac,111.6,False,64.5782,11.5793
SE693,Järpås,,Västra Götaland,SE,58.38011,12.972543,ardac,64.1,True,58.1904,11.5865
SE694,Järvsö,,Gävleborg,SE,61.715894,16.16932,ardac,49.5,True,61.7652,17.2883
SE695,Jättendal,,Gävleborg,SE,61.978121,17.243329,ardac,6.4,True,61.9159,17.349
SE696,Jävre,,Norrbotten,SE,65.154321,21.498697,ardac,2.9,True,65.089,21.6061
SE697,Jönköping,,Jönköping,SE,57.78147,14.162757,ardac,130.2,False,57.7758,11.9296
SE698,Jönåker,,Södermanland,SE,58.746927,16.725095,ardac,13.9,True,58.8255,17.1517
SE699,Jörlanda,,Västra Götaland,SE,57.986393,11.831144,ardac,2.9,True,57.9322,11.6413
SE700,Jörn,,Västerbotten,SE,65.057646,20.041264,ardac,53.2,True,64.9213,21.2362
SE701,Jössefors,,Värmland,SE,59.673429,12.504671,ardac,90.6,True,59.3221,11.0647
SE702,Kalix,,Norrbotten,SE,65.771284,23.130228,ardac,2.7,True,65.7049,23.236
SE703,Kalkudden,,Södermanland,SE,59.265052,17.282932,ardac,24.1,True,58.8756,17.6146
SE704,Kallax,,Norrbotten,SE,65.524573,22.059254,ardac,0.5,True,65.4589,22.1667
SE705,Kallfors,,Västernorrland,SE,63.532883,19.116272,ardac,11.6,True,63.6246,19.2727
SE706,Kallinge,,Blekinge,SE,56.24561,15.287237,ardac,6.4,True,56.185,15.3806
SE707,Kalmar,,Kalmar,SE,56.662882,16.366238,ardac,0.4,True,56.6015,16.4589
SE708,Kalvsund,,Västra Götaland,SE,57.708968,11.680922,ardac,1.4,True,57.651,11.7836
SE709,Kangos,,Norrbotten,SE,67.484526,22.655664,ardac,174.8,False,65.6651,22.6776
SE710,Karby,,Uppsala,SE,59.92665,17.837014,ardac,43.9,True,60.1382,18.6299
SE711,Karesuando,,Norrbotten,SE,68.440505,22.474315,ardac,134.7,False,69.6424,20.177
SE712,Karlholmsbruk,,Uppsala,SE,60.52194,17.636231,ardac,0.7,True,60.615,17.7733
SE713,Karlsborg,,Västra Götaland,SE,58.594482,14.539705,ardac,95.5,True,58.2916,16.6895
SE714,Karlshamn,,Blekinge,SE,56.170172,14.863127,ardac,0.9,True,56.1099,14.957
SE715,Karlskoga,,Örebro,SE,59.388301,14.5526,ardac,125.7,False,58.7582,16.9897
SE716,Karlskrona,,Blekinge,SE,56.162107,15.586642,ardac,0.4,True,56.1013,15.6794
SE717,Karlstad,,Värmland,SE,59.379913,13.502948,ardac,125.3,False,59.3626,11.1683
SE718,Karlsvik,,Norrbotten,SE,65.597283,22.079106,ardac,1.2,True,65.5038,22.5543
SE719,Karungi,,Norrbotten,SE,66.044553,23.953027,ardac,25.7,True,65.8242,23.9747
SE720,Karups sommarby,,Skåne,SE,55.591988,13.637648,ardac,19.0,True,55.3765,13.7174
SE721,Kastlösa,,Kalmar,SE,56.459838,16.428953,ardac,2.3,True,56.4123,16.2405
SE722,Katrinedal,,Stockholm,SE,59.475315,17.836947,ardac,12.3,True,59.395,18.2379
SE723,Katrineholm,,Södermanland,SE,59.016346,16.324228,ardac,38.9,True,58.7698,16.9925
SE724,Kattarp,,Skåne,SE,56.193491,12.755286,ardac,3.9,True,55.9786,12.841
SE725,Kaxholmen,,Jönköping,SE,57.854004,14.307587,ardac,125.5,False,57.8667,16.4711
SE726,Kebal,,Västra Götaland,SE,58.952553,11.152931,ardac,2.3,True,58.8974,10.9589
SE727,Kilafors,,Gävleborg,SE,61.228627,16.567118,ardac,30.0,True,61.136,17.3126
SE728,Kil,,Värmland,SE,59.567107,13.190544,ardac,116.0,False,59.2293,11.14
SE729,Killeberg,,Skåne,SE,56.475869,14.096954,ardac,51.3,True,56.2407,14.7357
SE730,Kil,,Värmland,SE,59.567107,13.190544,ardac,116.0,False,59.2293,11.14
SE731,Kilsmo,,Örebro,SE,59.068552,15.539169,ardac,60.0,True,58.782,17.1113
SE732,Kimstad,,Östergötland,SE,58.548921,15.968906,ardac,15.1,True,58.3042,16.6311
SE733,Kinna,,Västra Götaland,SE,57.507764,12.692822,ardac,37.3,True,57.4645,11.9254
SE734,Kinnared,,Halland,SE,57.026938,13.110207,ardac,38.7,True,56.8244,12.6269
SE735,Kinnarp,,Västra Götaland,SE,58.074887,13.519676,ardac,97.4,True,57.7388,11.8416
SE736,Kinnarumma,,Västra Götaland,SE,57.593197,12.874498,ardac,50.7,True,57.5553,11.815
SE737,Kiruna,,Norrbotten,SE,67.855072,20.225548,ardac,116.0,False,68.2622,17.192
SE738,Kisa,,Östergötland,SE,57.98782,15.631767,ardac,47.9,True,57.8865,16.6049
SE739,Kivik,,Skåne,SE,55.684635,14.224772,ardac,1.4,True,55.6248,14.3185
SE740,Kjulaås,,Södermanland,SE,59.387697,16.677549,ardac,61.2,True,58.844,16.986
SE741,Klagstorp,,Västra Götaland,SE,58.336555,13.885317,ardac,117.5,False,58.1697,11.6111
SE742,Klevshult,,Jönköping,SE,57.355188,14.10138,ardac,108.3,False,56.7084,12.7138
SE743,Klingsta och Allsta,,Västernorrland,SE,62.328093,17.208368,ardac,8.4,True,62.2659,17.3152
SE744,Klintehamn,,Gotland,SE,57.386394,18.202844,ardac,1.6,True,57.3415,18.0074
SE745,Klippan,,Skåne,SE,56.116273,13.228856,ardac,29.0,True,55.9142,12.7563
SE746,Klippans bruk,,Skåne,SE,56.11979,13.148501,ardac,24.5,True,55.9113,12.9542
SE747,Klockestrand,,Västernorrland,SE,62.876604,17.907755,ardac,0.4,True,62.7957,18.3523
SE748,Klockrike,,Östergötland,SE,58.496565,15.338339,ardac,51.1,True,58.383,16.6217
SE749,Klutmark,,Västerbotten,SE,64.72952,20.716593,ardac,18.4,True,64.7948,21.2446
SE750,Klågerup,,Skåne,SE,55.594253,13.249008,ardac,13.9,True,55.5421,13.0688
SE751,Klädesholmen,,Västra Götaland,SE,57.944109,11.538262,ardac,0.8,True,57.8863,11.6418
SE752,Kläppa,,Halland,SE,57.363652,12.141729,ardac,3.1,True,57.3099,11.9546
SE753,Klässbol,,Värmland,SE,59.537569,12.743575,ardac,92.1,True,59.3478,11.0077
SE754,Klövedal,,Västra Götaland,SE,58.037972,11.575078,ardac,0.9,True,57.9801,11.6788
SE755,Klöverträsk,,Norrbotten,SE,65.638013,21.392009,ardac,19.0,True,65.392,21.8014
SE756,Klövsjö,,Jämtland,SE,62.527828,14.197194,ardac,162.1,False,62.3513,17.3167
SE757,Knislinge,,Skåne,SE,56.194202,14.085138,ardac,30.5,True,55.9691,14.4416
SE758,Knivsta,,Uppsala,SE,59.743923,17.816204,ardac,36.3,True,59.3349,18.4493
SE759,Knutby,,Uppsala,SE,59.909686,18.266033,ardac,25.2,True,59.8281,18.671
SE760,Knäred,,Halland,SE,56.520239,13.316688,ardac,23.3,True,56.4806,12.5683
SE761,Kode,,Västra Götaland,SE,57.943903,11.850813,ardac,5.3,True,57.8898,11.6611
SE762,Kolbäck,,Västmanland,SE,59.562481,16.235983,ardac,92.3,True,58.8341,17.1226
SE763,Kolsva,,Västmanland,SE,59.599841,15.844,ardac,106.0,False,58.8588,17.0392
SE764,Konga,,Kronoberg,SE,56.497917,15.121524,ardac,34.6,True,56.2816,15.1947
SE765,Kopparberg,,Örebro,SE,59.874506,14.990384,ardac,151.6,False,60.6684,17.1376
SE766,Kopparmora,,Stockholm,SE,59.335833,18.565,ardac,2.8,True,59.2728,18.6605
SE767,Kopparnäs,,Norrbotten,SE,65.404689,21.478504,ardac,1.4,True,65.3394,21.5869
SE768,Koppom,,Värmland,SE,59.703155,12.149459,ardac,78.9,True,59.3463,11.0171
SE769,Korpilombolo,,Norrbotten,SE,66.850432,23.056268,ardac,105.8,False,65.7705,23.8094
SE770,Korsberga,,Västra Götaland,SE,58.3,14.083333,ardac,127.7,False,58.3019,16.5686
SE771,Korsberga,,Jönköping,SE,57.3025,15.125278,ardac,81.1,True,57.3471,16.3951
SE772,Korsträsk,,Norrbotten,SE,65.66819,20.867354,ardac,39.2,True,65.3977,21.6488
SE773,Kortebo,,Jönköping,SE,57.814875,14.145419,ardac,130.4,False,57.6526,11.9022
SE774,Koskullskulle,,Norrbotten,SE,67.185964,20.738665,ardac,165.0,False,65.7254,22.572
SE775,Kosta,,Kronoberg,SE,56.847541,15.394082,ardac,57.0,True,56.4503,16.0065
SE776,Kovikshamn,,Västra Götaland,SE,57.841715,11.686537,ardac,0.5,True,57.7838,11.7896
SE777,Kovland,,Västernorrland,SE,62.470936,17.155297,ardac,9.1,True,62.3922,17.5959
SE778,Kramfors,,Västernorrland,SE,62.930611,17.78399,ardac,2.1,True,62.85,18.2296
SE779,Krika,,Skåne,SE,56.095109,13.145129,ardac,25.9,True,56.0428,12.9627
SE780,Kristdala,,Kalmar,SE,57.400567,16.197434,ardac,20.8,True,57.4809,16.6072
SE781,Kristianstad,,Skåne,SE,56.029377,14.156685,ardac,14.6,True,55.9601,14.5292
SE782,Kristinehamn,,Värmland,SE,59.311361,14.11176,ardac,141.1,False,59.3108,11.1717
SE783,Kristvallabrunn,,Kalmar,SE,56.777766,16.053326,ardac,18.7,True,56.7029,16.4295
SE784,Krokek,,Östergötland,SE,58.67498,16.365736,ardac,4.4,True,58.7395,17.0893
SE785,Krokom,,Jämtland,SE,63.802225,14.180883,ardac,134.6,False,64.5787,11.5379
SE786,Krylbo,,Dalarna,SE,60.127434,16.211779,ardac,82.5,True,60.488,17.3459
SE787,Krägga,,Uppsala,SE,59.606041,17.404754,ardac,40.8,True,59.3361,18.3796
SE788,Kränge,,Östergötland,SE,58.440932,15.468802,ardac,46.3,True,58.3262,16.7498
SE789,Kullersta,,Södermanland,SE,59.449047,16.531014,ardac,71.6,True,58.7348,17.1106
SE790,Kulltorp,,Västmanland,SE,59.914851,16.250672,ardac,99.0,True,60.4307,17.4125
SE791,Kullö,,Stockholm,SE,59.413961,18.304833,ardac,0.7,True,59.3511,18.401
SE792,Kumla,,Örebro,SE,59.117423,15.109026,ardac,82.0,True,58.8207,16.9861
SE793,Kungsberga,,Stockholm,SE,59.405967,17.627952,ardac,21.7,True,59.3083,18.3315
SE794,Kungsgården,,Gävleborg,SE,61.365482,16.94786,ardac,9.2,True,61.2875,17.3739
SE795,Kungshamn,,Västra Götaland,SE,58.360817,11.251142,ardac,0.6,True,58.3032,11.3563
SE796,Kungshult,,Skåne,SE,56.102261,12.6958,ardac,5.6,True,56.0436,12.7928
SE797,Kungsängen,,Stockholm,SE,59.478667,17.751169,ardac,16.6,True,59.3804,18.4558
SE798,Kungsäter,,Halland,SE,57.305817,12.56488,ardac,24.8,True,57.1013,12.081
SE799,Kungsör,,Västmanland,SE,59.413971,16.087752,ardac,83.3,True,58.8421,17.0047
SE800,Kungälv,,Västra Götaland,SE,57.870786,11.978862,ardac,13.5,True,57.6605,11.7818
SE801,Kurland,,Skåne,SE,55.376975,13.084278,ardac,1.5,True,55.318,13.179
SE802,Kurveröd,,Västra Götaland,SE,58.363597,11.890481,ardac,2.3,True,58.1531,11.6912
SE803,Kusmark,,Västerbotten,SE,64.87881,20.79953,ardac,12.1,True,64.814,20.9076
SE804,Kuttainen,,Norrbotten,SE,68.381679,22.826079,ardac,147.9,False,69.7434,20.6294
SE805,Kvarsebo,,Östergötland,SE,58.64077,16.628524,ardac,1.6,True,58.7196,17.0536
SE806,Kvegerö,,Södermanland,SE,58.927495,17.369469,ardac,5.8,True,58.8486,17.7653
SE807,Kvibille,,Halland,SE,56.783227,12.832206,ardac,12.8,True,56.7305,12.6469
SE808,Kvicksund,,Västmanland,SE,59.457644,16.314485,ardac,83.3,True,58.7443,16.8985
SE809,Kvidinge,,Skåne,SE,56.135365,13.04499,ardac,18.2,True,55.9267,12.8512
SE810,Kvillsfors,,Jönköping,SE,57.403087,15.497728,ardac,60.3,True,57.4585,16.4831
SE811,Kvissleby,,Västernorrland,SE,62.299215,17.379976,ardac,3.3,True,62.2369,17.4864
SE812,Kvänum,,Västra Götaland,SE,58.30143,13.186595,ardac,76.6,True,58.1175,11.5078
SE813,Kvärlöv,,Skåne,SE,55.839439,12.986569,ardac,3.8,True,55.7869,12.8056
SE814,Kyrkesund,,Västra Götaland,SE,58.015795,11.514944,ardac,0.6,True,57.958,11.6187
SE815,Kyrkheddinge,,Skåne,SE,55.64914,13.268006,ardac,13.3,True,55.4409,13.0754
SE816,Kyrkhult,,Skåne,SE,55.832424,13.724734,ardac,30.3,True,55.7552,14.3727
SE817,Kyrksten,,Värmland,SE,59.437666,14.392946,ardac,136.2,False,58.7949,17.1353
SE818,Kågeröd,,Skåne,SE,55.999056,13.088313,ardac,19.3,True,55.9467,12.9064
SE819,Kåge,,Västerbotten,SE,64.835173,20.984811,ardac,2.5,True,64.9249,21.1551
SE820,Kåhög,,Västra Götaland,SE,57.750421,12.151588,ardac,14.6,True,57.6967,11.9624
SE821,Kållekärr,,Västra Götaland,SE,58.026051,11.660106,ardac,2.2,True,57.9717,11.4703
SE822,Kånna,,Kronoberg,SE,56.781805,13.903944,ardac,64.4,True,56.7581,12.582
SE823,Kårsta,,Stockholm,SE,59.657503,18.274701,ardac,18.2,True,59.576,18.6767
SE824,Kälarne,,Jämtland,SE,62.979221,16.085824,ardac,81.8,True,62.3893,17.4369
SE825,Källby,,Västra Götaland,SE,58.509551,13.307386,ardac,85.6,True,58.1707,11.6112
SE826,Källhagen,,Gävleborg,SE,60.69876,17.194925,ardac,0.4,True,60.6367,17.2967
SE827,Källö-Knippla,,Västra Götaland,SE,57.753167,11.65105,ardac,4.8,True,57.6952,11.7539
SE828,Kärda,,Jönköping,SE,57.171295,13.921352,ardac,86.3,True,56.8352,12.5645
SE829,Kärna,,Östergötland,SE,58.410221,15.510259,ardac,45.9,True,58.3096,16.495
SE830,Kärsta,,Västmanland,SE,59.679131,16.837808,ardac,73.0,True,58.9469,17.7147
SE831,Kättilsmåla,,Blekinge,SE,56.269177,15.736483,ardac,9.9,True,56.2083,15.8292
SE832,Kättilstorp,,Kronoberg,SE,56.825167,14.777483,ardac,73.1,True,56.2971,14.814
SE833,Kävlinge,,Skåne,SE,55.791294,13.107347,ardac,9.2,True,55.739,12.9264
SE834,Köinge,,Halland,SE,57.064209,12.645174,ardac,19.2,True,56.8549,12.4487
SE835,Köpingebro,,Skåne,SE,55.452452,13.935417,ardac,2.2,True,55.3929,14.029
SE836,Köping,,Västmanland,SE,59.579954,15.879021,ardac,103.4,False,58.8386,17.0728
SE837,Köpmanholmen,,Västernorrland,SE,63.169467,18.554621,ardac,0.5,True,63.1063,18.6616
SE838,Lagan,,Jönköping,SE,57.238215,14.069977,ardac,98.0,True,56.7474,12.6983
SE839,Laggarberg,,Västernorrland,SE,62.464177,17.258688,ardac,3.8,True,62.4019,17.3659
SE840,Laholm,,Halland,SE,56.512652,13.044638,ardac,6.7,True,56.4662,12.5786
SE841,Lammhult,,Kronoberg,SE,57.168903,14.580559,ardac,111.8,False,56.1626,14.8435
SE842,Landeryd,,Halland,SE,57.077553,13.266096,ardac,49.7,True,56.7194,12.7699
SE843,Landfjärden,,Stockholm,SE,59.035934,17.989155,ardac,0.8,True,58.9734,18.0849
SE844,Landsbro,,Jönköping,SE,57.36962,14.90132,ardac,95.1,True,57.4025,16.4612
SE845,Landskrona,,Skåne,SE,55.8698,12.829673,ardac,1.4,True,55.811,12.9259
SE846,Landvetter,,Västra Götaland,SE,57.685293,12.22349,ardac,18.0,True,57.6358,11.7438
SE847,Lanesund och Överby,,Västra Götaland,SE,58.340046,11.72853,ardac,1.4,True,58.1294,11.5303
SE848,Lanna,,Jönköping,SE,57.223516,13.777647,ardac,84.3,True,56.7241,12.6941
SE849,Larv,,Västra Götaland,SE,58.188968,13.126441,ardac,72.9,True,58.1607,11.4594
SE850,Latorpsbruk,,Örebro,SE,59.275532,14.987604,ardac,98.7,True,58.8094,17.1429
SE851,Laxvik,,Halland,SE,56.597352,12.92706,ardac,1.5,True,56.701,12.7538
SE852,Laxå,,Örebro,SE,58.982954,14.619779,ardac,98.3,True,58.3672,16.7331
SE853,Lekeryd,,Jönköping,SE,57.773366,14.418215,ardac,119.7,False,57.6287,16.5492
SE854,Leksand,,Dalarna,SE,60.724768,14.868461,ardac,126.9,False,60.7259,17.2184
SE855,Lenhovda,,Kronoberg,SE,56.99777,15.284947,ardac,69.9,True,56.5878,16.1828
SE856,Lerbäckshult,,Skåne,SE,56.335259,12.973061,ardac,10.9,True,56.4447,12.5194
SE857,Lerdala,,Västra Götaland,SE,58.477042,13.709034,ardac,108.1,False,58.1473,11.7157
SE858,Lerum,,Västra Götaland,SE,57.769947,12.268929,ardac,21.9,True,57.7206,11.7881
SE859,Lesjöfors,,Värmland,SE,59.97628,14.184061,ardac,184.0,False,60.7532,16.9524
SE860,Lessebo,,Kronoberg,SE,56.756624,15.26795,ardac,60.7,True,56.5157,15.9041
SE861,Liatorp,,Kronoberg,SE,56.663235,14.265872,ardac,62.0,True,56.2713,14.8869
SE862,Lidatorp och Klövsta,,Stockholm,SE,58.95809,17.906444,ardac,3.2,True,58.8956,18.0021
SE863,Liden,,Västernorrland,SE,62.699009,16.803524,ardac,35.7,True,62.4491,17.5451
SE864,Lidhult,,Kronoberg,SE,56.827578,13.440539,ardac,40.0,True,56.7887,12.686
SE865,Lidingö,,Stockholm,SE,59.364384,18.133142,ardac,0.9,True,59.3017,18.2295
SE866,Lidköping,,Västra Götaland,SE,58.568247,13.00989,ardac,70.9,True,58.2225,11.6094
SE867,Lidköping norra,,Västra Götaland,SE,58.568247,13.00989,ardac,70.9,True,58.2225,11.6094
SE868,Lilla Edet,,Västra Götaland,SE,58.157211,12.08163,ardac,12.8,True,58.1072,11.5959
SE869,Lilla Edet västra,,Västra Götaland,SE,58.157211,12.08163,ardac,12.8,True,58.1072,11.5959
SE870,Lilla Harrie,,Skåne,SE,55.792753,13.202751,ardac,14.0,True,55.7468,12.7451
SE871,Lilla Stenby,,Stockholm,SE,59.384764,17.524639,ardac,25.3,True,59.2877,18.228
SE872,Lilla Tjärby,,Halland,SE,56.527249,13.056591,ardac,7.3,True,56.4808,12.5904
SE873,Lillhaga,,Gävleborg,SE,61.83277,16.057998,ardac,58.5,True,61.7109,17.4715
SE874,Lillhärdal,,Jämtland,SE,61.851045,14.06833,ardac,161.5,False,61.8177,17.4845
SE875,Lillkyrka,,Östergötland,SE,58.499803,15.903497,ardac,21.5,True,58.4111,16.5938
SE876,Lillpite,,Norrbotten,SE,65.373996,21.151354,ardac,6.5,True,65.2832,21.6257
SE877,Limedsforsen,,Dalarna,SE,60.889845,13.395734,ardac,183.5,False,60.7027,16.9965
SE878,Limmared,,Västra Götaland,SE,57.537388,13.356598,ardac,76.6,True,57.5121,11.7187
SE879,Linderöd,,Skåne,SE,55.933072,13.823756,ardac,26.9,True,55.7087,14.1794
SE880,Lindesberg,,Örebro,SE,59.593056,15.226496,ardac,118.1,False,58.8277,17.0334
SE881,Lindholmen,,Blekinge,SE,56.151828,15.585013,ardac,1.1,True,56.091,15.6777
SE882,Lindsdal,,Kalmar,SE,56.733926,16.297433,ardac,4.2,True,56.6726,16.3904
SE883,Lindö,,Kalmar,SE,56.673253,16.361488,ardac,1.1,True,56.6119,16.4542
SE884,Lingbo,,Gävleborg,SE,61.048803,16.694169,ardac,25.4,True,61.1273,17.1511
SE885,Linghed,,Dalarna,SE,60.78361,15.860435,ardac,72.9,True,60.6641,17.2297
SE886,Linghem,,Östergötland,SE,58.429082,15.78718,ardac,31.8,True,58.341,16.4764
SE887,Linköping,,Östergötland,SE,58.409813,15.624525,ardac,40.4,True,58.3084,16.6089
SE888,Linneryd,,Kronoberg,SE,56.660845,15.124572,ardac,52.7,True,56.2886,15.1771
SE889,Listerby,,Blekinge,SE,56.196403,15.402268,ardac,1.9,True,56.1357,15.4954
SE890,Lit,,Jämtland,SE,63.316657,14.849945,ardac,148.6,False,62.3644,17.5094
SE891,Ljunga,,Östergötland,SE,58.577125,16.307637,ardac,4.5,True,58.3457,16.6728
SE892,Ljungbyhed,,Skåne,SE,56.074442,13.233562,ardac,31.2,True,56.0286,12.7725
SE893,Ljungbyholm,,Kalmar,SE,56.633975,16.168375,ardac,4.0,True,56.5727,16.2613
SE894,Ljungby,,Kronoberg,SE,56.832588,13.935991,ardac,67.9,True,56.8092,12.6123
SE895,Ljungsarp,,Västra Götaland,SE,57.565104,13.58333,ardac,90.5,True,57.5426,11.9439
SE896,Ljungsbro,,Östergötland,SE,58.508132,15.502618,ardac,41.6,True,58.4076,16.49
SE897,Ljungskile,,Västra Götaland,SE,58.22465,11.919828,ardac,2.0,True,58.1741,11.4335
SE898,Ljusdal,,Gävleborg,SE,61.829375,16.095359,ardac,56.5,True,61.7234,17.1826
SE899,Ljusfallshammar,,Östergötland,SE,58.788109,15.493705,ardac,43.4,True,58.3617,16.728
SE900,Ljusne,,Gävleborg,SE,61.21363,17.128154,ardac,1.7,True,61.1515,17.2316
SE901,Ljusterö Nolsjö,,Stockholm,SE,59.531146,18.618247,ardac,1.7,True,59.4681,18.7142
SE902,Loftahammar,,Kalmar,SE,57.904348,16.693118,ardac,1.0,True,57.8427,16.7882
SE903,Lomma,,Skåne,SE,55.674534,13.070892,ardac,0.6,True,55.7783,12.902
SE904,Los,,Gävleborg,SE,61.736513,15.169209,ardac,101.8,False,61.7483,17.2677
SE905,Lotorp,,Östergötland,SE,58.7341,15.827684,ardac,23.3,True,58.3199,16.7612
SE906,Lottefors,,Gävleborg,SE,61.419319,16.407473,ardac,37.4,True,61.3274,17.1578
SE907,Lucksta,,Västernorrland,SE,62.301515,17.05193,ardac,17.0,True,62.2231,17.4904
SE908,Luddingsbo,,Östergötland,SE,58.507934,16.137539,ardac,13.4,True,58.277,16.5031
SE909,Ludvika,,Dalarna,SE,60.150377,15.181398,ardac,125.8,False,60.6457,16.9665
SE910,Lugnet och Skälsmara,,Stockholm,SE,59.25587,18.535627,ardac,0.5,True,59.1929,18.631
SE911,Lugnvik,,Västra Götaland,SE,57.766888,12.216301,ardac,18.8,True,57.7174,11.7356
SE912,Lugnås,,Västra Götaland,SE,58.644023,13.699969,ardac,111.6,False,58.1577,11.6901
SE913,Luleå,,Norrbotten,SE,65.583135,22.146013,ardac,0.8,True,65.4895,22.6207
SE914,Lundby,,Uppsala,SE,59.67123,17.047432,ardac,62.0,True,59.3858,18.3304
SE915,Lunde,,Gävleborg,SE,61.974137,17.241551,ardac,6.3,True,61.9119,17.3472
SE916,Lund,,Skåne,SE,55.702929,13.192944,ardac,8.7,True,55.4945,13.0005
SE917,Lundsbrunn,,Västra Götaland,SE,58.471591,13.445263,ardac,92.8,True,58.138,11.4547
SE918,Lunnarp,,Skåne,SE,55.543894,14.040716,ardac,14.1,True,55.4842,14.1344
SE919,Lunne,,Västernorrland,SE,63.784732,17.65762,ardac,80.3,True,63.4912,19.1085
SE920,Lurudden,,Stockholm,SE,59.274685,17.70826,ardac,12.1,True,59.0395,18.0711
SE921,Lycksele,,Västerbotten,SE,64.595861,18.677755,ardac,115.7,False,63.5597,19.1974
SE922,Lycksta,,Västmanland,SE,59.695182,16.567965,ardac,85.5,True,58.8251,17.1189
SE923,Lyrestad,,Västra Götaland,SE,58.80363,14.059127,ardac,124.5,False,58.3385,16.4939
SE924,Lysekil,,Västra Götaland,SE,58.291426,11.329568,ardac,3.8,True,58.2337,11.4344
SE925,Lysvik,,Värmland,SE,60.015272,13.132996,ardac,134.1,False,59.3634,11.0466
SE926,Långared,,Västra Götaland,SE,58.045332,12.520669,ardac,41.6,True,57.6884,11.7274
SE927,Långasjö,,Blekinge,SE,56.429453,15.461471,ardac,25.8,True,56.2129,15.5327
SE928,Långsele,,Västernorrland,SE,63.185115,17.056398,ardac,38.8,True,63.0716,18.1889
SE929,Långshyttan,,Dalarna,SE,60.451773,16.032348,ardac,68.7,True,60.6581,17.1418
SE930,Långviksmon,,Västernorrland,SE,63.631477,18.698402,ardac,34.9,True,63.5481,19.152
SE931,Långvik,,Norrbotten,SE,65.416475,21.850586,ardac,1.0,True,65.3509,21.9581
SE932,Långås,,Halland,SE,56.979132,12.447907,ardac,5.6,True,56.9259,12.2622
SE933,Läby,,Uppsala,SE,60.088426,17.555379,ardac,46.0,True,60.5093,17.4487
SE934,Läckeby,,Kalmar,SE,56.782908,16.294941,ardac,4.6,True,56.5659,16.362
SE935,Länghem,,Västra Götaland,SE,57.601177,13.242889,ardac,71.8,True,57.5707,11.8925
SE936,Länna,,Uppsala,SE,59.878854,17.966069,ardac,40.4,True,60.1087,18.4489
SE937,Läppe,,Södermanland,SE,59.129561,15.799966,ardac,57.1,True,58.8558,17.0733
SE938,Lärbro,,Gotland,SE,57.785162,18.790637,ardac,4.6,True,57.7221,18.8819
SE939,Löberöd,,Skåne,SE,55.775677,13.514908,ardac,30.3,True,55.5522,13.8709
SE940,Löddeköpinge,,Skåne,SE,55.763213,13.000394,ardac,2.9,True,55.8669,12.8309
SE941,Löderup,,Skåne,SE,55.438801,14.113706,ardac,5.9,True,55.3791,14.207
SE942,Lödöse,,Västra Götaland,SE,58.033758,12.154571,ardac,20.8,True,57.984,11.6704
SE943,Lögdeå,,Västerbotten,SE,63.549258,19.390514,ardac,1.5,True,63.5063,19.1526
SE944,Lönsboda,,Skåne,SE,56.398584,14.321326,ardac,35.4,True,56.1623,14.9575
SE945,Lörby,,Blekinge,SE,56.071259,14.696498,ardac,2.1,True,56.0111,14.7904
SE946,Löttorp,,Kalmar,SE,57.166116,16.996494,ardac,1.7,True,57.1043,17.0893
SE947,Löwenströmska lasarettet,,Stockholm,SE,59.541799,17.916415,ardac,14.8,True,59.306,18.2805
SE948,Lövestad,,Skåne,SE,55.65228,13.891961,ardac,20.7,True,55.4367,13.9705
SE949,Lövstalöt,,Uppsala,SE,59.958716,17.577546,ardac,53.4,True,60.3271,18.4086
SE950,Lövånger,,Västerbotten,SE,64.368753,21.313517,ardac,0.6,True,64.2777,21.7708
SE951,Madängsholm,,Västra Götaland,SE,58.140409,13.921067,ardac,120.0,False,57.6576,11.9359
SE952,Magra,,Västra Götaland,SE,58.113151,12.62335,ardac,44.8,True,57.7568,11.8276
SE953,Mala,,Skåne,SE,56.241004,13.711531,ardac,50.9,True,56.0475,12.9563
SE954,Malmberget västra,,Norrbotten,SE,67.176118,20.658935,ardac,165.7,False,65.7163,22.496
SE955,Malmberget östra,,Norrbotten,SE,67.176118,20.658935,ardac,165.7,False,65.7163,22.496
SE956,Malmbäck,,Kronoberg,SE,56.840954,14.049387,ardac,74.7,True,56.8187,12.7253
SE957,Malmen,,Kalmar,SE,57.01489,16.219951,ardac,13.2,True,56.9395,16.5982
SE958,Malmköping,,Södermanland,SE,59.133138,16.725512,ardac,46.0,True,58.745,17.0622
SE959,Malmslätt,,Östergötland,SE,58.416735,15.516966,ardac,45.2,True,58.3161,16.5019
SE960,Malmö,,Skåne,SE,55.605293,13.000156,ardac,2.8,True,55.5464,13.0955
SE961,Malmön,,Gävleborg,SE,60.589005,16.77788,ardac,25.1,True,60.6673,17.2286
SE962,Malung,,Dalarna,SE,60.686446,13.714586,ardac,186.5,False,60.6632,17.0101
SE963,Malungsfors,,Dalarna,SE,60.734169,13.552234,ardac,181.2,False,60.6991,17.1689
SE964,Malå,,Västerbotten,SE,65.238752,18.729258,ardac,118.3,False,64.8866,20.9654
SE965,Mantorp,,Östergötland,SE,58.354314,15.288493,ardac,60.2,True,58.397,16.5955
SE966,Marbäck,,Halland,SE,56.7052,13.029041,ardac,11.5,True,56.8149,12.5712
SE967,Margretetorp,,Skåne,SE,56.335859,12.892382,ardac,7.5,True,56.4395,12.7202
SE968,Mariannelund,,Jönköping,SE,57.615689,15.580343,ardac,56.2,True,57.5148,16.5439
SE969,Marieby,,Jämtland,SE,63.116689,14.723028,ardac,151.0,False,62.3226,17.407
SE970,Mariefred,,Södermanland,SE,59.259945,17.222948,ardac,27.0,True,59.009,17.8894
SE971,Marieholm,,Skåne,SE,55.864144,13.151533,ardac,14.5,True,55.8119,12.9702
SE972,Marielund,,Uppsala,SE,59.838943,17.870543,ardac,44.8,True,60.0504,18.6615
SE973,Mariestad,,Västra Götaland,SE,58.800977,13.751662,ardac,120.6,False,58.4752,11.4422
SE974,Markaryd,,Kronoberg,SE,56.459613,13.591983,ardac,40.9,True,56.4275,12.563
SE975,Marmaskogen,,Gävleborg,SE,61.278953,16.896402,ardac,11.5,True,61.2012,17.3215
SE976,Marma,,Uppsala,SE,59.784245,17.83982,ardac,39.8,True,59.3751,18.4733
SE977,Marmorbyn,,Södermanland,SE,59.045239,16.069696,ardac,42.9,True,58.7848,17.0392
SE978,Marstrand,,Västra Götaland,SE,57.886761,11.588797,ardac,5.4,True,57.8289,11.6921
SE979,Matfors,,Västernorrland,SE,62.346769,17.019979,ardac,17.6,True,62.2685,17.4592
SE980,Medle,,Västerbotten,SE,64.74523,20.756741,ardac,15.9,True,64.8352,20.9257
SE981,Medåker,,Västmanland,SE,59.451516,15.754719,ardac,91.4,True,58.8669,16.9777
SE982,Mehedeby,,Uppsala,SE,60.44591,17.403973,ardac,15.0,True,60.5392,17.54
SE983,Mellansel,,Västernorrland,SE,63.424772,18.308823,ardac,28.8,True,63.2062,18.3728
SE984,Mellbystrand,,Halland,SE,56.504597,12.948391,ardac,1.0,True,56.452,12.7643
SE985,Mellerud,,Västra Götaland,SE,58.682429,12.525313,ardac,53.5,True,58.4852,11.4278
SE986,Mellösa,,Södermanland,SE,59.100733,16.561849,ardac,47.4,True,58.8686,16.9305
SE987,Merlänna,,Södermanland,SE,59.280796,16.980532,ardac,40.8,True,58.8756,17.6153
SE988,Mjällby,,Blekinge,SE,56.047083,14.678027,ardac,3.4,True,55.9869,14.7719
SE989,Mjällom,,Västernorrland,SE,62.98669,18.430428,ardac,2.0,True,62.9236,18.537
SE990,Mjöbäck,,Västra Götaland,SE,57.314698,12.875615,ardac,42.9,True,56.955,12.38
SE991,Mjöhult,,Kronoberg,SE,56.816097,14.360647,ardac,75.6,True,56.2677,14.963
SE992,Mjölby,,Östergötland,SE,58.295391,15.179064,ardac,69.1,True,58.3391,16.4838
SE993,Mjönäs,,Värmland,SE,59.879452,13.55936,ardac,151.3,False,59.2369,11.169
SE994,Mockfjärd,,Dalarna,SE,60.502899,14.959955,ardac,124.0,False,60.6742,17.013
SE995,Mogata,,Östergötland,SE,58.451127,16.451785,ardac,2.6,True,58.3896,16.5487
SE996,Moheda,,Kronoberg,SE,57.004355,14.572811,ardac,93.6,True,56.1541,14.8544
SE997,Mohed,,Gävleborg,SE,61.29454,16.827051,ardac,14.7,True,61.217,17.2525
SE998,Moholm,,Västra Götaland,SE,58.607027,14.038339,ardac,124.6,False,58.2981,16.4882
SE999,Moliden,,Västernorrland,SE,63.379294,18.455573,ardac,20.0,True,63.1607,18.5184
SE1000,Molkom,,Värmland,SE,59.602235,13.728668,ardac,145.3,False,59.2783,11.0618
SE1001,Mollösund,,Västra Götaland,SE,58.073313,11.475499,ardac,0.7,True,58.0155,11.5795
SE1002,Mora,,Dalarna,SE,61.008209,14.543133,ardac,141.4,False,60.6875,17.1638
SE1003,Morgongåva,,Uppsala,SE,59.933759,16.962697,ardac,74.4,True,60.4781,17.5093
SE1004,Morup,,Halland,SE,56.979293,12.395902,ardac,2.5,True,56.9208,12.4955
SE1005,Motala,,Östergötland,SE,58.542039,15.041261,ardac,66.9,True,58.4171,16.6233
SE1006,Mullhyttan,,Örebro,SE,59.151568,14.683658,ardac,103.9,False,58.8459,16.8657
SE1007,Mullsjö,,Jönköping,SE,57.942325,13.816638,ardac,115.7,False,57.7707,11.8592
SE1008,Munga,,Västmanland,SE,59.744661,16.52196,ardac,91.2,True,60.4304,17.4047
SE1009,Munka-Ljungby,,Skåne,SE,56.256101,12.973975,ardac,8.8,True,56.0474,12.7799
SE1010,Munkedal,,Västra Götaland,SE,58.607817,11.672323,ardac,17.5,True,58.5563,11.1811
SE1011,Munkfors,,Värmland,SE,59.809955,13.488232,ardac,143.8,False,59.3227,11.109
SE1012,Munktorp,,Västmanland,SE,59.532577,16.134284,ardac,96.0,True,58.8048,17.0223
SE1013,Muskö,,Stockholm,SE,58.99583,18.114857,ardac,1.9,True,58.9332,18.2103
SE1014,Myckle,,Västerbotten,SE,64.753,20.843137,ardac,12.0,True,64.8429,21.0125
SE1015,Myggenäs,,Västra Götaland,SE,58.05549,11.743581,ardac,0.4,True,58.0012,11.5535
SE1016,Myresjö,,Jönköping,SE,57.384661,14.966436,ardac,91.4,True,57.4168,16.527
SE1017,Myrviken,,Jämtland,SE,63.000251,14.338833,ardac,164.1,False,62.3528,17.3913
SE1018,Målilla,,Kalmar,SE,57.387601,15.812169,ardac,41.5,True,57.4552,16.5093
SE1019,Målsta,,Jämtland,SE,63.153293,14.503876,ardac,162.8,False,62.3466,17.5294
SE1020,Månkarbo,,Uppsala,SE,60.226211,17.466286,ardac,32.8,True,60.4915,17.3235
SE1021,Måttsund,,Norrbotten,SE,65.544163,21.902536,ardac,1.5,True,65.4786,22.0104
SE1022,Märsta,,Stockholm,SE,59.625238,17.851567,ardac,24.1,True,59.3896,18.2169
SE1023,Möklinta,,Västmanland,SE,60.086028,16.544777,ardac,74.0,True,60.4605,17.3675
SE1024,Mölle,,Skåne,SE,56.282746,12.498322,ardac,0.9,True,56.3804,12.6065
SE1025,Mölltorp,,Västra Götaland,SE,58.494309,14.41381,ardac,103.9,False,58.3491,16.5872
SE1026,Mölnbo,,Stockholm,SE,59.048603,17.41531,ardac,11.5,True,58.9864,17.5121
SE1027,Mölnlycke,,Västra Götaland,SE,57.658361,12.113576,ardac,12.4,True,57.6046,11.925
SE1028,Mönsterås,,Kalmar,SE,57.042955,16.444801,ardac,0.2,True,56.9815,16.5382
SE1029,Mörarp,,Skåne,SE,56.056735,12.877454,ardac,10.3,True,55.9979,12.974
SE1030,Mörbylånga,,Kalmar,SE,56.524963,16.379998,ardac,2.5,True,56.4774,16.1913
SE1031,Mörlunda,,Kalmar,SE,57.323302,15.865313,ardac,36.8,True,57.3906,16.5614
SE1032,Mörrum,,Blekinge,SE,56.192516,14.751521,ardac,3.1,True,56.1323,14.8456
SE1033,Mörsil,,Jämtland,SE,63.309848,13.657397,ardac,122.3,False,64.5456,11.4237
SE1034,Nedansjö,,Västernorrland,SE,62.376436,16.848226,ardac,25.6,True,62.2821,17.6203
SE1035,Nedre Gärdsjö,,Dalarna,SE,60.938578,15.225472,ardac,105.0,False,60.6388,17.2034
SE1036,Nibble,,Stockholm,SE,59.064191,17.6241,ardac,1.0,True,58.8465,17.6864
SE1037,Nikkala,,Norrbotten,SE,65.804057,23.91427,ardac,2.2,True,65.7372,24.0182
SE1038,Nissafors,,Jönköping,SE,57.407874,13.637141,ardac,89.8,True,56.751,12.5397
SE1039,Nitta,,Västra Götaland,SE,57.827588,13.193772,ardac,76.9,True,57.6402,11.8274
SE1040,Njutånger,,Gävleborg,SE,61.613485,17.052906,ardac,1.6,True,61.7072,17.1931
SE1041,Nolvik,,Västra Götaland,SE,57.777278,11.831599,ardac,1.3,True,57.7192,11.9342
SE1042,Nora,,Västernorrland,SE,62.763013,18.272028,ardac,4.0,True,62.7,18.3782
SE1043,Norberg,,Västmanland,SE,60.061747,15.95491,ardac,97.5,True,60.564,17.4321
SE1044,Nordanö,,Västernorrland,SE,62.742779,18.120571,ardac,0.9,True,62.6799,18.227
SE1045,Nordingrå,,Västernorrland,SE,62.845904,18.655486,ardac,9.7,True,62.7827,18.7611
SE1046,Nordkroken,,Västra Götaland,SE,58.382685,12.41426,ardac,31.6,True,58.1814,11.6216
SE1047,Nordmaling,,Västerbotten,SE,63.475532,19.548486,ardac,1.7,True,63.4116,19.6544
SE1048,Nordöstra Göteborg,,Västra Götaland,SE,57.861715,11.517247,ardac,8.6,True,57.8039,11.6206
SE1049,Norje,,Blekinge,SE,56.122104,14.668745,ardac,1.0,True,56.062,14.7628
SE1050,Norra Bro,,Örebro,SE,59.226584,15.250518,ardac,84.2,True,58.7723,17.1007
SE1051,Norra Lagnö,,Stockholm,SE,59.354259,18.408346,ardac,1.8,True,59.2914,18.5042
SE1052,Norr Amsberg,,Dalarna,SE,60.530472,15.356155,ardac,102.0,False,60.7121,17.0969
SE1053,Norra Muskö,,Stockholm,SE,58.99583,18.114857,ardac,1.9,True,58.9332,18.2103
SE1054,Norra Riksten,,Stockholm,SE,59.189071,17.915707,ardac,11.3,True,59.1265,18.012
SE1055,Norra Rörum,,Skåne,SE,56.017655,13.507504,ardac,41.7,True,55.9791,12.7686
SE1056,Norra Vindö,,Halland,SE,57.365182,12.057731,ardac,0.4,True,57.3114,11.8707
SE1057,Norra Visby,,Gotland,SE,57.664609,18.332447,ardac,1.0,True,57.757,18.4599
SE1058,Norrfjärden,,Norrbotten,SE,65.419619,21.500646,ardac,2.2,True,65.3543,21.609
SE1059,Norr-Hede,,Jämtland,SE,62.424745,13.534383,ardac,176.4,False,62.2311,17.3111
SE1060,Norrhult-Klavreström,,Kronoberg,SE,57.127551,15.162189,ardac,78.0,True,56.5627,16.0397
SE1061,Norrköping,,Östergötland,SE,58.590912,16.190351,ardac,3.7,True,58.3598,16.5564
SE1062,Norrmjöle,,Västerbotten,SE,63.667528,20.12363,ardac,1.4,True,63.6032,20.2289
SE1063,Norrsundet,,Gävleborg,SE,60.929974,17.140667,ardac,2.3,True,60.8515,17.5607
SE1064,Norrtälje,,Stockholm,SE,59.759173,18.703747,ardac,2.0,True,59.6961,18.8001
SE1065,Norsbron,,Örebro,SE,59.687833,14.616433,ardac,146.6,False,60.628,17.0899
SE1066,Norsholm,,Östergötland,SE,58.506293,15.974581,ardac,18.0,True,58.4172,16.6648
SE1067,Norsjö,,Västerbotten,SE,64.936309,19.476216,ardac,75.3,True,64.9346,21.0904
SE1068,Nossebro,,Västra Götaland,SE,58.188396,12.719209,ardac,49.0,True,58.1492,11.6426
SE1069,Nusnäs,,Dalarna,SE,60.962501,14.64618,ardac,136.4,False,60.6557,16.9467
SE1070,Nya Långenäs,,Västra Götaland,SE,57.656138,12.165207,ardac,15.3,True,57.6025,11.9765
SE1071,Nyborg,,Uppsala,SE,59.83728,17.535841,ardac,53.8,True,59.4111,18.4776
SE1072,Nybro,,Kalmar,SE,56.745225,15.906154,ardac,23.8,True,56.6708,16.2823
SE1073,Nybrostrand,,Skåne,SE,55.433008,13.950298,ardac,0.8,True,55.3734,14.0438
SE1074,Nyehusen,,Skåne,SE,55.85401,14.225262,ardac,1.1,True,55.7942,14.3194
SE1075,Nye,,Jönköping,SE,57.343615,15.274067,ardac,72.5,True,57.3867,16.5454
SE1076,Nygård,,Kronoberg,SE,56.962263,14.835024,ardac,87.4,True,56.2782,14.8512
SE1077,Nyhammar,,Dalarna,SE,60.292442,14.969654,ardac,129.8,False,60.6194,17.0428
SE1078,Nykil,,Östergötland,SE,58.22165,15.5007,ardac,60.1,True,58.2769,16.5084
SE1079,Nykroppa,,Värmland,SE,59.622527,14.304553,ardac,153.5,False,58.8257,17.0316
SE1080,Nykvarn,,Stockholm,SE,59.196648,17.397728,ardac,15.3,True,58.9623,17.7619
SE1081,Nykyrka,,Södermanland,SE,58.829787,16.747025,ardac,18.5,True,58.7527,17.1431
SE1082,Nyköping,,Södermanland,SE,58.754491,17.011814,ardac,1.0,True,58.8481,17.1399
SE1083,Nyland,,Norrbotten,SE,65.860968,24.121486,ardac,4.7,True,65.794,24.2251
SE1084,Nymölla,,Skåne,SE,56.039288,14.464035,ardac,1.3,True,55.9793,14.5582
SE1085,Nynäshamn,,Stockholm,SE,58.905645,17.947098,ardac,1.0,True,58.8431,18.0426
SE1086,Nysättra,,Stockholm,SE,59.810277,18.893669,ardac,0.2,True,59.747,18.9898
SE1087,Nås,,Dalarna,SE,60.455788,14.497512,ardac,150.0,False,60.6035,17.176
SE1088,Nälden,,Jämtland,SE,63.34814,14.254167,ardac,148.1,False,64.5966,11.6825
SE1089,Näs bruk,,Dalarna,SE,60.179828,16.4786,ardac,68.2,True,60.5547,17.303
SE1090,Nässjö,,Jönköping,SE,57.653037,14.698155,ardac,105.9,False,57.5186,16.5323
SE1091,Näsum,,Skåne,SE,56.172615,14.498832,ardac,12.0,True,55.9566,14.575
SE1092,Näsviken,,Gävleborg,SE,61.766667,16.866667,ardac,15.1,True,61.8446,17.3346
SE1093,Näsviken,,Jämtland,SE,63.851591,15.535497,ardac,144.7,False,63.1978,18.3055
SE1094,Näsåker,,Västernorrland,SE,63.442944,16.897486,ardac,64.3,True,63.1566,18.3393
SE1095,Nättraby,,Blekinge,SE,56.205946,15.530474,ardac,2.0,True,56.1452,15.6234
SE1096,Nävekvarn,,Södermanland,SE,58.63006,16.796682,ardac,2.6,True,58.7239,16.9237
SE1097,Nävragöl,,Blekinge,SE,56.375172,15.565153,ardac,18.6,True,56.3018,15.9384
SE1098,Nöbbele,,Kronoberg,SE,56.695892,15.022591,ardac,56.6,True,56.1678,15.0558
SE1099,Nödinge-Nol,,Västra Götaland,SE,57.906877,12.06016,ardac,17.6,True,57.6967,11.8624
SE1100,Obbola,,Västerbotten,SE,63.702584,20.313093,ardac,1.6,True,63.6382,20.4181
SE1101,Ockelbo,,Gävleborg,SE,60.9197,16.54267,ardac,33.6,True,60.6716,17.2467
SE1102,Odensbacken,,Örebro,SE,59.162539,15.525526,ardac,68.5,True,58.7205,17.0707
SE1103,Odensberg,,Västra Götaland,SE,58.154929,13.435662,ardac,91.3,True,57.6614,11.7473
SE1104,Oknö,,Kalmar,SE,56.998086,16.503481,ardac,3.4,True,56.9366,16.5967
SE1105,Oleby,,Värmland,SE,60.135705,13.036516,ardac,130.6,False,59.3258,10.9405
SE1106,Olofstorp,,Västra Götaland,SE,57.798552,12.168591,ardac,18.1,True,57.7449,11.9792
SE1107,Olofström,,Blekinge,SE,56.278997,14.533325,ardac,16.8,True,56.2086,14.9075
SE1108,Olsfors,,Västra Götaland,SE,57.691805,12.698833,ardac,46.2,True,57.6486,11.9276
SE1109,Olshammar,,Örebro,SE,58.75554,14.799502,ardac,81.3,True,58.3077,16.6315
SE1110,Onsala,,Halland,SE,57.427218,12.03027,ardac,1.6,True,57.3734,11.843
SE1111,Onslunda,,Skåne,SE,55.598492,14.050292,ardac,14.8,True,55.5388,14.1441
SE1112,Ormaryd,,Jönköping,SE,57.666574,14.83086,ardac,97.9,True,57.5445,16.3762
SE1113,Ornäs,,Dalarna,SE,60.510133,15.538583,ardac,92.6,True,60.7053,16.9632
SE1114,Orrefors,,Kalmar,SE,56.839478,15.748617,ardac,37.5,True,56.4541,16.0763
SE1115,Orrhammar,,Södermanland,SE,59.08054,16.563566,ardac,45.5,True,58.8484,16.932
SE1116,Orrviken,,Jämtland,SE,63.106351,14.437171,ardac,163.7,False,62.4568,17.498
SE1117,Orsa,,Dalarna,SE,61.120117,14.622253,ardac,135.0,False,61.1091,17.3209
SE1118,Osbyholm,,Skåne,SE,55.84821,13.610839,ardac,37.6,True,55.7716,14.2592
SE1119,Osby,,Skåne,SE,56.382746,13.993285,ardac,49.3,True,55.9921,14.6127
SE1120,Oskarshamn,,Kalmar,SE,57.263281,16.444347,ardac,2.0,True,57.3575,16.5656
SE1121,Oskarström,,Halland,SE,56.801561,12.976093,ardac,18.1,True,56.7548,12.5066
SE1122,Ostvik,,Västerbotten,SE,64.881956,21.063818,ardac,2.4,True,64.817,21.1712
SE1123,Otterbäcken,,Västra Götaland,SE,58.94379,14.039389,ardac,128.7,False,58.4699,11.4129
SE1124,Oxelösund,,Södermanland,SE,58.670016,17.104082,ardac,0.2,True,58.6081,17.2004
SE1125,Oxie,,Skåne,SE,55.546157,13.096786,ardac,10.0,True,55.4872,13.1918
SE1126,Pajala,,Norrbotten,SE,67.209036,23.364729,ardac,147.2,False,65.8205,23.9469
SE1127,Parksidan,,Stockholm,SE,59.284221,17.846563,ardac,14.9,True,59.0664,17.9078
SE1128,Pauliström,,Jönköping,SE,57.468898,15.50939,ardac,61.2,True,57.3686,16.4693
SE1129,Persberg,,Örebro,SE,59.113364,15.546807,ardac,63.5,True,58.8267,17.1209
SE1130,Pershagen,,Stockholm,SE,59.152798,17.656331,ardac,1.3,True,59.0731,18.054
SE1131,Perstorp,,Skåne,SE,56.137696,13.395281,ardac,37.4,True,55.9363,12.9216
SE1132,Persön,,Norrbotten,SE,65.739828,22.168236,ardac,2.9,True,65.6461,22.6456
SE1133,Pilgrimstad,,Jämtland,SE,62.95434,15.043739,ardac,128.7,False,62.3275,17.4123
SE1134,Piperskärr,,Kalmar,SE,57.778491,16.633994,ardac,0.9,True,57.7169,16.7289
SE1135,Piteå,,Norrbotten,SE,65.313476,21.489939,ardac,0.7,True,65.2482,21.598
SE1136,Porjus,,Norrbotten,SE,66.96008,19.822231,ardac,163.3,False,65.7635,22.572
SE1137,Prästängen,,Stockholm,SE,59.621465,17.706711,ardac,29.3,True,59.3682,18.3765
SE1138,Pukavik,,Blekinge,SE,56.167715,14.683124,ardac,1.3,True,56.1076,14.7772
SE1139,Påarp,,Skåne,SE,56.031794,12.815699,ardac,5.6,True,55.973,12.9123
SE1140,Pålsboda,,Örebro,SE,59.065183,15.33732,ardac,68.1,True,58.7809,16.911
SE1141,Påläng,,Norrbotten,SE,65.813772,22.891509,ardac,1.7,True,65.7475,22.998
SE1142,Påryd,,Kalmar,SE,56.568072,15.926524,ardac,15.8,True,56.507,16.0197
SE1143,Påskallavik,,Kalmar,SE,57.162953,16.459455,ardac,1.6,True,57.1015,16.5531
SE1144,Rabbalshede,,Västra Götaland,SE,58.610765,11.471778,ardac,11.3,True,58.5561,11.2791
SE1145,Ramdala,,Blekinge,SE,56.183646,15.766504,ardac,3.0,True,56.1227,15.859
SE1146,Ramnäs,,Västmanland,SE,59.776193,16.19783,ardac,107.2,False,60.4481,17.3884
SE1147,Ramsberg,,Örebro,SE,59.768505,15.300246,ardac,133.6,False,58.8464,17.0829
SE1148,Ramsele,,Västernorrland,SE,63.538099,16.468698,ardac,86.7,True,63.0821,18.2182
SE1149,Ramstalund,,Uppsala,SE,59.798448,17.442889,ardac,54.0,True,59.3729,18.3848
SE1150,Ramvik,,Västernorrland,SE,62.816873,17.86541,ardac,1.1,True,62.7542,17.9726
SE1151,Ransta,,Västmanland,SE,59.81141,16.638089,ardac,89.7,True,60.4964,17.5251
SE1152,Rappestad,,Östergötland,SE,58.410335,15.420873,ardac,50.4,True,58.296,16.7009
SE1153,Reftele,,Jönköping,SE,57.175757,13.592978,ardac,72.2,True,56.8311,12.5235
SE1154,Rejmyre,,Östergötland,SE,58.830057,15.931366,ardac,25.1,True,58.7263,16.9265
SE1155,Rengsjö,,Gävleborg,SE,61.362768,16.614325,ardac,26.4,True,61.2699,17.3628
SE1156,Repbäcken,,Dalarna,SE,60.515794,15.344262,ardac,102.9,False,60.6976,17.0841
SE1157,Resarö,,Stockholm,SE,59.430784,18.333296,ardac,2.5,True,59.368,18.4295
SE1158,Revingeby,,Skåne,SE,55.72582,13.459653,ardac,25.7,True,55.5025,13.8155
SE1159,Riala,,Stockholm,SE,59.631719,18.517372,ardac,7.9,True,59.5688,18.6137
SE1160,Riddarhyttan,,Västmanland,SE,59.808647,15.538597,ardac,133.0,False,60.4551,17.3448
SE1161,Rimbo,,Stockholm,SE,59.745319,18.360176,ardac,20.9,True,59.6635,18.763
SE1162,Rimforsa,,Östergötland,SE,58.137829,15.676202,ardac,51.2,True,58.0361,16.6532
SE1163,Rindö,,Stockholm,SE,59.40183,18.372286,ardac,2.1,True,59.339,18.4683
SE1164,Ringarum,,Östergötland,SE,58.333783,16.44443,ardac,11.2,True,58.2723,16.541
SE1165,Rinkabyholm,,Kalmar,SE,56.654593,16.261189,ardac,0.2,True,56.5933,16.354
SE1166,Rinkaby,,Skåne,SE,55.982144,14.273104,ardac,5.6,True,55.9125,14.645
SE1167,Risby,,Västra Götaland,SE,57.894495,11.850962,ardac,5.5,True,57.8404,11.6615
SE1168,Rishammar,,Västra Götaland,SE,57.906184,11.936017,ardac,10.4,True,57.6958,11.739
SE1169,Risögrund,,Norrbotten,SE,65.810747,23.244968,ardac,1.4,True,65.7139,23.7198
SE1170,Robertsfors,,Västerbotten,SE,64.193285,20.854274,ardac,7.4,True,64.1036,21.3103
SE1171,Robertsholm,,Gävleborg,SE,60.57075,16.270978,ardac,51.9,True,60.6355,17.0357
SE1172,Rockhammar,,Örebro,SE,59.528885,15.449055,ardac,105.9,False,58.7763,16.9492
SE1173,Rockneby,,Kalmar,SE,56.804297,16.349063,ardac,3.6,True,56.5873,16.4159
SE1174,Roknäs,,Norrbotten,SE,65.349932,21.178993,ardac,4.3,True,65.2591,21.6529
SE1175,Rolfs,,Norrbotten,SE,65.846276,23.12437,ardac,4.0,True,65.7498,23.6002
SE1176,Rolfstorp,,Halland,SE,57.145253,12.45987,ardac,14.0,True,56.9357,12.264
SE1177,Romakloster,,Gotland,SE,57.507393,18.450613,ardac,18.6,True,57.6181,18.289
SE1178,Romme,,Dalarna,SE,60.442504,15.482722,ardac,97.6,True,60.6226,17.2195
SE1179,Ronnebyhamn,,Blekinge,SE,56.174054,15.292186,ardac,1.2,True,56.1135,15.3854
SE1180,Ronneby,,Blekinge,SE,56.210041,15.276035,ardac,2.7,True,56.1495,15.3693
SE1181,Rosenfors,,Kalmar,SE,57.362821,15.839269,ardac,39.2,True,57.4303,16.536
SE1182,Rosenlund,,Västra Götaland,SE,57.526661,13.344477,ardac,75.7,True,57.5012,11.707
SE1183,Rosersberg,,Stockholm,SE,59.581732,17.888175,ardac,19.1,True,59.346,18.2529
SE1184,Rossön,,Jämtland,SE,63.928714,16.314311,ardac,125.1,False,63.1445,18.3451
SE1185,Rosvik,,Norrbotten,SE,65.426626,21.692732,ardac,1.5,True,65.3612,21.8007
SE1186,Roteberg,,Gävleborg,SE,61.394776,15.838278,ardac,67.8,True,61.2752,17.2334
SE1187,Rottneros,,Värmland,SE,59.796396,13.109385,ardac,125.4,False,59.3008,11.0413
SE1188,Rottne,,Kronoberg,SE,57.021676,14.8921,ardac,93.0,True,56.1817,14.8876
SE1189,Rot,,Dalarna,SE,61.256161,14.038113,ardac,164.6,False,61.0848,17.0359
SE1190,Ruda,,Östergötland,SE,58.98194,15.863871,ardac,40.9,True,58.8632,17.163
SE1191,Rud,,Jönköping,SE,57.786236,13.865392,ardac,113.6,False,57.7717,11.9241
SE1192,Rundvik,,Västerbotten,SE,63.541151,19.440203,ardac,0.3,True,63.4983,19.2022
SE1193,Runemo,,Gävleborg,SE,61.355796,16.143664,ardac,51.4,True,61.2497,17.2148
SE1194,Runtuna,,Södermanland,SE,58.872985,17.07443,ardac,12.1,True,58.8265,16.8722
SE1195,Rusksele,,Västerbotten,SE,64.815066,18.899262,ardac,102.0,False,64.9251,21.2884
SE1196,Rutvik,,Norrbotten,SE,65.670178,22.08985,ardac,5.0,True,65.4502,22.1269
SE1197,Rya,,Västra Götaland,SE,58.05637,13.332731,ardac,87.0,True,57.714,11.9487
SE1198,Rydaholm,,Jönköping,SE,56.987188,14.309857,ardac,94.8,True,56.2831,14.8957
SE1199,Ryd,,Västra Götaland,SE,58.220865,13.372489,ardac,87.3,True,58.1957,11.7037
SE1200,Rydal,,Västra Götaland,SE,57.556172,12.693667,ardac,39.1,True,57.5129,11.9253
SE1201,Rydboholm,,Västra Götaland,SE,57.654335,12.884362,ardac,54.0,True,57.6165,11.8231
SE1202,Rydbo,,Stockholm,SE,59.463626,18.185024,ardac,0.6,True,59.4009,18.2815
SE1203,Rydebäck,,Skåne,SE,55.966444,12.780677,ardac,1.0,True,55.9077,12.8772
SE1204,Ryd,,Västra Götaland,SE,58.220865,13.372489,ardac,87.3,True,58.1957,11.7037
SE1205,Rydsgård,,Skåne,SE,55.470789,13.58829,ardac,6.4,True,55.2554,13.6681
SE1206,Rydsnäs,,Östergötland,SE,57.800021,15.146572,ardac,76.3,True,57.8442,16.4336
SE1207,Ryd,,Västra Götaland,SE,58.220865,13.372489,ardac,87.3,True,58.1957,11.7037
SE1208,Rydöbruk,,Halland,SE,56.960859,13.143345,ardac,36.7,True,56.7585,12.6607
SE1209,Ryssby,,Kronoberg,SE,56.864492,14.167912,ardac,82.4,True,56.1611,14.7546
SE1210,Råby,,Uppsala,SE,59.897716,17.675591,ardac,52.8,True,60.1102,18.4667
SE1211,Råda,,Värmland,SE,60.005367,13.597393,ardac,159.9,False,59.3657,10.8923
SE1212,Råneå,,Norrbotten,SE,65.856088,22.289997,ardac,2.7,True,65.7619,22.7689
SE1213,Rångedala,,Västra Götaland,SE,57.793019,13.125345,ardac,72.3,True,57.7613,11.7681
SE1214,Rånnaväg,,Västra Götaland,SE,57.676743,13.465877,ardac,87.1,True,57.6528,11.8216
SE1215,Rånäs,,Stockholm,SE,59.803183,18.301225,ardac,24.7,True,59.7215,18.7049
SE1216,Råtorp,,Värmland,SE,59.410535,13.487439,ardac,125.4,False,59.2365,11.1456
SE1217,Rälla,,Kalmar,SE,56.774459,16.571886,ardac,6.1,True,56.8685,16.6918
SE1218,Ränneslöv,,Halland,SE,56.453316,13.076352,ardac,10.3,True,56.4069,12.611
SE1219,Rätan,,Jämtland,SE,62.472121,14.557917,ardac,143.5,False,62.3049,17.3375
SE1220,Rättarboda,,Stockholm,SE,59.500988,17.604074,ardac,25.2,True,59.4035,18.3096
SE1221,Rättvik,,Dalarna,SE,60.883754,15.122678,ardac,110.9,False,60.7411,17.1321
SE1222,Rävemåla,,Kronoberg,SE,56.556264,15.264463,ardac,41.0,True,56.4711,15.9213
SE1223,Rävlanda,,Västra Götaland,SE,57.655551,12.499865,ardac,34.3,True,57.6112,11.7297
SE1224,Röbäck,,Västerbotten,SE,63.809335,20.187522,ardac,9.2,True,63.745,20.2931
SE1225,Röda holme,,Halland,SE,57.376334,11.991584,ardac,1.1,True,57.3224,11.8046
SE1226,Rödeby,,Blekinge,SE,56.257432,15.618547,ardac,5.8,True,56.1966,15.7114
SE1227,Rödån,,Västerbotten,SE,64.116237,20.006266,ardac,41.0,True,63.8741,20.4069
SE1228,Röke,,Skåne,SE,56.235947,13.522654,ardac,42.9,True,56.0413,12.7685
SE1229,Rönneshytta,,Örebro,SE,58.923791,15.03931,ardac,73.6,True,58.3317,16.5518
SE1230,Rönnäng,,Västra Götaland,SE,57.937715,11.585986,ardac,0.4,True,57.8798,11.6895
SE1231,Rörvik,,Halland,SE,57.417842,11.939965,ardac,1.6,True,57.3638,11.7528
SE1232,Rörö,,Västra Götaland,SE,57.781185,11.605982,ardac,7.1,True,57.7233,11.709
SE1233,Röstånga,,Skåne,SE,56.000698,13.291218,ardac,29.4,True,55.9551,12.831
SE1234,Sala,,Västmanland,SE,59.920226,16.605644,ardac,87.3,True,60.4499,17.4598
SE1235,Salbohed,,Västmanland,SE,59.911787,16.349275,ardac,96.0,True,60.5987,17.2331
SE1236,Saleby,,Västra Götaland,SE,58.140254,13.603637,ardac,101.4,False,57.6489,11.9137
SE1237,Saltsjöbaden,,Stockholm,SE,59.279277,18.304929,ardac,0.7,True,59.2165,18.4007
SE1238,Sandared,,Västra Götaland,SE,57.710057,12.793982,ardac,52.0,True,57.6715,11.7312
SE1239,Sandarne,,Gävleborg,SE,61.259492,17.163533,ardac,2.0,True,61.1974,17.2671
SE1240,Sandhem,,Västra Götaland,SE,58.012698,13.499449,ardac,97.7,True,57.6764,11.8245
SE1241,Sandhult,,Västra Götaland,SE,57.769562,12.820944,ardac,54.0,True,57.7312,11.7565
SE1242,Sandskogen,,Skåne,SE,55.762881,12.982192,ardac,2.1,True,55.8666,12.8127
SE1243,Sandslån,,Västernorrland,SE,62.309973,17.380728,ardac,2.1,True,62.2476,17.4872
SE1244,Sandviken,,Gävleborg,SE,60.619422,16.783333,ardac,23.5,True,60.6977,17.2344
SE1245,Sandviken,,Stockholm,SE,59.183333,17.633333,ardac,2.2,True,59.1037,18.0314
SE1246,Sangis,,Norrbotten,SE,65.855789,23.495749,ardac,2.4,True,65.7582,23.9705
SE1247,Sankt Olof,,Skåne,SE,55.636693,14.129242,ardac,8.9,True,55.577,14.223
SE1248,Saxdalen,,Dalarna,SE,60.150877,14.97622,ardac,135.8,False,60.6335,17.0739
SE1249,Saxnäs,,Kalmar,SE,56.686651,16.491955,ardac,6.0,True,56.6392,16.3023
SE1250,Saxtorpsskogen,,Skåne,SE,55.828988,12.942142,ardac,1.2,True,55.7764,12.7613
SE1251,Segersta,,Gävleborg,SE,61.266693,16.645052,ardac,24.8,True,61.1896,17.0706
SE1252,Segersäng,,Stockholm,SE,59.02702,17.929652,ardac,4.4,True,58.9645,18.0255
SE1253,Segmon,,Värmland,SE,59.274787,13.042653,ardac,97.0,True,59.2479,11.0198
SE1254,Selja,,Dalarna,SE,61.017549,14.471227,ardac,145.1,False,60.6981,17.0934
SE1255,Selånger,,Västernorrland,SE,62.404767,17.126484,ardac,10.9,True,62.3262,17.5662
SE1256,Sennan,,Halland,SE,56.77414,12.979098,ardac,15.3,True,56.7274,12.51
SE1257,Seskarö,,Norrbotten,SE,65.726458,23.731355,ardac,1.6,True,65.6597,23.8354
SE1258,Sexdrega,,Västra Götaland,SE,57.576853,13.117921,ardac,63.9,True,57.5451,11.7686
SE1259,Sibbhult,,Skåne,SE,56.269404,14.195023,ardac,31.7,True,56.1897,14.8492
SE1260,Sibble,,Stockholm,SE,59.112867,17.744928,ardac,0.7,True,59.0505,17.8413
SE1261,Sibo,,Gävleborg,SE,61.214991,16.602652,ardac,28.7,True,61.1222,17.3478
SE1262,Sidensjö,,Västernorrland,SE,63.277804,18.076399,ardac,27.1,True,63.1963,18.5264
SE1263,Sifferbo,,Dalarna,SE,60.557505,15.222898,ardac,108.7,False,60.7407,16.9643
SE1264,Sigtuna,,Stockholm,SE,59.61652,17.72363,ardac,28.3,True,59.3631,18.3932
SE1265,Siljansnäs,,Dalarna,SE,60.775392,14.857697,ardac,126.7,False,60.621,17.1771
SE1266,Silverdalen,,Kalmar,SE,57.543427,15.747964,ardac,46.0,True,57.4557,16.4209
SE1267,Simlångsdalen,,Halland,SE,56.720464,13.126037,ardac,17.4,True,56.8305,12.6683
SE1268,Simonstorp,,Östergötland,SE,58.786108,16.154592,ardac,13.8,True,58.8517,16.88
SE1269,Simrishamn,,Skåne,SE,55.556554,14.34999,ardac,0.9,True,55.4967,14.4432
SE1270,Sjuhalla,,Blekinge,SE,56.188899,15.56228,ardac,1.6,True,56.1281,15.6551
SE1271,Sjulsmark,,Norrbotten,SE,65.519859,21.49157,ardac,12.2,True,65.4545,21.6004
SE1272,Sjunnen,,Jönköping,SE,57.435987,15.172909,ardac,80.1,True,57.4801,16.4473
SE1273,Sjunnerup,,Skåne,SE,56.105694,12.726249,ardac,6.3,True,56.047,12.8232
SE1274,Sjuntorp,,Västra Götaland,SE,58.18823,12.226877,ardac,20.1,True,58.1423,11.4458
SE1275,Själsö,,Gotland,SE,57.695914,18.360332,ardac,3.3,True,57.6513,18.163
SE1276,Sjöbo,,Skåne,SE,55.635086,13.703116,ardac,23.6,True,55.4111,14.0568
SE1277,Sjögestad,,Östergötland,SE,58.361545,15.369854,ardac,55.7,True,58.4034,16.6772
SE1278,Sjörröd,,Skåne,SE,56.282589,13.915975,ardac,44.8,True,55.8924,14.5346
SE1279,Sjösa,,Södermanland,SE,58.776571,17.086447,ardac,1.3,True,58.7301,16.8847
SE1280,Sjöskogen och Strand,,Västra Götaland,SE,58.286712,11.830503,ardac,1.4,True,58.2326,11.639
SE1281,Sjötorp,,Västra Götaland,SE,58.837351,13.980023,ardac,129.6,False,58.2027,11.6516
SE1282,Sjövik,,Västra Götaland,SE,57.915932,12.370609,ardac,35.6,True,57.7106,11.8797
SE1283,Skanör med Falsterbo,,Skåne,SE,55.406007,12.844342,ardac,1.2,True,55.3472,12.9394
SE1284,Skara,,Västra Götaland,SE,58.384607,13.439767,ardac,91.5,True,58.2073,11.4604
SE1285,Skarpö,,Stockholm,SE,59.395874,18.976177,ardac,1.9,True,59.3326,19.0711
SE1286,Skattkärr,,Värmland,SE,59.417686,13.677096,ardac,136.0,False,59.2494,11.0295
SE1287,Skattungbyn,,Dalarna,SE,61.185738,14.848198,ardac,121.8,False,61.1868,17.2316
SE1288,Skavkulla och Skillingenäs,,Blekinge,SE,56.178442,15.518659,ardac,1.5,True,56.1177,15.6115
SE1289,Skebobruk,,Stockholm,SE,59.968548,18.612015,ardac,11.1,True,60.0607,18.7494
SE1290,Skebokvarn,,Södermanland,SE,59.061482,16.708105,ardac,39.2,True,58.829,17.0754
SE1291,Skedala,,Halland,SE,56.693218,12.973859,ardac,7.9,True,56.8027,12.516
SE1292,Skeda udde,,Östergötland,SE,58.291674,15.559967,ardac,52.0,True,58.3464,16.5697
SE1293,Skede,,Västernorrland,SE,63.250541,19.004406,ardac,2.2,True,63.1664,19.4514
SE1294,Skedvi kyrkby,,Dalarna,SE,60.403368,15.81279,ardac,81.9,True,60.6114,16.9193
SE1295,Skee,,Västra Götaland,SE,58.924422,11.268152,ardac,4.1,True,58.8695,11.0741
SE1296,Skegrie,,Skåne,SE,55.406315,13.082367,ardac,3.1,True,55.3474,13.1771
SE1297,Skelleftehamn,,Västerbotten,SE,64.687603,21.236392,ardac,0.8,True,64.6225,21.3427
SE1298,Skellefteå,,Västerbotten,SE,64.742143,20.971923,ardac,7.2,True,64.8319,21.1416
SE1299,Skepplanda,,Västra Götaland,SE,57.982574,12.212476,ardac,24.8,True,57.7767,11.7216
SE1300,Skeppshult,,Jönköping,SE,57.126356,13.361951,ardac,57.5,True,56.7745,12.5802
SE1301,Skeppsvik,,Västerbotten,SE,63.799265,20.57891,ardac,0.7,True,63.7347,20.6836
SE1302,Skiftinge,,Södermanland,SE,59.389915,16.538067,ardac,68.7,True,58.8312,17.148
SE1303,Skillingaryd,,Jönköping,SE,57.428947,14.091985,ardac,112.9,False,56.7821,12.7019
SE1304,Skillinge,,Skåne,SE,55.475713,14.279918,ardac,0.8,True,55.4159,14.3731
SE1305,Skinnskatteberg,,Västmanland,SE,59.792577,15.745683,ardac,127.5,False,60.4527,17.2415
SE1306,Skivarp,,Skåne,SE,55.42463,13.569718,ardac,3.4,True,55.3653,13.6638
SE1307,Skoby,,Uppsala,SE,60.033424,18.029507,ardac,28.0,True,60.1078,18.4756
SE1308,Skoghall,,Värmland,SE,59.324185,13.470522,ardac,122.0,False,59.3063,11.1396
SE1309,Skogsby,,Södermanland,SE,58.785863,16.319955,ardac,13.9,True,58.8506,17.0457
SE1310,Skottorp,,Halland,SE,56.450007,12.961617,ardac,4.0,True,56.4032,12.4965
SE1311,Skrea,,Halland,SE,56.883355,12.558435,ardac,3.2,True,56.8248,12.6576
SE1312,Skruv,,Kronoberg,SE,57.158718,15.164831,ardac,78.2,True,57.3586,16.4566
SE1313,Skultorp,,Västra Götaland,SE,58.341621,13.82799,ardac,114.1,False,58.1738,11.5538
SE1314,Skultuna,,Västmanland,SE,59.721776,16.428147,ardac,93.4,True,58.8522,16.9829
SE1315,Skumparp,,Skåne,SE,55.538813,12.966722,ardac,3.2,True,55.4799,13.0619
SE1316,Skurup,,Skåne,SE,55.483927,13.501464,ardac,10.4,True,55.2685,13.5818
SE1317,Skutskär,,Uppsala,SE,60.635222,17.409286,ardac,0.4,True,60.573,17.5105
SE1318,Skyttorp,,Uppsala,SE,60.080892,17.735795,ardac,38.8,True,60.3115,18.22
SE1319,Skålö,,Dalarna,SE,60.563861,14.301572,ardac,158.9,False,60.7151,16.988
SE1320,Skånes-Fagerhult,,Skåne,SE,56.370506,13.46517,ardac,36.0,True,56.488,12.7306
SE1321,Skåne-Tranås,,Skåne,SE,55.614047,13.993737,ardac,17.0,True,55.5544,14.0876
SE1322,Skåpafors,,Västra Götaland,SE,59.022839,12.289002,ardac,49.1,True,58.9824,10.8856
SE1323,Skåre,,Skåne,SE,55.377133,13.050329,ardac,0.8,True,55.3182,13.1451
SE1324,Skällinge,,Halland,SE,57.182168,12.468343,ardac,15.7,True,56.9726,12.2722
SE1325,Skänninge,,Östergötland,SE,58.39558,15.08677,ardac,68.7,True,58.2702,16.6622
SE1326,Skärblacka,,Östergötland,SE,58.575892,15.923,ardac,16.0,True,58.3314,16.586
SE1327,Skärhamn,,Västra Götaland,SE,57.990922,11.549795,ardac,1.3,True,57.9331,11.6535
SE1328,Skärplinge,,Uppsala,SE,60.474156,17.762776,ardac,3.0,True,60.5671,17.9
SE1329,Skärstad,,Jönköping,SE,57.888091,14.364036,ardac,122.0,False,57.8999,16.5295
SE1330,Sköldinge,,Södermanland,SE,59.031551,16.445463,ardac,42.1,True,58.7844,17.1132
SE1331,Sköllersta,,Örebro,SE,59.137692,15.337695,ardac,73.6,True,58.8534,16.9145
SE1332,Skölsta,,Uppsala,SE,59.876284,17.748717,ardac,51.2,True,60.0884,18.5398
SE1333,Skörby,,Uppsala,SE,59.567537,17.483612,ardac,34.7,True,59.2971,18.4568
SE1334,Skövde,,Västra Götaland,SE,58.389845,13.844379,ardac,115.2,False,58.2223,11.5671
SE1335,Slaka,,Östergötland,SE,58.359696,15.553717,ardac,47.1,True,58.4145,16.5654
SE1336,Slite,,Gotland,SE,57.70722,18.801919,ardac,0.6,True,57.6441,18.893
SE1337,Slite norra,,Gotland,SE,57.70722,18.801919,ardac,0.6,True,57.6441,18.893
SE1338,Slottsbron,,Värmland,SE,59.323821,13.104132,ardac,101.8,False,59.2978,11.0784
SE1339,Slottsskogen,,Västra Götaland,SE,57.687282,11.940638,ardac,1.9,True,57.6333,11.7521
SE1340,Slätthult,,Skåne,SE,55.996056,13.872717,ardac,27.1,True,55.7715,14.2286
SE1341,Slöinge,,Halland,SE,56.855134,12.690862,ardac,6.8,True,56.7964,12.7897
SE1342,Smedby,,Dalarna,SE,60.693638,15.05284,ardac,116.8,False,60.7078,17.0845
SE1343,Smedjebacken,,Dalarna,SE,60.141496,15.415104,ardac,115.1,False,60.6339,17.2032
SE1344,Smedseröd,,Västra Götaland,SE,58.36543,11.807151,ardac,3.5,True,58.1548,11.6083
SE1345,Smedstorp,,Skåne,SE,55.550375,14.116682,ardac,13.3,True,55.4906,14.2102
SE1346,Smygehamn,,Skåne,SE,55.346446,13.374123,ardac,0.5,True,55.2945,13.1949
SE1347,Smålandsstenar,,Jönköping,SE,57.162696,13.411558,ardac,62.4,True,56.8111,12.6286
SE1348,Smögen,,Västra Götaland,SE,58.353644,11.226118,ardac,0.4,True,58.296,11.3313
SE1349,Snogeröd,,Skåne,SE,55.838666,13.494158,ardac,31.9,True,55.7626,14.1426
SE1350,Snöveltorp,,Östergötland,SE,58.500942,16.161604,ardac,13.8,True,58.4256,16.5553
SE1351,Solberga,,Västra Götaland,SE,57.940833,11.810833,ardac,3.0,True,57.8867,11.6212
SE1352,Solberga,,Jönköping,SE,57.733333,14.75,ardac,100.9,False,57.5981,16.5879
SE1353,Solberga,,Stockholm,SE,59.495278,18.356389,ardac,2.5,True,59.4135,18.7564
SE1354,Sollebrunn,,Västra Götaland,SE,58.119999,12.533111,ardac,39.4,True,57.7631,11.7381
SE1355,Sollefteå norra,,Västernorrland,SE,63.168023,17.265447,ardac,29.2,True,62.7601,17.973
SE1356,Sollefteå,,Västernorrland,SE,63.168023,17.265447,ardac,29.2,True,62.7601,17.973
SE1357,Sollerön,,Dalarna,SE,60.913298,14.61574,ardac,138.2,False,60.7627,16.946
SE1358,Solvarbo,,Dalarna,SE,60.39024,15.670833,ardac,89.7,True,60.7397,17.1247
SE1359,Sommen,,Östergötland,SE,58.015502,15.21285,ardac,72.8,True,57.9033,16.4798
SE1360,Sonstorp,,Östergötland,SE,58.72462,15.634397,ardac,33.2,True,58.3117,16.5699
SE1361,Sorsele,,Västerbotten,SE,65.533066,17.536874,ardac,175.5,False,64.7928,21.1414
SE1362,Sorunda,,Stockholm,SE,59.014384,17.82105,ardac,3.9,True,58.9519,17.917
SE1363,Sparreholm,,Södermanland,SE,59.07163,16.829298,ardac,37.3,True,58.8542,16.8965
SE1364,Spekeröd,,Västra Götaland,SE,58.032826,11.870128,ardac,4.0,True,57.9787,11.6799
SE1365,Spillersboda,,Stockholm,SE,59.702861,18.85637,ardac,1.1,True,59.6397,18.9523
SE1366,Spjutsbygd,,Blekinge,SE,56.31133,15.595431,ardac,11.4,True,56.2505,15.6885
SE1367,Spjutstorp,,Skåne,SE,55.579951,14.014554,ardac,17.2,True,55.5203,14.1083
SE1368,Spångsholm,,Östergötland,SE,58.352508,15.236179,ardac,62.9,True,58.3957,16.5431
SE1369,Spånlöt,,Stockholm,SE,59.572133,18.289962,ardac,10.6,True,59.3541,18.3488
SE1370,Staffanstorp,,Skåne,SE,55.642739,13.211399,ardac,9.9,True,55.4344,13.0192
SE1371,Stallarholmen,,Södermanland,SE,59.361279,17.207143,ardac,33.6,True,58.9719,17.5405
SE1372,Stare,,Västra Götaland,SE,58.917855,11.207555,ardac,0.8,True,58.8628,11.0136
SE1373,Stava,,Östergötland,SE,58.130147,14.567888,ardac,109.3,False,57.9972,16.4264
SE1374,Stavreviken,,Västernorrland,SE,62.553498,17.409703,ardac,1.6,True,62.3354,17.4787
SE1375,Stavsjö,,Södermanland,SE,58.723851,16.41834,ardac,8.5,True,58.788,17.143
SE1376,Stavsnäs,,Stockholm,SE,59.288201,18.691782,ardac,1.4,True,59.2251,18.7869
SE1377,Stehag,,Skåne,SE,55.903151,13.393866,ardac,30.3,True,55.8579,12.9347
SE1378,Stenared,,Västra Götaland,SE,57.805243,12.189724,ardac,19.5,True,57.7557,11.7086
SE1379,Stenhamra,,Stockholm,SE,59.334749,17.687364,ardac,18.5,True,59.0996,18.0509
SE1380,Steninge,,Halland,SE,56.764323,12.634688,ardac,2.0,True,56.7057,12.7334
SE1381,Steningehöjden,,Stockholm,SE,59.62146,17.796332,ardac,25.9,True,59.3677,18.4654
SE1382,Stenis,,Dalarna,SE,60.948277,14.461244,ardac,146.5,False,60.6291,17.078
SE1383,Stensele,,Västerbotten,SE,65.067883,17.147755,ardac,186.8,False,64.9565,20.9468
SE1384,Stensjön,,Jönköping,SE,57.581899,14.820178,ardac,101.2,False,57.46,16.3621
SE1385,Stenstorp,,Västra Götaland,SE,58.271317,13.713327,ardac,107.4,False,57.7854,11.7238
SE1386,Stenungsund,,Västra Götaland,SE,58.061063,11.908631,ardac,6.7,True,58.0105,11.4245
SE1387,Stenungsön,,Västra Götaland,SE,58.066934,11.800581,ardac,1.1,True,58.0127,11.6103
SE1388,Stenåsen,,Västra Götaland,SE,58.432234,13.584021,ardac,100.3,False,58.2571,11.6012
SE1389,Sticklinge udde,,Stockholm,SE,59.390487,18.090382,ardac,1.1,True,59.3095,18.4898
SE1390,Stigen,,Västra Götaland,SE,58.300669,12.066645,ardac,11.4,True,58.2506,11.5791
SE1391,Stigtomta,,Södermanland,SE,58.802763,16.785344,ardac,15.2,True,58.741,16.8826
SE1392,Stilleryd,,Blekinge,SE,56.173149,14.819885,ardac,2.0,True,56.1129,14.9138
SE1393,Stjärnhov,,Södermanland,SE,59.080099,17.013662,ardac,32.4,True,58.8626,17.0798
SE1394,Stoby,,Skåne,SE,56.175596,13.827924,ardac,40.7,True,55.7952,14.1691
SE1395,Stockamöllan,,Skåne,SE,55.94569,13.373799,ardac,30.6,True,55.9004,12.9141
SE1396,Stocka,,Gävleborg,SE,61.898199,17.333013,ardac,1.6,True,61.8359,17.4382
SE1397,Stockaryd,,Jönköping,SE,57.319595,14.591119,ardac,113.4,False,57.3425,16.4362
SE1398,Stockholm,,Stockholm,SE,59.325117,18.071093,ardac,1.4,True,59.2442,18.4698
SE1399,Stockvik,,Västernorrland,SE,62.347803,17.364835,ardac,0.6,True,62.2855,17.4715
SE1400,Stora Bugärde,,Västra Götaland,SE,57.653878,12.397367,ardac,28.8,True,57.605,11.9179
SE1401,Stora Dyrön,,Västra Götaland,SE,57.928828,11.611827,ardac,1.3,True,57.8744,11.4226
SE1402,Stora Herrestad,,Skåne,SE,55.474891,13.874225,ardac,4.7,True,55.4153,13.968
SE1403,Stora Höga,,Västra Götaland,SE,58.014335,11.828449,ardac,1.9,True,57.9602,11.6384
SE1404,Stora Levene,,Västra Götaland,SE,58.325517,12.923582,ardac,61.1,True,58.1353,11.5399
SE1405,Stora Mellby,,Västra Götaland,SE,58.141468,12.579785,ardac,41.5,True,57.7848,11.7839
SE1406,Stora Mellösa,,Örebro,SE,59.210613,15.49755,ardac,73.8,True,58.7689,17.0451
SE1407,Stora Rör,,Kalmar,SE,56.756756,16.527238,ardac,4.0,True,56.7094,16.3372
SE1408,Stora Vika,,Stockholm,SE,58.955646,17.785737,ardac,0.2,True,58.8932,17.8816
SE1409,Storebro,,Blekinge,SE,56.150783,15.3818,ardac,0.7,True,56.0901,15.4748
SE1410,Storfors,,Värmland,SE,59.463157,14.277864,ardac,143.2,False,58.8226,17.0243
SE1411,Storuman,,Västerbotten,SE,65.443959,15.832388,ardac,121.2,False,65.7835,12.6423
SE1412,Storvik,,Gävleborg,SE,60.582853,16.525365,ardac,38.2,True,60.6619,16.9753
SE1413,Storvreta,,Uppsala,SE,59.956938,17.704209,ardac,47.6,True,60.1693,18.4969
SE1414,Storå,,Örebro,SE,59.7136,15.135533,ardac,132.3,False,58.7937,16.9198
SE1415,Striberg,,Örebro,SE,59.545432,14.941675,ardac,122.7,False,58.7686,17.0512
SE1416,Strålsnäs,,Östergötland,SE,58.237724,15.091668,ardac,76.9,True,58.268,16.6891
SE1417,Strångsjö,,Södermanland,SE,58.90536,16.199816,ardac,26.3,True,58.8151,16.8972
SE1418,Stråssa,,Örebro,SE,59.739452,15.20154,ardac,133.1,False,58.8187,16.9853
SE1419,Strängnäs,,Södermanland,SE,59.349601,17.081336,ardac,38.7,True,58.944,17.7161
SE1420,Strömma,,Västra Götaland,SE,57.564189,12.457947,ardac,26.6,True,57.5196,11.6897
SE1421,Strömsbruk,,Gävleborg,SE,61.8699,17.317171,ardac,1.4,True,61.8076,17.4223
SE1422,Strömsholm,,Västmanland,SE,59.523741,16.248736,ardac,89.7,True,58.7953,17.1342
SE1423,Strömsnäsbruk,,Kronoberg,SE,56.552468,13.731973,ardac,48.9,True,56.5214,12.7004
SE1424,Strömstad,,Västra Götaland,SE,58.93815,11.17873,ardac,2.0,True,58.8831,10.9847
SE1425,Strömsund,,Jämtland,SE,63.851666,15.558235,ardac,143.8,False,63.1974,18.3277
SE1426,Strövelstorp,,Skåne,SE,56.166109,12.837575,ardac,7.3,True,55.9511,12.9228
SE1427,Stugun,,Jämtland,SE,63.169262,15.612287,ardac,107.5,False,62.3951,17.6118
SE1428,Sturefors,,Östergötland,SE,58.33674,15.721157,ardac,42.0,True,58.3903,16.7324
SE1429,Sturkö,,Blekinge,SE,56.098674,15.664782,ardac,1.3,True,56.0378,15.7572
SE1430,Styrsö,,Västra Götaland,SE,57.609428,11.782149,ardac,4.8,True,57.5514,11.8844
SE1431,Stånga,,Gotland,SE,57.281454,18.471394,ardac,9.8,True,57.1996,18.8477
SE1432,Stångby,,Skåne,SE,55.749279,13.19478,ardac,10.7,True,55.5409,13.0021
SE1433,Ställdalen,,Örebro,SE,59.934554,14.945443,ardac,149.7,False,60.7291,17.0956
SE1434,Stöcke,,Västerbotten,SE,63.742559,20.231426,ardac,2.9,True,63.6782,20.3367
SE1435,Stöcksjö,,Västerbotten,SE,63.779389,20.195725,ardac,6.8,True,63.715,20.3012
SE1436,Stöde,,Västernorrland,SE,62.417776,16.578272,ardac,39.4,True,62.3248,17.3521
SE1437,Stöllet,,Värmland,SE,60.410045,13.26975,ardac,151.6,False,59.2905,11.1408
SE1438,Stöpen,,Västra Götaland,SE,58.478527,13.86672,ardac,117.3,False,58.1549,11.5768
SE1439,Sulvik,,Värmland,SE,59.67827,12.415219,ardac,87.5,True,59.326,10.976
SE1440,Sundborn,,Dalarna,SE,60.654176,15.78132,ardac,77.1,True,60.6912,17.1794
SE1441,Sundby,,Stockholm,SE,59.288476,17.719274,ardac,13.7,True,59.0533,18.0822
SE1442,Sundbyholm,,Södermanland,SE,59.438272,16.619871,ardac,66.5,True,58.7391,16.8991
SE1443,Sundom,,Norrbotten,SE,65.77213,22.264301,ardac,1.6,True,65.6781,22.7419
SE1444,Sundsvall,,Västernorrland,SE,62.390755,17.307102,ardac,2.1,True,62.3285,17.414
SE1445,Sund,,Jönköping,SE,57.777477,14.596108,ardac,109.1,False,57.6443,16.4368
SE1446,Sunnansjö,,Dalarna,SE,60.221459,14.960771,ardac,133.2,False,60.7043,17.0627
SE1447,Sunnemo,,Värmland,SE,59.884283,13.722264,ardac,159.3,False,59.2471,11.0243
SE1448,Sunne,,Värmland,SE,59.890765,13.045421,ardac,128.5,False,59.2377,10.9683
SE1449,Surahammar,,Västmanland,SE,59.707058,16.221994,ardac,101.5,False,58.8231,17.0809
SE1450,Surte,,Västra Götaland,SE,57.826762,12.016163,ardac,13.1,True,57.7729,11.8268
SE1451,Svalsta,,Södermanland,SE,58.743096,16.875131,ardac,8.7,True,58.8369,17.0028
SE1452,Svalöv,,Skåne,SE,55.913651,13.106982,ardac,14.4,True,55.8613,12.9255
SE1453,Svanberga,,Stockholm,SE,59.840363,18.662935,ardac,7.5,True,59.7773,18.7596
SE1454,Svanesund,,Västra Götaland,SE,58.143036,11.819062,ardac,0.3,True,58.0889,11.6284
SE1455,Svanskog/Svaneholm,,Värmland,SE,59.179793,12.550962,ardac,67.0,True,59.142,11.1409
SE1456,Svappavaara,,Norrbotten,SE,67.646923,21.055485,ardac,158.5,False,68.2594,17.2883
SE1457,Svartbyn,,Norrbotten,SE,66.25963,22.820359,ardac,39.6,True,65.7313,22.7002
SE1458,Svartehallen,,Västra Götaland,SE,58.118234,11.95799,ardac,7.7,True,58.0678,11.473
SE1459,Svarte,,Skåne,SE,55.430931,13.715131,ardac,4.1,True,55.3715,13.809
SE1460,Svartudden,,Västra Götaland,SE,58.732952,11.172323,ardac,0.5,True,58.6779,10.9795
SE1461,Svartå,,Västerbotten,SE,65.029789,20.768065,ardac,23.7,True,64.7855,21.1745
SE1462,Svedala,,Skåne,SE,55.515242,13.238435,ardac,16.9,True,55.4631,13.0586
SE1463,Sveg,,Jämtland,SE,62.03607,14.359839,ardac,150.8,False,61.857,17.4295
SE1464,Svenljunga,,Västra Götaland,SE,57.496312,13.112259,ardac,61.4,True,56.9866,12.3155
SE1465,Svensbyn,,Norrbotten,SE,65.310331,21.234612,ardac,3.2,True,65.2193,21.7076
SE1466,Svenshögen,,Västra Götaland,SE,58.144643,11.938389,ardac,7.0,True,58.0941,11.4531
SE1467,Svenstavik,,Jämtland,SE,62.766806,14.432422,ardac,152.7,False,62.4294,17.5361
SE1468,Svenstorp,,Örebro,SE,59.112646,15.389159,ardac,69.5,True,58.8278,16.9645
SE1469,Svinninge,,Stockholm,SE,59.449483,18.283511,ardac,0.4,True,59.3867,18.3798
SE1470,Svängsta,,Blekinge,SE,56.26198,14.774798,ardac,10.5,True,56.2018,14.869
SE1471,Svärdsjö,,Dalarna,SE,60.742297,15.903846,ardac,70.4,True,60.6381,16.9559
SE1472,Svärtinge,,Östergötland,SE,58.650264,16.029186,ardac,8.9,True,58.4053,16.6928
SE1473,Sya,,Östergötland,SE,58.334732,15.223077,ardac,64.6,True,58.378,16.5293
SE1474,Sysslebäck,,Värmland,SE,60.730431,12.871173,ardac,150.0,False,59.2897,11.0333
SE1475,Sågmyra,,Dalarna,SE,60.7134,15.29654,ardac,103.5,False,60.7399,17.0132
SE1476,Säffle,,Värmland,SE,59.072789,13.163091,ardac,99.6,True,58.5755,11.435
SE1477,Sälen,,Dalarna,SE,61.155723,13.269408,ardac,197.3,False,61.1113,17.2537
SE1478,Sälgsjön,,Gävleborg,SE,60.617605,17.113604,ardac,9.2,True,60.7112,17.2496
SE1479,Särna,,Dalarna,SE,61.694181,13.143068,ardac,208.6,False,61.3406,17.1249
SE1480,Säter,,Dalarna,SE,60.414235,15.737297,ardac,85.3,True,60.6074,17.1589
SE1481,Sätila,,Västra Götaland,SE,57.541234,12.435089,ardac,24.3,True,57.4925,11.957
SE1482,Sätinge,,Halland,SE,57.4442,12.137018,ardac,3.7,True,57.3905,11.9495
SE1483,Sätra Brunn,,Västmanland,SE,59.862903,16.442051,ardac,97.9,True,60.5492,17.3264
SE1484,Sättra,,Stockholm,SE,59.620932,18.439134,ardac,10.0,True,59.5389,18.8403
SE1485,Sävar,,Västerbotten,SE,63.902075,20.552316,ardac,8.9,True,63.8375,20.6575
SE1486,Sävast,,Norrbotten,SE,65.761657,21.751024,ardac,3.8,True,65.3872,21.7226
SE1487,Säve,,Västra Götaland,SE,57.803487,11.911706,ardac,6.4,True,57.7494,11.7226
SE1488,Sävja,,Uppsala,SE,59.811622,17.700561,ardac,46.1,True,59.4031,18.3361
SE1489,Sävsjö,,Jönköping,SE,57.317287,14.612718,ardac,112.1,False,57.3399,16.4577
SE1490,Söderby,,Stockholm,SE,59.3825,17.585278,ardac,24.2,True,59.2851,18.2885
SE1491,Söderby-Karl,,Stockholm,SE,59.897693,18.69698,ardac,11.2,True,59.8346,18.7937
SE1492,Söderbärke,,Dalarna,SE,60.07301,15.564555,ardac,112.8,False,60.7351,17.0698
SE1493,Söderfors,,Uppsala,SE,60.388132,17.241258,ardac,26.0,True,60.4816,17.3766
SE1494,Söderhamn,,Gävleborg,SE,61.29985,17.060759,ardac,2.5,True,61.2378,17.1646
SE1495,Söderköping,,Östergötland,SE,58.48238,16.321622,ardac,5.3,True,58.4066,16.7148
SE1496,Söderskogen,,Uppsala,SE,59.676202,17.595891,ardac,38.0,True,59.4234,18.2675
SE1497,Södersvik,,Stockholm,SE,59.750116,18.915614,ardac,0.2,True,59.6869,19.0116
SE1498,Södertälje,,Stockholm,SE,59.196428,17.627166,ardac,3.6,True,58.9787,17.6897
SE1499,Söderåkra,,Kalmar,SE,56.446032,16.070616,ardac,3.1,True,56.3849,16.1632
SE1500,Södra Bredåker,,Norrbotten,SE,65.90102,21.321748,ardac,28.2,True,65.5006,21.6672
SE1501,Södra Sandby,,Kalmar,SE,56.567171,16.619985,ardac,1.3,True,56.5199,16.4308
SE1502,Södra Sunderbyn,,Norrbotten,SE,65.654162,21.953414,ardac,1.0,True,65.4342,21.9916
SE1503,Södra Vi,,Kalmar,SE,57.741455,15.796053,ardac,40.4,True,57.8091,16.4999
SE1504,Sölvesborg,,Blekinge,SE,56.050653,14.58719,ardac,0.8,True,55.9906,14.6812
SE1505,Sörforsa,,Gävleborg,SE,61.717887,16.96966,ardac,9.0,True,61.7955,17.4371
SE1506,Sörfors,,Västerbotten,SE,63.872978,20.036461,ardac,19.6,True,63.7857,20.4899
SE1507,Sörmjöle,,Västerbotten,SE,63.679946,20.002339,ardac,3.0,True,63.6157,20.1079
SE1508,Sörstafors,,Västmanland,SE,59.583061,16.210761,ardac,94.6,True,58.8548,17.0984
SE1509,Sörvik,,Dalarna,SE,60.186912,15.147367,ardac,125.5,False,60.6827,16.934
SE1510,Söråker,,Västernorrland,SE,62.504549,17.508612,ardac,1.4,True,62.4421,17.6155
SE1511,Sösdala,,Skåne,SE,56.04063,13.681493,ardac,39.9,True,56.0031,12.9419
SE1512,Sövde,,Skåne,SE,55.585031,13.673597,ardac,18.3,True,55.3695,13.7532
SE1513,Sövestad,,Skåne,SE,55.501399,13.79526,ardac,8.3,True,55.4419,13.8892
SE1514,Taberg,,Jönköping,SE,57.678947,14.091865,ardac,123.0,False,57.6722,11.865
SE1515,Tallboda,,Östergötland,SE,58.430858,15.68659,ardac,36.1,True,58.329,16.6714
SE1516,Tallvik,,Norrbotten,SE,66.33726,22.847685,ardac,48.3,True,65.6548,22.6519
SE1517,Tallåsen,,Örebro,SE,59.451989,14.771379,ardac,121.2,False,58.8334,16.9096
SE1518,Tandsbyn,,Jämtland,SE,63.000922,14.745313,ardac,144.7,False,62.3624,17.4564
SE1519,Tanumshede,,Västra Götaland,SE,58.721908,11.332385,ardac,6.8,True,58.667,11.1393
SE1520,Tavelsjö,,Västerbotten,SE,64.035882,20.050217,ardac,32.8,True,63.7937,20.4495
SE1521,Teckomatorp,,Skåne,SE,55.866539,13.090358,ardac,10.9,True,55.8142,12.9091
SE1522,Tenhult,,Jönköping,SE,57.706654,14.321033,ardac,126.6,False,57.5636,16.4485
SE1523,Tibro,,Västra Götaland,SE,58.42489,14.163119,ardac,119.7,False,58.2696,16.6282
SE1524,Tidaholm,,Västra Götaland,SE,58.140693,13.924145,ardac,120.2,False,57.6579,11.9389
SE1525,Tidan,,Västra Götaland,SE,58.576338,14.012095,ardac,126.3,False,58.2551,11.7146
SE1526,Tidö-Lindö,,Västmanland,SE,59.512822,16.531577,ardac,74.9,True,58.7985,17.1121
SE1527,Tierp,,Uppsala,SE,60.342961,17.516839,ardac,19.8,True,60.4527,17.3393
SE1528,Tillberga,,Västmanland,SE,59.686704,16.618347,ardac,82.8,True,58.9558,17.5
SE1529,Timmele,,Västra Götaland,SE,57.861904,13.428551,ardac,91.3,True,57.6811,11.7685
SE1530,Timmernabben,,Kalmar,SE,56.970307,16.43421,ardac,0.8,True,56.9089,16.5275
SE1531,Timmersdala,,Västra Götaland,SE,58.527673,13.759432,ardac,111.9,False,58.2022,11.4675
SE1532,Timrå,,Västernorrland,SE,62.489319,17.327373,ardac,0.3,True,62.427,17.4345
SE1533,Tingsryd,,Kronoberg,SE,56.527906,14.977188,ardac,38.3,True,56.1557,15.031
SE1534,Tingstäde,,Gotland,SE,57.735759,18.613689,ardac,10.7,True,57.6728,18.7052
SE1535,Tjautjas,,Norrbotten,SE,67.326607,20.736699,ardac,170.5,False,68.2457,17.1053
SE1536,Tjuvkil,,Västra Götaland,SE,57.893324,11.743298,ardac,1.4,True,57.839,11.554
SE1537,Tjällmo,,Östergötland,SE,58.71515,15.354501,ardac,48.8,True,58.29,16.588
SE1538,Tjörnarp,,Skåne,SE,55.999983,13.635045,ardac,40.5,True,55.9622,12.8963
SE1539,Tobo,,Uppsala,SE,60.257396,17.656487,ardac,27.2,True,60.5228,17.5151
SE1540,Tofta,,Gotland,SE,57.520806,18.168597,ardac,3.6,True,57.6133,18.2951
SE1541,Tofta,,Halland,SE,57.17385,12.30051,ardac,6.2,True,57.1204,12.1141
SE1542,Toftbyn,,Dalarna,SE,60.713232,15.785604,ardac,76.7,True,60.7501,17.1862
SE1543,Tollarp,,Skåne,SE,55.934062,13.975141,ardac,18.1,True,55.7093,14.3299
SE1544,Tollered,,Västra Götaland,SE,57.818729,12.422679,ardac,32.4,True,57.77,11.941
SE1545,Tomelilla,,Skåne,SE,55.543798,13.954122,ardac,12.4,True,55.4842,14.0479
SE1546,Tomtebo,,Västerbotten,SE,63.808575,20.376449,ardac,4.9,True,63.7441,20.4817
SE1547,Torbjörntorp,,Västra Götaland,SE,58.210335,13.608092,ardac,101.2,False,57.719,11.9148
SE1548,Torekov,,Skåne,SE,56.426297,12.626767,ardac,0.8,True,56.3733,12.4435
SE1549,Torestorp,,Kalmar,SE,56.794375,15.947044,ardac,24.8,True,56.5642,16.2979
SE1550,Torhamn,,Blekinge,SE,56.095268,15.831092,ardac,0.9,True,56.0343,15.9233
SE1551,Tormestorp,,Skåne,SE,56.11158,13.744208,ardac,40.8,True,55.9182,12.9913
SE1552,Torna Hällestad,,Skåne,SE,55.678976,13.418465,ardac,22.5,True,55.4709,13.225
SE1553,Torpa,,Halland,SE,57.188948,12.280569,ardac,5.1,True,57.1354,12.0941
SE1554,Torpsbruk,,Kronoberg,SE,57.034375,14.571008,ardac,96.9,True,56.1841,14.8528
SE1555,Torpshammar,,Västernorrland,SE,62.476165,16.331355,ardac,51.7,True,62.3683,17.4404
SE1556,Torreby,,Västra Götaland,SE,58.443718,11.599255,ardac,2.2,True,58.3892,11.4073
SE1557,Torsby,,Värmland,SE,60.13552,13.006788,ardac,129.0,False,59.3252,10.9114
SE1558,Torshälla,,Södermanland,SE,59.419243,16.474944,ardac,73.2,True,58.8608,17.0864
SE1559,Torsåker,,Västernorrland,SE,63.076659,17.715374,ardac,8.7,True,62.9962,18.1633
SE1560,Torsång,,Dalarna,SE,60.46352,15.569629,ardac,92.3,True,60.6583,16.9924
SE1561,Torsås,,Kalmar,SE,56.412408,16.003073,ardac,5.7,True,56.3513,16.0957
SE1562,Tortuna,,Västmanland,SE,59.674702,16.722464,ardac,77.7,True,58.9432,17.6017
SE1563,Torup,,Halland,SE,56.953542,13.074462,ardac,32.6,True,56.7509,12.5923
SE1564,Totebo,,Kalmar,SE,57.631865,16.182809,ardac,20.2,True,57.5566,16.5673
SE1565,Tranemo,,Västra Götaland,SE,57.490491,13.431046,ardac,80.0,True,56.9882,12.3444
SE1566,Tranholmen,,Stockholm,SE,59.291823,17.779643,ardac,15.3,True,59.2117,18.1786
SE1567,Transtrand,,Dalarna,SE,61.09037,13.321705,ardac,194.4,False,60.7334,17.2283
SE1568,Tranås,,Jönköping,SE,58.039262,14.825735,ardac,95.8,True,57.9028,16.6787
SE1569,Traryd,,Kronoberg,SE,56.579041,13.752695,ardac,50.4,True,56.7044,12.7315
SE1570,Trekanten,,Kalmar,SE,56.699905,16.11671,ardac,10.1,True,56.6387,16.2098
SE1571,Trelleborg,,Skåne,SE,55.37592,13.146152,ardac,2.0,True,55.3236,12.9671
SE1572,Trollhättan,,Västra Götaland,SE,58.217868,12.341385,ardac,26.6,True,58.1726,11.5595
SE1573,Trosa,,Södermanland,SE,58.896705,17.547811,ardac,0.7,True,58.8344,17.644
SE1574,Trångsviken,,Jämtland,SE,63.333131,14.016113,ardac,137.6,False,64.5777,11.4354
SE1575,Tråvad,,Västra Götaland,SE,58.251866,13.085384,ardac,70.5,True,58.2197,11.711
SE1576,Trädet,,Västra Götaland,SE,57.985633,13.531922,ardac,100.4,False,57.6497,11.8579
SE1577,Trödje,,Gävleborg,SE,60.818958,17.21457,ardac,2.4,True,60.7568,17.3167
SE1578,Trönninge,,Halland,SE,57.14172,12.288236,ardac,4.0,True,57.0882,12.102
SE1579,Trönningenäs,,Halland,SE,57.138731,12.223881,ardac,1.6,True,57.0851,12.0377
SE1580,Trönö,,Gävleborg,SE,61.396137,16.833717,ardac,14.5,True,61.3185,17.2605
SE1581,Tumba,,Stockholm,SE,59.200555,17.834312,ardac,9.4,True,59.1381,17.9308
SE1582,Tumbo,,Södermanland,SE,59.429688,16.339888,ardac,80.8,True,58.8718,16.9536
SE1583,Tumlehed,,Västra Götaland,SE,57.728818,11.74337,ardac,1.7,True,57.6708,11.846
SE1584,Tuna,,Skåne,SE,55.913333,12.689722,ardac,6.4,True,55.8547,12.7862
SE1585,Tuna,,Stockholm,SE,59.253428,17.490446,ardac,13.5,True,59.0188,17.8545
SE1586,Tuna,,Kalmar,SE,57.5766,16.1052,ardac,24.5,True,57.5015,16.4893
SE1587,Tunnerstad,,Jönköping,SE,58.047598,14.337399,ardac,124.6,False,57.904,16.4846
SE1588,Tuolluvaara,,Norrbotten,SE,67.855418,20.318467,ardac,119.3,False,68.2641,17.2864
SE1589,Tureholm,,Norrbotten,SE,66.392166,23.604889,ardac,62.1,True,65.8338,23.8388
SE1590,Tving,,Blekinge,SE,56.31028,15.462932,ardac,13.4,True,56.2496,15.5562
SE1591,Tvååker,,Halland,SE,57.041893,12.398992,ardac,4.6,True,56.9834,12.4988
SE1592,Tvärskog,,Kalmar,SE,56.623633,16.041255,ardac,11.2,True,56.5625,16.1343
SE1593,Tvärålund,,Västerbotten,SE,64.099244,19.67026,ardac,50.4,True,63.8351,20.4214
SE1594,Tye,,Värmland,SE,59.345907,13.561706,ardac,127.6,False,59.332,10.9243
SE1595,Tygelsjö,,Skåne,SE,55.514669,13.001715,ardac,4.7,True,55.4558,13.0968
SE1596,Tynningö,,Stockholm,SE,59.377574,18.392701,ardac,0.9,True,59.3147,18.4886
SE1597,Tyringe,,Skåne,SE,56.160204,13.604263,ardac,49.3,True,55.966,12.8511
SE1598,Tystberga,,Södermanland,SE,58.849348,17.234324,ardac,7.7,True,58.8031,17.032
SE1599,Tågarp,,Skåne,SE,56.304305,13.822234,ardac,50.9,True,55.9145,14.4421
SE1600,Tångaberg,,Halland,SE,57.174622,12.22589,ardac,1.7,True,57.121,12.0396
SE1601,Tånga och Rögle,,Skåne,SE,56.193729,12.773407,ardac,3.7,True,55.9788,12.859
SE1602,Tånnö,,Jönköping,SE,57.094246,14.047422,ardac,87.1,True,56.7595,12.6922
SE1603,Täfteå,,Västerbotten,SE,63.839675,20.475946,ardac,2.4,True,63.7751,20.581
SE1604,Täljö,,Stockholm,SE,59.47179,18.239194,ardac,1.7,True,59.409,18.3356
SE1605,Tällberg,,Dalarna,SE,60.825635,14.99458,ardac,118.5,False,60.6848,17.001
SE1606,Tärnaby,,Västerbotten,SE,65.713176,15.282744,ardac,82.5,True,65.8739,12.7981
SE1607,Tärnsjö,,Uppsala,SE,60.154562,16.92751,ardac,56.0,True,60.5435,17.4421
SE1608,Tävelsås,,Kronoberg,SE,56.769892,14.823869,ardac,66.6,True,56.2418,14.8598
SE1609,Töcksfors,,Värmland,SE,59.509315,11.842519,ardac,51.4,True,59.3046,11.0276
SE1610,Töllsjö,,Västra Götaland,SE,57.797309,12.63476,ardac,43.7,True,57.7537,11.8614
SE1611,Töreboda,,Västra Götaland,SE,58.708106,14.123973,ardac,119.7,False,58.3976,16.58
SE1612,Töre,,Norrbotten,SE,65.913129,22.647827,ardac,0.6,True,65.693,22.6804
SE1613,Törestorp,,Västra Götaland,SE,58.309948,13.073277,ardac,69.9,True,58.1212,11.6894
SE1614,Tösse,,Västra Götaland,SE,58.971904,12.64486,ardac,69.6,True,58.9375,10.9415
SE1615,Ubbhult norra,,Västra Götaland,SE,57.580985,12.354719,ardac,22.3,True,57.532,11.8762
SE1616,Ucklum,,Västra Götaland,SE,58.084444,11.956919,ardac,8.5,True,58.034,11.4724
SE1617,Uddebo,,Västra Götaland,SE,57.474595,13.263325,ardac,69.8,True,56.9658,12.465
SE1618,Uddeholm,,Värmland,SE,60.024766,13.619007,ardac,161.2,False,59.229,10.9079
SE1619,Udden,,Västra Götaland,SE,58.839547,11.07948,ardac,7.3,True,58.7843,10.8862
SE1620,Uddevalla,,Västra Götaland,SE,58.349055,11.938285,ardac,3.7,True,58.1422,11.444
SE1621,Uddheden,,Värmland,SE,59.945983,12.910784,ardac,121.2,False,59.2887,11.1375
SE1622,Ullared,,Halland,SE,57.136086,12.715631,ardac,26.5,True,56.9321,12.2331
SE1623,Ullervad,,Västra Götaland,SE,58.666834,13.856477,ardac,121.0,False,58.1865,11.548
SE1624,Ullånger,,Västernorrland,SE,63.01822,18.141902,ardac,5.5,True,62.9553,18.2492
SE1625,Ulricehamn,,Västra Götaland,SE,57.811217,13.444322,ardac,91.4,True,57.787,11.7941
SE1626,Ulrika,,Östergötland,SE,58.13297,15.394375,ardac,66.3,True,58.019,16.6648
SE1627,Ultuna,,Uppsala,SE,59.815944,17.659877,ardac,47.7,True,59.4076,18.296
SE1628,Ulvkälla,,Jämtland,SE,62.023158,14.365271,ardac,150.2,False,61.844,17.4337
SE1629,Ulvåker,,Västra Götaland,SE,58.473624,13.928527,ardac,120.8,False,58.151,11.6384
SE1630,Umeå,,Västerbotten,SE,63.825656,20.263074,ardac,8.6,True,63.7613,20.3686
SE1631,Undenäs,,Västra Götaland,SE,58.656896,14.398847,ardac,103.5,False,58.3562,16.5535
SE1632,Undersåker,,Jämtland,SE,63.314686,13.242053,ardac,103.7,False,64.5383,11.7105
SE1633,Unnaryd,,Halland,SE,56.954534,13.52848,ardac,52.5,True,56.7599,12.76
SE1634,Upphärad,,Västra Götaland,SE,58.158264,12.304859,ardac,25.3,True,58.1128,11.5243
SE1635,Upplanda,,Uppsala,SE,60.202035,17.18022,ardac,43.0,True,60.4511,17.349
SE1636,Uppsala,,Uppsala,SE,59.859412,17.64112,ardac,52.4,True,60.0721,18.4311
SE1637,Urshult,,Kronoberg,SE,56.53176,14.8141,ardac,40.6,True,56.1596,14.8695
SE1638,Ursviken,,Västerbotten,SE,64.708124,21.176686,ardac,0.4,True,64.6431,21.2832
SE1639,Utby,,Västra Götaland,SE,58.333811,11.786892,ardac,1.4,True,58.1232,11.5884
SE1640,Utvälinge,,Skåne,SE,56.215747,12.780708,ardac,1.2,True,56.0008,12.8664
SE1641,Vad,,Uppsala,SE,59.769675,16.861097,ardac,76.5,True,60.47,17.438
SE1642,Vadstena,,Östergötland,SE,58.431081,14.780762,ardac,84.4,True,58.295,16.6539
SE1643,Vaggeryd,,Jönköping,SE,57.498057,14.148478,ardac,120.3,False,56.6955,12.7435
SE1644,Vagnhärad,,Södermanland,SE,58.94688,17.495592,ardac,4.8,True,58.8846,17.592
SE1645,Valbo,,Gävleborg,SE,60.644777,17.012276,ardac,10.9,True,60.7385,17.1481
SE1646,Valdemarsvik,,Östergötland,SE,58.20259,16.603219,ardac,0.8,True,58.2966,16.7282
SE1647,Valinge,,Halland,SE,57.171131,12.381098,ardac,10.5,True,57.1178,12.1946
SE1648,Valje,,Skåne,SE,56.064597,14.544245,ardac,1.3,True,55.9942,14.9164
SE1649,Valla,,Västernorrland,SE,62.390683,17.165769,ardac,9.0,True,62.312,17.6052
SE1650,Vallargärdet,,Värmland,SE,59.477358,13.584232,ardac,132.8,False,59.3073,10.9326
SE1651,Vallberga,,Halland,SE,56.467628,13.024907,ardac,6.7,True,56.4211,12.5595
SE1652,Vallda,,Halland,SE,57.472678,11.999076,ardac,2.9,True,57.4188,11.8116
SE1653,Vallentuna,,Stockholm,SE,59.533224,18.07645,ardac,8.8,True,59.2971,18.4394
SE1654,Vallkärra,,Skåne,SE,55.740753,13.173056,ardac,9.1,True,55.5323,12.9805
SE1655,Vallsta,,Dalarna,SE,60.417512,15.358189,ardac,104.9,False,60.7548,17.1267
SE1656,Vallvik,,Gävleborg,SE,61.184365,17.176344,ardac,0.9,True,61.1222,17.2796
SE1657,Vallåkra,,Skåne,SE,55.962267,12.858315,ardac,4.8,True,55.9035,12.9547
SE1658,Valskog,,Västmanland,SE,59.444012,15.949726,ardac,87.8,True,58.8577,17.1692
SE1659,Vankiva,,Skåne,SE,56.200364,13.741501,ardac,46.7,True,56.007,12.9869
SE1660,Vannsätter,,Gävleborg,SE,61.2608,16.788084,ardac,17.6,True,61.1833,17.2132
SE1661,Vansbro,,Dalarna,SE,60.461057,14.259809,ardac,162.8,False,60.6132,16.9377
SE1662,Vansö kyrkby,,Södermanland,SE,59.405653,16.940407,ardac,48.8,True,59.0006,17.5777
SE1663,Vaplan,,Jämtland,SE,63.335505,14.215024,ardac,146.8,False,64.5834,11.6427
SE1664,Vara,,Västra Götaland,SE,58.249026,13.101598,ardac,71.4,True,58.2205,11.4318
SE1665,Varberg,,Halland,SE,57.105741,12.250294,ardac,0.8,True,57.0522,12.0643
SE1666,Varekil,,Västra Götaland,SE,58.125344,11.719767,ardac,2.3,True,58.071,11.5293
SE1667,Vargön,,Västra Götaland,SE,58.358103,12.400362,ardac,30.5,True,58.1567,11.6084
SE1668,Varnhem,,Västra Götaland,SE,58.385343,13.65057,ardac,103.8,False,58.2112,11.67
SE1669,Vartofta,,Västra Götaland,SE,58.096067,13.632775,ardac,103.7,False,57.7614,11.9527
SE1670,Vassmolösa,,Kalmar,SE,56.598532,16.164912,ardac,3.4,True,56.5373,16.2577
SE1671,Vattholma,,Uppsala,SE,60.01905,17.732792,ardac,42.6,True,60.2497,18.2161
SE1672,Vattjom,,Västernorrland,SE,62.365063,17.033805,ardac,16.3,True,62.2867,17.4732
SE1673,Vattnäs,,Dalarna,SE,61.047784,14.594616,ardac,138.1,False,60.7261,17.2179
SE1674,Vattubrinken,,Stockholm,SE,59.243867,17.582851,ardac,9.4,True,59.009,17.9462
SE1675,Vaxholm,,Stockholm,SE,59.400907,18.290323,ardac,1.1,True,59.3381,18.3865
SE1676,Veberöd,,Skåne,SE,55.633499,13.492564,ardac,25.5,True,55.4101,13.8474
SE1677,Veddige,,Halland,SE,57.266395,12.330372,ardac,10.3,True,57.0567,12.1346
SE1678,Vedevåg,,Örebro,SE,59.524706,15.297993,ardac,109.4,False,58.7585,17.0999
SE1679,Vedum,,Västra Götaland,SE,58.171041,12.995567,ardac,65.3,True,58.1379,11.6243
SE1680,Vegby,,Västra Götaland,SE,57.67886,13.374226,ardac,82.0,True,57.6538,11.73
SE1681,Veinge,,Halland,SE,56.554025,13.076164,ardac,8.8,True,56.5076,12.6096
SE1682,Velanda,,Västra Götaland,SE,58.228718,12.310233,ardac,24.8,True,58.1832,11.5281
SE1683,Vellinge,,Skåne,SE,55.470895,13.019944,ardac,2.8,True,55.412,13.1149
SE1684,Vemdalen,,Jämtland,SE,62.445167,13.86282,ardac,179.6,False,62.2598,17.308
SE1685,Vena,,Västra Götaland,SE,57.859463,11.874712,ardac,8.3,True,57.8054,11.6854
SE1686,Venjan,,Dalarna,SE,60.952753,13.910921,ardac,176.1,False,60.6133,17.1644
SE1687,Vessigebro,,Halland,SE,56.978627,12.658665,ardac,15.0,True,56.9257,12.4727
SE1688,Vetlanda,,Jönköping,SE,57.426017,15.087022,ardac,85.0,True,57.4709,16.361
SE1689,Vibble,,Gotland,SE,57.603836,18.249661,ardac,6.0,True,57.6963,18.3767
SE1690,Vickleby,,Kalmar,SE,56.581931,16.458896,ardac,2.5,True,56.5345,16.2698
SE1691,Vidja,,Stockholm,SE,59.197165,18.059693,ardac,12.3,True,59.1345,18.1557
SE1692,Vidsel,,Norrbotten,SE,65.833605,20.520088,ardac,58.6,True,65.5388,21.6784
SE1693,Vidöåsen,,Värmland,SE,59.341977,13.453336,ardac,121.6,False,59.3238,11.1213
SE1694,Viforsen och Tunbyn,,Västernorrland,SE,62.306101,17.254139,ardac,7.2,True,62.2439,17.3608
SE1695,Vika,,Dalarna,SE,60.512748,15.710759,ardac,83.4,True,60.7061,17.1365
SE1696,Vikarbyn,,Dalarna,SE,60.910639,15.023776,ardac,116.1,False,60.6137,17.0019
SE1697,Viken,,Jönköping,SE,57.806428,13.883746,ardac,115.4,False,57.6358,11.9331
SE1698,Vikingstad,,Östergötland,SE,58.383241,15.433245,ardac,51.3,True,58.2688,16.7123
SE1699,Vikmanshyttan,,Dalarna,SE,60.299009,15.831051,ardac,86.3,True,60.6626,16.967
SE1700,Vik,,Uppsala,SE,59.736383,17.462543,ardac,48.0,True,59.3108,18.4025
SE1701,Viksjöfors,,Gävleborg,SE,61.337522,15.952948,ardac,61.5,True,61.2169,17.3452
SE1702,Vilhelmina,,Västerbotten,SE,64.625718,16.654162,ardac,181.5,False,63.4852,19.3195
SE1703,Villshärad,,Halland,SE,56.69436,12.696605,ardac,1.6,True,56.7977,12.5223
SE1704,Vilshult,,Blekinge,SE,56.354337,14.482624,ardac,25.4,True,56.2841,14.8577
SE1705,Vimmerby,,Kalmar,SE,57.678134,15.791723,ardac,43.8,True,57.5902,16.467
SE1706,Vinberg,,Halland,SE,56.947054,12.542938,ardac,7.6,True,56.8939,12.3573
SE1707,Vinbergs kyrkby,,Halland,SE,56.930569,12.547963,ardac,6.4,True,56.8774,12.3624
SE1708,Vindeln,,Västerbotten,SE,64.202481,19.717752,ardac,57.5,True,63.7832,20.4146
SE1709,Vindön,,Västra Götaland,SE,58.299203,11.691718,ardac,0.9,True,58.2448,11.5004
SE1710,Vingåker,,Södermanland,SE,59.043372,15.871556,ardac,46.7,True,58.769,17.1413
SE1711,Vinninga,,Västra Götaland,SE,58.453754,13.260211,ardac,81.8,True,58.1143,11.5671
SE1712,Vinnö,,Skåne,SE,56.056175,14.08788,ardac,19.8,True,55.9871,14.4608
SE1713,Vinslöv,,Skåne,SE,56.102213,13.909576,ardac,31.9,True,55.7216,14.2494
SE1714,Vintrie,,Skåne,SE,55.552977,12.962067,ardac,2.9,True,55.4941,13.0573
SE1715,Vintrosa,,Örebro,SE,59.255355,14.961855,ardac,98.3,True,58.7896,17.1163
SE1716,Vinäs,,Dalarna,SE,60.967894,14.540253,ardac,142.0,False,60.6473,17.1578
SE1717,Virsbo,,Västmanland,SE,59.871368,16.048057,ardac,109.7,False,60.5445,17.2391
SE1718,Virserum,,Kalmar,SE,57.316854,15.586853,ardac,53.4,True,57.3716,16.5701
SE1719,Visby,,Gotland,SE,57.637936,18.297982,ardac,4.2,True,57.7303,18.4253
SE1720,Viskafors,,Västra Götaland,SE,57.63075,12.849207,ardac,51.0,True,57.5926,11.7887
SE1721,Vislanda,,Kronoberg,SE,56.787226,14.451583,ardac,71.0,True,56.2491,14.7725
SE1722,Vissefjärda,,Kalmar,SE,56.535523,15.586146,ardac,34.0,True,56.462,15.9609
SE1723,Vistträsk,,Norrbotten,SE,65.692846,20.648637,ardac,47.5,True,65.3973,21.7996
SE1724,Vi,,Västernorrland,SE,62.428333,17.418437,ardac,2.0,True,62.366,17.5252
SE1725,Vitaby,,Skåne,SE,55.684977,14.153547,ardac,4.2,True,55.6252,14.2474
SE1726,Vittangi,,Norrbotten,SE,67.678286,21.650187,ardac,178.6,False,68.1808,17.0155
SE1727,Vittaryd,,Kronoberg,SE,56.970755,13.946791,ardac,74.7,True,56.7912,12.6075
SE1728,Vittinge,,Uppsala,SE,59.904332,17.061062,ardac,74.6,True,60.4648,17.2952
SE1729,Vittjärv,,Norrbotten,SE,65.850234,21.590291,ardac,15.9,True,65.4757,21.5639
SE1730,Vittsjö,,Skåne,SE,56.341923,13.665492,ardac,48.7,True,55.9919,12.8969
SE1731,Vittskövle,,Skåne,SE,55.857306,14.147398,ardac,5.5,True,55.7975,14.2416
SE1732,Vollsjö,,Skåne,SE,55.705442,13.790058,ardac,25.6,True,55.6372,14.1602
SE1733,Vrena,,Södermanland,SE,58.860158,16.698263,ardac,22.7,True,58.7832,17.0948
SE1734,Vretstorp,,Örebro,SE,59.023555,14.866828,ardac,87.5,True,58.4189,16.6823
SE1735,Vrigstad,,Jönköping,SE,57.354616,14.474132,ardac,120.6,False,57.3791,16.3209
SE1736,Vrångö,,Västra Götaland,SE,57.575646,11.785133,ardac,6.1,True,57.5176,11.8873
SE1737,Vuollerim,,Norrbotten,SE,66.42956,20.602417,ardac,94.7,True,65.4892,21.878
SE1738,Vålberg,,Värmland,SE,59.395381,13.19347,ardac,108.9,False,59.2141,11.1582
SE1739,Våmhus,,Dalarna,SE,61.11686,14.477964,ardac,142.7,False,61.1085,17.1765
SE1740,Vånga,,Skåne,SE,56.182372,14.37371,ardac,17.6,True,56.1124,14.7473
SE1741,Vårdsätra,,Uppsala,SE,59.793512,17.622593,ardac,46.9,True,59.3853,18.2588
SE1742,Vårgårda,,Västra Götaland,SE,58.031649,12.80904,ardac,57.9,True,57.6805,11.7222
SE1743,Vårsta,,Stockholm,SE,59.16533,17.795928,ardac,4.9,True,59.1029,17.8924
SE1744,Våxtorp,,Halland,SE,56.419302,13.115896,ardac,14.1,True,56.3731,12.6509
SE1745,Väckelsång,,Kronoberg,SE,56.640268,14.917505,ardac,51.2,True,56.2681,14.972
SE1746,Väderstad,,Östergötland,SE,58.311435,14.923643,ardac,81.3,True,58.3437,16.5242
SE1747,Väggarp,,Skåne,SE,55.786782,13.241248,ardac,15.5,True,55.5785,13.0481
SE1748,Väländan,,Stockholm,SE,59.112957,17.987988,ardac,6.7,True,59.0504,18.0839
SE1749,Vänersborg,,Västra Götaland,SE,58.443364,12.360981,ardac,30.6,True,58.2418,11.5673
SE1750,Väne-Åsaka,,Västra Götaland,SE,58.247085,12.42024,ardac,31.4,True,58.2022,11.6376
SE1751,Vänge,,Uppsala,SE,59.858646,17.430238,ardac,59.4,True,60.2279,18.2571
SE1752,Vännäsby,,Västerbotten,SE,63.914888,19.824866,ardac,30.3,True,63.8282,20.2796
SE1753,Vännäs,,Västerbotten,SE,63.940872,19.702571,ardac,35.5,True,63.8315,20.5059
SE1754,Väring,,Västra Götaland,SE,58.511243,13.960835,ardac,123.2,False,58.1892,11.668
SE1755,Värmlandsbro,,Värmland,SE,59.181513,13.01479,ardac,92.8,True,59.1542,10.9974
SE1756,Värnamo,,Jönköping,SE,57.185213,14.041217,ardac,92.8,True,56.6941,12.6718
SE1757,Värsås,,Västra Götaland,SE,58.349996,14.04927,ardac,127.1,False,58.3525,16.538
SE1758,Väröbacka,,Halland,SE,57.251126,12.180716,ardac,1.7,True,57.0412,11.9858
SE1759,Väse,,Värmland,SE,59.384482,13.852877,ardac,144.7,False,59.2219,10.9028
SE1760,Väskinde,,Gotland,SE,57.691178,18.420183,ardac,6.0,True,57.7835,18.548
SE1761,Västanvik,,Dalarna,SE,60.729444,14.945478,ardac,122.7,False,60.7451,16.9793
SE1762,Västanvik,,Östergötland,SE,58.68333,14.93333,ardac,72.6,True,58.4039,16.4936
SE1763,Västerberg,,Örebro,SE,58.996866,15.379228,ardac,61.5,True,58.8677,16.9802
SE1764,Västerby,,Uppsala,SE,59.848114,17.516331,ardac,55.4,True,60.2168,18.3439
SE1765,Västerfärnebo,,Västmanland,SE,59.94613,16.279683,ardac,95.2,True,60.4617,17.4431
SE1766,Västerhaninge,,Stockholm,SE,59.122159,18.108596,ardac,3.6,True,59.0595,18.2044
SE1767,Västerhejde,,Gotland,SE,57.585592,18.227334,ardac,4.0,True,57.5408,18.0308
SE1768,Västerljung,,Södermanland,SE,58.921333,17.447492,ardac,2.9,True,58.8591,17.5439
SE1769,Västerlösa,,Östergötland,SE,58.422555,15.350139,ardac,53.4,True,58.3089,16.6308
SE1770,Västermyckeläng,,Dalarna,SE,61.212874,14.031354,ardac,165.3,False,61.1975,17.0592
SE1771,Västervik,,Kalmar,SE,57.759418,16.638503,ardac,0.7,True,57.6978,16.7333
SE1772,Västerås,,Västmanland,SE,59.611099,16.546367,ardac,80.4,True,58.7411,17.0967
SE1773,Västra Bispgården,,Jämtland,SE,63.024153,16.63549,ardac,53.9,True,62.7405,18.0601
SE1774,Västra Hagen,,Halland,SE,57.421668,11.940857,ardac,1.7,True,57.3677,11.7537
SE1775,Västra Husby,,Östergötland,SE,58.486862,16.172054,ardac,14.1,True,58.4115,16.5656
SE1776,Västra Ingelstad,,Skåne,SE,55.490469,13.112362,ardac,8.8,True,55.4315,13.2073
SE1777,Västra Karaby,,Skåne,SE,55.810902,13.051412,ardac,7.4,True,55.7585,12.8705
SE1778,Västra Karup,,Skåne,SE,56.411539,12.743405,ardac,5.8,True,56.5149,12.5704
SE1779,Västra Tommarp,,Skåne,SE,55.397667,13.102386,ardac,2.1,True,55.3387,13.1971
SE1780,Västra Ämtervik,,Värmland,SE,59.727172,13.143214,ardac,122.5,False,59.2321,11.0788
SE1781,Växjö,,Kronoberg,SE,56.878718,14.809438,ardac,78.6,True,56.1947,14.8261
SE1782,Yngsjö,,Skåne,SE,55.88277,14.229382,ardac,2.3,True,55.823,14.3235
SE1783,Ysane,,Blekinge,SE,56.088968,14.649451,ardac,3.6,True,56.0288,14.7434
SE1784,Ysby,,Halland,SE,56.493315,13.119966,ardac,11.6,True,56.4471,12.6541
SE1785,Ystad,,Skåne,SE,55.432984,13.819655,ardac,1.4,True,55.3735,13.9134
SE1786,Ytterhogdal,,Jämtland,SE,62.177209,14.939436,ardac,126.4,False,62.0201,17.3615
SE1787,Ytternäs och Vreta,,Uppsala,SE,59.775535,17.601377,ardac,46.1,True,59.3674,18.2375
SE1788,Yttersjö,,Västerbotten,SE,63.786928,19.984477,ardac,14.2,True,63.5677,20.0365
SE1789,Zinkgruvan,,Örebro,SE,58.815435,15.106626,ardac,65.5,True,58.3783,16.6422
SE1790,Åbyggeby,,Gävleborg,SE,60.728651,17.126838,ardac,4.6,True,60.6666,17.2288
SE1791,Åby,,Östergötland,SE,58.662148,16.175925,ardac,3.0,True,58.7276,16.8988
SE1792,Åbytorp,,Uppsala,SE,60.043209,17.983401,ardac,29.4,True,60.1177,18.4295
SE1793,Åby,,Östergötland,SE,58.662148,16.175925,ardac,3.0,True,58.7276,16.8988
SE1794,Åhus,,Skåne,SE,55.923516,14.295522,ardac,1.9,True,55.8538,14.6668
SE1795,Åkarp,,Skåne,SE,55.876893,13.13622,ardac,14.0,True,55.8246,12.9549
SE1796,Åkersberga,,Stockholm,SE,59.482351,18.294398,ardac,1.5,True,59.4195,18.3908
SE1797,Åkers styckebruk,,Södermanland,SE,59.256441,17.108021,ardac,33.0,True,58.8507,17.7409
SE1798,Ålberga,,Södermanland,SE,58.725042,16.580952,ardac,8.6,True,58.8041,17.007
SE1799,Åled,,Halland,SE,56.742381,12.947557,ardac,11.3,True,56.6898,12.7623
SE1800,Åminne,,Gotland,SE,57.612497,18.761462,ardac,0.5,True,57.5495,18.8524
SE1801,Åmmeberg,,Örebro,SE,58.86561,14.999192,ardac,73.2,True,58.4296,16.5382
SE1802,Åmotfors,,Värmland,SE,59.762586,12.362227,ardac,90.8,True,59.2533,10.9159
SE1803,Åmot,,Gävleborg,SE,60.965613,16.451243,ardac,38.4,True,60.718,17.1569
SE1804,Åmunnen,,Kalmar,SE,56.627696,16.236805,ardac,1.7,True,56.5664,16.3296
SE1805,Åmynnet,,Västernorrland,SE,63.18611,18.530696,ardac,1.9,True,63.1229,18.6377
SE1806,Åmål,,Västra Götaland,SE,58.969858,12.618004,ardac,68.1,True,58.9351,10.9148
SE1807,Ånge,,Västernorrland,SE,62.473979,15.641942,ardac,87.4,True,62.3396,17.419
SE1808,Ånäset,,Västerbotten,SE,65.279046,19.908666,ardac,63.8,True,64.8341,20.9881
SE1809,Åre,,Jämtland,SE,63.401088,13.082224,ardac,91.9,True,64.6232,11.5392
SE1810,Årjäng,,Värmland,SE,59.442445,12.109184,ardac,56.8,True,59.2418,10.9901
SE1811,Årnäs,,Västra Götaland,SE,58.667914,13.58461,ardac,106.1,False,58.1799,11.575
SE1812,Årstad,,Värmland,SE,59.583566,12.130193,ardac,68.9,True,59.2266,11.0019
SE1813,Årsta Havsbad,,Stockholm,SE,59.086226,18.165957,ardac,1.5,True,59.0235,18.2615
SE1814,Årsunda,,Gävleborg,SE,60.515076,16.733418,ardac,31.7,True,60.7492,17.2171
SE1815,Åryd,,Blekinge,SE,57.954798,13.65065,ardac,106.4,False,57.7767,11.9853
SE1816,Åryd,,Västra Götaland,SE,57.954798,13.65065,ardac,106.4,False,57.7767,11.9853
SE1817,Åsa,,Jönköping,SE,58.004745,14.604402,ardac,108.3,False,57.8714,16.4564
SE1818,Åsarna,,Jämtland,SE,62.645937,14.37056,ardac,153.9,False,62.4657,17.5009
SE1819,Åsarp,,Västra Götaland,SE,58.023848,13.568091,ardac,101.4,False,57.6884,11.8919
SE1820,Åsbro,,Örebro,SE,58.99708,15.057334,ardac,76.5,True,58.4047,16.5725
SE1821,Åsby,,Örebro,SE,59.20616,15.575398,ardac,70.9,True,58.7635,17.1218
SE1822,Åseda,,Kronoberg,SE,57.169126,15.352502,ardac,67.0,True,57.3814,16.358
SE1823,Åsele,,Västerbotten,SE,64.200078,17.614134,ardac,115.3,False,63.5754,19.3342
SE1824,Åsensbruk,,Västra Götaland,SE,58.807243,12.419478,ardac,60.3,True,58.4528,11.3129
SE1825,Åshammar,,Gävleborg,SE,60.642278,16.554025,ardac,35.1,True,60.7213,17.0049
SE1826,Ås,,Halland,SE,57.049573,12.306622,ardac,2.3,True,56.9912,12.4066
SE1827,Åsljunga,,Skåne,SE,56.309388,13.374488,ardac,33.9,True,56.4263,12.6408
SE1828,Åstorp,,Skåne,SE,56.135121,12.946246,ardac,13.9,True,55.9263,12.7529
SE1829,Åtvidaberg,,Östergötland,SE,58.217336,16.140217,ardac,28.1,True,58.2978,16.5592
SE1830,Älandsbro,,Västernorrland,SE,62.673559,17.836039,ardac,1.9,True,62.6109,17.9428
SE1831,Älgarås,,Västra Götaland,SE,58.813509,14.252111,ardac,113.6,False,58.3449,16.685
SE1832,Älghult,,Västernorrland,SE,63.819109,18.425977,ardac,58.1,True,63.561,19.1812
SE1833,Älgö,,Stockholm,SE,59.266912,18.343347,ardac,2.0,True,59.2041,18.4391
SE1834,Älmhult,,Kronoberg,SE,56.551288,14.139176,ardac,55.7,True,56.16,14.7597
SE1835,Älmsta,,Stockholm,SE,59.971707,18.803142,ardac,3.7,True,60.0636,18.941
SE1836,Älvdalen,,Dalarna,SE,61.229898,14.037394,ardac,164.8,False,61.2144,17.0668
SE1837,Älvkarleby,,Uppsala,SE,60.694577,17.695628,ardac,8.3,True,60.6321,17.7965
SE1838,Älvkarleö,,Stockholm,SE,59.353941,18.094415,ardac,1.6,True,59.2913,18.1908
SE1839,Älvnäs,,Dalarna,SE,60.586772,15.068918,ardac,116.7,False,61.0678,17.1964
SE1840,Älvsala,,Stockholm,SE,59.297232,18.640445,ardac,1.7,True,59.2342,18.7357
SE1841,Älvsbyn,,Norrbotten,SE,65.737266,20.681897,ardac,49.9,True,65.4415,21.8344
SE1842,Älvsered,,Halland,SE,57.241455,12.866472,ardac,40.6,True,56.8818,12.3719
SE1843,Älvängen,,Västra Götaland,SE,57.957664,12.118833,ardac,20.1,True,57.7476,11.9205
SE1844,Änge,,Jämtland,SE,63.458115,14.064932,ardac,135.2,False,64.5465,11.4667
SE1845,Ängelholms strand,,Skåne,SE,56.232247,12.997921,ardac,10.8,True,56.0235,12.8038
SE1846,Ängelholm,,Skåne,SE,56.242922,12.861937,ardac,2.3,True,56.0279,12.9472
SE1847,Äng,,Jönköping,SE,57.695571,14.56667,ardac,112.4,False,57.5629,16.4034
SE1848,Ängsmon,,Jämtland,SE,63.143605,14.752784,ardac,150.3,False,62.349,17.4382
SE1849,Ängsvik,,Stockholm,SE,59.240578,18.530325,ardac,0.2,True,59.1776,18.6256
SE1850,Äppelbo,,Dalarna,SE,60.485884,14.013852,ardac,175.7,False,60.6275,17.0082
SE1851,Ärla,,Södermanland,SE,59.282521,16.676984,ardac,57.5,True,58.7389,16.9846
SE1852,Äsköping,,Södermanland,SE,59.147598,16.068838,ardac,54.1,True,58.7316,17.0102
SE1853,Äspered,,Västra Götaland,SE,57.755126,13.178227,ardac,74.6,True,57.7239,11.8223
SE1854,Äsperöd,,Skåne,SE,55.609573,13.918975,ardac,19.5,True,55.55,14.013
SE1855,Ätran,,Västra Götaland,SE,57.56431,13.12459,ardac,63.8,True,57.5326,11.7757
SE1856,Öbolandet,,Södermanland,SE,58.869822,17.572178,ardac,1.0,True,58.8075,17.6682
SE1857,Öbonäs,,Östergötland,SE,58.540714,16.183652,ardac,9.2,True,58.3097,16.5492
SE1858,Öckerö,,Västra Götaland,SE,57.7279,11.423683,ardac,16.8,True,57.6702,11.5268
SE1859,Ödeborg,,Västra Götaland,SE,58.545129,11.971767,ardac,22.2,True,58.4977,11.1832
SE1860,Ödeshög,,Östergötland,SE,58.224593,14.662207,ardac,99.3,True,58.0903,16.5252
SE1861,Ödsmål och Åsebyberg,,Västra Götaland,SE,57.915144,11.800024,ardac,2.4,True,57.8609,11.6106
SE1862,Ödsmål,,Västra Götaland,SE,58.110845,11.856059,ardac,2.0,True,58.0567,11.6655
SE1863,Ödåkra,,Skåne,SE,56.10335,12.749927,ardac,6.6,True,56.0446,12.8468
SE1864,Öggestorp,,Jönköping,SE,57.723374,14.383571,ardac,122.6,False,57.5793,16.5118
SE1865,Öjersjö,,Västra Götaland,SE,57.703826,12.143091,ardac,13.1,True,57.6501,11.9542
SE1866,Ölmbrotorp,,Örebro,SE,59.389639,15.244761,ardac,98.4,True,58.7798,17.0722
SE1867,Ölme,,Värmland,SE,59.362094,14.009947,ardac,149.0,False,59.3593,11.0657
SE1868,Ölmstad,,Jönköping,SE,57.926612,14.397633,ardac,120.0,False,57.9378,16.5654
SE1869,Ölsta,,Stockholm,SE,59.400148,17.655159,ardac,20.1,True,59.3024,18.3585
SE1870,Önneköp,,Skåne,SE,55.786116,13.87089,ardac,20.6,True,55.7177,14.2416
SE1871,Önnestad,,Skåne,SE,56.055872,14.023399,ardac,23.2,True,55.8309,14.379
SE1872,Örbyhus,,Uppsala,SE,60.226932,17.705628,ardac,30.3,True,60.3023,18.1535
SE1873,Örebro,,Örebro,SE,59.274737,15.214998,ardac,89.5,True,58.8209,17.0682
SE1874,Öregrund,,Uppsala,SE,60.338115,18.442181,ardac,0.2,True,60.2752,18.5406
SE1875,Örkelljunga,,Skåne,SE,56.283976,13.278452,ardac,27.7,True,56.4004,12.545
SE1876,Örnsköldsvik,,Västernorrland,SE,63.288861,18.71602,ardac,3.7,True,63.0702,18.7768
SE1877,Örserum,,Jönköping,SE,58.010109,14.572033,ardac,110.3,False,57.8772,16.4245
SE1878,Örsjö,,Skåne,SE,55.466552,13.564822,ardac,6.8,True,55.399,13.9331
SE1879,Örslösa,,Västra Götaland,SE,58.508818,13.004258,ardac,68.5,True,58.163,11.6061
SE1880,Örsundsbro,,Uppsala,SE,59.731978,17.302278,ardac,53.9,True,59.3074,18.2441
SE1881,Örsundsbro norra,,Uppsala,SE,59.731978,17.302278,ardac,53.9,True,59.3074,18.2441
SE1882,Örtagården,,Västra Götaland,SE,57.681304,11.952412,ardac,2.6,True,57.6273,11.7639
SE1883,Örtofta,,Skåne,SE,55.778322,13.243988,ardac,15.1,True,55.57,13.0509
SE1884,Örviken,,Västerbotten,SE,64.668952,21.179696,ardac,0.6,True,64.7585,21.3496
SE1885,Ösmo,,Stockholm,SE,58.982826,17.896191,ardac,4.3,True,58.9203,17.992
SE1886,Össjö,,Skåne,SE,56.22861,13.031806,ardac,12.9,True,56.02,12.8376
SE1887,Östadkulle,,Västra Götaland,SE,58.023946,12.637291,ardac,48.9,True,57.6677,11.8434
SE1888,Östansjö,,Västerbotten,SE,63.960035,20.029861,ardac,27.3,True,63.8728,20.4847
SE1889,Österbybruk,,Uppsala,SE,60.195936,17.901448,ardac,23.5,True,60.2707,18.3494
SE1890,Österbymo,,Östergötland,SE,57.824795,15.275396,ardac,68.4,True,57.8677,16.5634
SE1891,Österfärnebo,,Gävleborg,SE,60.305626,16.800194,ardac,46.0,True,60.5395,17.2812
SE1892,Österslöv,,Skåne,SE,56.096288,14.245903,ardac,16.2,True,55.8707,14.6006
SE1893,Österstad,,Östergötland,SE,58.519297,15.176064,ardac,59.6,True,58.3928,16.7566
SE1894,Östersund,,Jämtland,SE,63.179365,14.635706,ardac,156.6,False,62.3867,17.3273
SE1895,Östervåla,,Uppsala,SE,60.180932,17.178084,ardac,45.0,True,60.5856,17.3814
SE1896,Östhammar,,Uppsala,SE,60.259016,18.373658,ardac,0.2,True,60.1961,18.472
SE1897,Östra Bispgården,,Jämtland,SE,63.024153,16.63549,ardac,53.9,True,62.7405,18.0601
SE1898,Östra Frölunda,,Västra Götaland,SE,57.343315,13.029861,ardac,52.7,True,56.9894,12.2467
SE1899,Östra Grevie,,Skåne,SE,55.467549,13.135778,ardac,9.7,True,55.4085,13.2306
SE1900,Östra Husby,,Östergötland,SE,58.5769,16.563881,ardac,6.0,True,58.3597,16.632
SE1901,Östra Kallfors,,Stockholm,SE,59.110495,17.560215,ardac,3.5,True,59.0311,17.9576
SE1902,Östra Karup,,Skåne,SE,56.423867,12.943154,ardac,4.8,True,56.3713,12.7595
SE1903,Östra Ljungby,,Skåne,SE,56.191351,13.064778,ardac,16.1,True,55.9828,12.8706
SE1904,Östra Ryd,,Östergötland,SE,58.404927,16.164527,ardac,16.6,True,58.3296,16.5572
SE1905,Östra Sönnarslöv,,Skåne,SE,55.885956,14.015647,ardac,14.0,True,55.8171,14.3871
SE1906,Östra Tommarp,,Skåne,SE,55.537917,14.234369,ardac,7.8,True,55.4781,14.3277
SE1907,Östra Vemmerlöv,,Skåne,SE,55.582932,14.232583,ardac,5.3,True,55.5231,14.326
SE1908,Överboda,,Dalarna,SE,60.781072,15.040524,ardac,116.7,False,60.6397,17.0441
SE1909,Överhärde,,Gävleborg,SE,60.61614,16.973445,ardac,14.4,True,60.7099,17.109
SE1910,Överkalix,,Norrbotten,SE,66.492048,22.604758,ardac,64.8,True,65.7809,22.7847
SE1911,Överlida,,Västra Götaland,SE,57.349794,12.895822,ardac,45.2,True,56.9902,12.3996
SE1912,Övertorneå,,Norrbotten,SE,66.390045,23.655002,ardac,62.1,True,65.8316,23.8879
SE1913,Övertänger,,Dalarna,SE,60.865157,15.762185,ardac,76.5,True,60.7466,17.1352
SE1914,Överum,,Kalmar,SE,57.988748,16.314315,ardac,10.7,True,57.9274,16.4103
SE1915,Öxabäck,,Västra Götaland,SE,57.394745,12.804626,ardac,40.9,True,57.0395,12.0225
SE1916,Öxeryd,,Västra Götaland,SE,57.737618,12.274383,ardac,21.3,True,57.6883,11.794
